sampleID,source,institutionCode,occurrenceID,occurrenceRemarks,eventDate,habitat,countryCode,stateProvince,county,municipality,locality,decimalLatitude,decimalLongitude,scientificName,level0Gid,level0Name,level1Gid,level1Name,level2Gid,level2Name
1304901019,GBIF,USDA_NPGS,e6312fac-0d7c-4982-b98c-0ecf6b82abfb,original: Point in the water. U.S. Department of Agriculture - National Plant Germplasm System,,,CA,Nova Scotia,,,"Peggy''s Cove, along coastal road route 333 about 2 km N of town",44.504709,-63.906612,Vaccinium macrocarpum Aiton,CAN,Canada,CAN.7_1,Nova Scotia,CAN.7.8_1,Halifax
1304901014,GBIF,USDA_NPGS,dacf58b0-34b2-421d-bd41-99fd7e6b8323,U.S. Department of Agriculture - National Plant Germplasm System,,,US,Maryland,,,,38.97612,-77.225678,Vaccinium macrocarpum Aiton,USA,United States,USA.47_1,Virginia,USA.47.40_1,Fairfax
1304901011,GBIF,USDA_NPGS,e831effd-54d6-4d7e-a62b-031fbb302ddc,U.S. Department of Agriculture - National Plant Germplasm System,,,US,California,,,"Lonesome Lake, an old mining area",41.949289,-123.297558,Vaccinium macrocarpum Aiton,USA,United States,USA.5_1,California,USA.5.47_1,Siskiyou
1304900998,GBIF,USDA_NPGS,68965d56-da49-44fc-a8f5-6f6b825ce769,U.S. Department of Agriculture - National Plant Germplasm System,,,US,California,,,"Lonesome Lake, an old mining area",41.949289,-123.297558,Vaccinium macrocarpum Aiton,USA,United States,USA.5_1,California,USA.5.47_1,Siskiyou
1304900994,GBIF,USDA_NPGS,90b506ac-9116-4b58-bffb-3b9320834e2a,U.S. Department of Agriculture - National Plant Germplasm System,,,US,Tennessee,Johnson,,"Ruritan Cranberry Nursery, Shady Valley",36.519281,-81.927015,Vaccinium macrocarpum Aiton,USA,United States,USA.43_1,Tennessee,USA.43.46_1,Johnson
1304900991,GBIF,USDA_NPGS,fdbc20db-a1b1-4290-a5fa-39b97706f2f7,U.S. Department of Agriculture - National Plant Germplasm System,,,US,Massachusetts,,,"Sandy Neck, Cape Cod",41.724373,-70.280485,Vaccinium macrocarpum Aiton,USA,United States,USA.22_1,Massachusetts,USA.22.1_1,Barnstable
1304900983,GBIF,USDA_NPGS,e9190da9-3f58-4238-840f-090289194ee4,U.S. Department of Agriculture - National Plant Germplasm System,,,US,Oregon,,,Bandon; also on beach area,43.118998,-124.390283,Vaccinium macrocarpum Aiton,USA,United States,USA.38_1,Oregon,USA.38.6_1,Coos
1304900982,GBIF,USDA_NPGS,0a43edbc-7407-40d6-8600-3d81ce707a0b,original: Point in the water. georef: Point in the water. U.S. Department of Agriculture - National Plant Germplasm System,,,US,Maine,Knox,,Vinalhaven Island,44.0729,-68.828316,Vaccinium macrocarpum Aiton,USA,United States,USA.20_1,Maine,USA.20.7_1,Knox
1304900981,GBIF,USDA_NPGS,37f58ac0-9374-4cf3-9775-bf97df1e3089,U.S. Department of Agriculture - National Plant Germplasm System,,,US,California,Marion,,"Badger Pit, old mining area",38.067205,-122.723515,Vaccinium macrocarpum Aiton,USA,United States,USA.5_1,California,USA.5.21_1,Marin
1304900980,GBIF,USDA_NPGS,8864486c-79f2-4162-9626-91fd862517f4,U.S. Department of Agriculture - National Plant Germplasm System,,,US,Tennessee,Johnson,,"Ruritan Cranberry Nursery, Shady Valley",36.519281,-81.927015,Vaccinium macrocarpum Aiton,USA,United States,USA.43_1,Tennessee,USA.43.46_1,Johnson
1304900977,GBIF,USDA_NPGS,12aa13ab-53af-4f98-8db1-239b244c53cc,U.S. Department of Agriculture - National Plant Germplasm System,,,US,California,Marion,,"Badger Pit, old mining area",38.067205,-122.723515,Vaccinium macrocarpum Aiton,USA,United States,USA.5_1,California,USA.5.21_1,Marin
1304900976,GBIF,USDA_NPGS,1c63c5a6-b46e-4f4f-88e2-3655bd5f4166,U.S. Department of Agriculture - National Plant Germplasm System,,,US,Maryland,,,,38.97612,-77.225678,Vaccinium macrocarpum Aiton,USA,United States,USA.47_1,Virginia,USA.47.40_1,Fairfax
1304900974,GBIF,USDA_NPGS,a90a2a61-ed46-43d8-b048-4261984ce65f,original: Coordinates not found to compare the country. U.S. Department of Agriculture - National Plant Germplasm System,,,US,Massachusetts,,,,42.06183,-71.716904,Vaccinium macrocarpum Aiton,USA,United States,USA.22_1,Massachusetts,USA.22.14_1,Worcester
1304900968,GBIF,USDA_NPGS,4417f43a-186f-4706-909e-25637204a39e,U.S. Department of Agriculture - National Plant Germplasm System,,,US,California,,,"East Pit, an old mining area",37.27013,-119.270336,Vaccinium macrocarpum Aiton,USA,United States,USA.5_1,California,USA.5.10_1,Fresno
1304900964,GBIF,USDA_NPGS,d55329e7-dae0-46ad-9d9c-242714e8e605,U.S. Department of Agriculture - National Plant Germplasm System,,,US,California,,,"East Pit, an old mining area",37.27013,-119.270336,Vaccinium macrocarpum Aiton,USA,United States,USA.5_1,California,USA.5.10_1,Fresno
1304900958,GBIF,USDA_NPGS,f3b1aea6-ce49-472c-9fd7-9c3818862475,U.S. Department of Agriculture - National Plant Germplasm System,,,US,Maryland,,,,38.97612,-77.225678,Vaccinium macrocarpum Aiton,USA,United States,USA.47_1,Virginia,USA.47.40_1,Fairfax
1304900957,GBIF,USDA_NPGS,5e0c522a-521a-40be-bfbc-a177b2efcdc0,original: Coordinates not found to compare the country. U.S. Department of Agriculture - National Plant Germplasm System,,,US,Maine,,,"Boyden''s Lake, Robbinston",45.021491,-67.144318,Vaccinium macrocarpum Aiton,USA,United States,USA.20_1,Maine,USA.20.15_1,Washington
1304900947,GBIF,USDA_NPGS,72536951-1568-4f02-a68c-e1839329d5b2,U.S. Department of Agriculture - National Plant Germplasm System,,,US,Maine,,,"Great Pond Bog, Belgrade",44.499444,-69.851761,Vaccinium macrocarpum Aiton,USA,United States,USA.20_1,Maine,USA.20.6_1,Kennebec
1304900946,GBIF,USDA_NPGS,4a0d39a9-2ff3-4ea3-8053-4784aec5e774,original: Point in the water. georef: Point in the water. U.S. Department of Agriculture - National Plant Germplasm System,,,US,Maryland,Anne Arundel,,"near Annapolis, small sphagnum bog",38.97796,-76.498686,Vaccinium macrocarpum Aiton,USA,United States,USA.21_1,Maryland,USA.21.2_1,Anne Arundel
1304900935,GBIF,USDA_NPGS,e1b81cd7-5f80-4310-bb39-e2a4d166d5b4,U.S. Department of Agriculture - National Plant Germplasm System,,,US,Maine,,,"Ellis Farm, Belgrade",44.447292,-69.832546,Vaccinium macrocarpum Aiton,USA,United States,USA.20_1,Maine,USA.20.6_1,Kennebec
1304900929,GBIF,USDA_NPGS,04bc5326-c2bb-4875-b6ed-8442c49ef62c,U.S. Department of Agriculture - National Plant Germplasm System,,,US,Maryland,,,,38.97612,-77.225678,Vaccinium macrocarpum Aiton,USA,United States,USA.47_1,Virginia,USA.47.40_1,Fairfax
1304900928,GBIF,USDA_NPGS,8e7ca327-1623-484c-8c0b-9610597d7e2f,U.S. Department of Agriculture - National Plant Germplasm System,,,US,Maryland,,,,38.97612,-77.225678,Vaccinium macrocarpum Aiton,USA,United States,USA.47_1,Virginia,USA.47.40_1,Fairfax
1304851232,GBIF,Bioversity,1002d620-6073-4bb1-ae8a-ff98e940bc54,. Coordinates do not match to country in source data. Bioversity International,,,US,Maryland,Anne Arundel,Northwest of Gibson Island,,39.078056,-76.432222,Vaccinium macrocarpum Aiton,USA,United States,USA.21_1,Maryland,USA.21.2_1,Anne Arundel
1304851192,GBIF,Bioversity,f3362296-657e-4ae3-a990-6ecc8abfeaec,. Coordinates do not match to country in source data. Bioversity International,,,US,Maryland,Prince Georges,"Suitland Bog, E side of short unamed drainage into Henson Creek, 0.2-0.5 km N of jct. of Suitland Parkway and Suitland Road (SR 218), 1.5 km NW of Morningside, and 2 km SE of Suitland.",,38.838611,-76.903611,Vaccinium macrocarpum Aiton,USA,United States,USA.21_1,Maryland,USA.21.16_1,Prince George's
1304453220,GBIF,LSU,472596bc-f896-475b-bc4d-f54a9cf6e88e,. Coordinates do not match to country in source data. Not found a country in reverser geocoding. Louisiana State University Herbarium,1998-07-23T00:00:00,,US,Wisconsin,Jackson,,"Low, boggy area along Rt. 54. about 8 mi. E of Black River Falls.",44.477529,-74.067618,Vaccinium macrocarpum Aiton,USA,United States,USA.33_1,New York,USA.33.17_1,Franklin
1304453197,GBIF,LSU,09b86f71-e9ac-4796-bfd2-9c8ad4defb2e,. Coordinates do not match to country in source data. Not found a country in reverser geocoding. Louisiana State University Herbarium,1982-05-24T00:00:00,,US,Wisconsin,Oneida,,About 18 mi. W of Rhinelander on US Hwy 8.,45.636654,-89.776955,Vaccinium macrocarpum Aiton,USA,United States,USA.50_1,Wisconsin,USA.50.46_1,Oneida
1304453165,GBIF,LSU,05b8756d-2b5b-43ad-87d2-a56aa7a5426c,. Coordinates do not match to country in source data. Not found a country in reverser geocoding. original: Coordinates not found to compare the country. georef: Coordinates not found to compare the country. Louisiana State University Herbarium,1955-08-01T00:00:00,,US,North Carolina,Dare,,Frequent in Sphagnum-boggy pineland between Man Harbor & Stumpy point.,35.75694,-75.99,Vaccinium macrocarpum Aiton,,,,,,
1304451494,GBIF,CNH,59684a84-f724-43f4-b7ed-a3e7d948de9b,. Coordinates do not match to country in source data. Not found a country in reverser geocoding. Consortium of Northeastern Herbaria,1941-05-04T00:00:00,,US,Massachusetts,Worcester,East Brookfield,,42.22916,-72.05083,Vaccinium macrocarpum Aiton,USA,United States,USA.22_1,Massachusetts,USA.22.14_1,Worcester
1304451481,GBIF,CNH,50a4792a-3628-413f-89cd-b08d8eb56057,. Coordinates do not match to country in source data. Not found a country in reverser geocoding. Consortium of Northeastern Herbaria,2003-05-23T00:00:00,Oak-dominated woods on sandy soil.,US,New Jersey,Middlesex,East Brunswick,,40.41,-74.40416,Vaccinium macrocarpum Aiton,USA,United States,USA.31_1,New Jersey,USA.31.12_1,Middlesex
1304451467,GBIF,CNH,80750662-11df-470a-a26c-835f884b43a5,. Coordinates do not match to country in source data. Not found a country in reverser geocoding. Consortium of Northeastern Herbaria,2011-05-30T00:00:00,Open pine-oak woods,US,Rhode Island,Kent,Coventry,,41.65226,-71.71981,Vaccinium macrocarpum Aiton,USA,United States,USA.40_1,Rhode Island,USA.40.2_1,Kent
1304451463,GBIF,CNH,3217d3a9-48f2-4bfc-baf7-f674c33c1eb5,. Coordinates do not match to country in source data. Not found a country in reverser geocoding. Consortium of Northeastern Herbaria,1930-05-30T00:00:00,sandy woods,US,New York,Rockland,Pearl River,,41.05888,-74.02194,Vaccinium macrocarpum Aiton,USA,United States,USA.33_1,New York,USA.33.45_1,Rockland
1304451460,GBIF,CNH,ebfce310-75ce-40aa-86e7-da3e548e879a,. Coordinates do not match to country in source data. Not found a country in reverser geocoding. Consortium of Northeastern Herbaria,1935-06-17T00:00:00,,US,Pennsylvania,Luzerne,Slocum,,41.13194,-76.04583,Vaccinium macrocarpum Aiton,USA,United States,USA.39_1,Pennsylvania,USA.39.40_1,Luzerne
1304451459,GBIF,CNH,5ae8f210-ad48-4971-aa06-31fce2252723,. Coordinates do not match to country in source data. Not found a country in reverser geocoding. Consortium of Northeastern Herbaria,1936-08-06T00:00:00,mountains,US,New York,Ulster,,,41.72472,-74.20472,Vaccinium macrocarpum Aiton,USA,United States,USA.33_1,New York,USA.33.57_1,Ulster
1304451458,GBIF,CNH,900d7d35-bf8f-482a-bc51-abf23dc2f021,. Coordinates do not match to country in source data. Not found a country in reverser geocoding. Consortium of Northeastern Herbaria,1907-07-21T00:00:00,rocky woods,US,New Jersey,Sussex,Cranberry Lake,,40.95416,-74.74666,Vaccinium macrocarpum Aiton,USA,United States,USA.31_1,New Jersey,USA.31.19_1,Sussex
1304451457,GBIF,CNH,9a46c281-dc15-48a7-bf0e-e412289e6bdd,. Coordinates do not match to country in source data. Not found a country in reverser geocoding. Consortium of Northeastern Herbaria,1981-05-15T00:00:00,,US,Connecticut,Hartford,Granby,,41.98305,-72.79333,Vaccinium macrocarpum Aiton,USA,United States,USA.7_1,Connecticut,USA.7.2_1,Hartford
1304451455,GBIF,CNH,dd2467fd-f485-4bd2-82a1-0cd0971e0cf4,. Coordinates do not match to country in source data. Not found a country in reverser geocoding. Consortium of Northeastern Herbaria,1991-05-26T00:00:00,woods,US,New Jersey,Morris,Parsippany-Troy Hills,,40.84888,-74.49277,Vaccinium macrocarpum Aiton,USA,United States,USA.31_1,New Jersey,USA.31.14_1,Morris
1304451454,GBIF,CNH,81a1301e-96ae-4a96-a193-eb6e2346ee6b,. Coordinates do not match to country in source data. Not found a country in reverser geocoding. Consortium of Northeastern Herbaria,1998-09-18T00:00:00,mixed hardwood forest,US,Connecticut,Hartford,Windsor,,41.905,-72.70194,Vaccinium macrocarpum Aiton,USA,United States,USA.7_1,Connecticut,USA.7.2_1,Hartford
1304451453,GBIF,CNH,6ddaf2c7-235e-48dd-b202-853bf07afc5b,. Coordinates do not match to country in source data. Not found a country in reverser geocoding. Consortium of Northeastern Herbaria,1939-05-24T00:00:00,,US,Massachusetts,Worcester,Brookfield,,42.21388,-72.10222,Vaccinium macrocarpum Aiton,USA,United States,USA.22_1,Massachusetts,USA.22.14_1,Worcester
1304451452,GBIF,CNH,82d2c68a-f292-4aa6-9898-2613ff5a396d,. Coordinates do not match to country in source data. Not found a country in reverser geocoding. Consortium of Northeastern Herbaria,1939-05-29T00:00:00,,US,Massachusetts,Worcester,Clinton,,42.41666,-71.66666,Vaccinium macrocarpum Aiton,USA,United States,USA.22_1,Massachusetts,USA.22.14_1,Worcester
1304451451,GBIF,CNH,c92e6bcc-d8e2-4bea-9abf-7acdc672dde4,. Coordinates do not match to country in source data. Not found a country in reverser geocoding. Consortium of Northeastern Herbaria,1915-06-05T00:00:00,,US,Connecticut,Hartford,Burlington,,41.76916,-72.96444,Vaccinium macrocarpum Aiton,USA,United States,USA.7_1,Connecticut,USA.7.2_1,Hartford
1304451450,GBIF,CNH,b52da2f8-c8b8-43e3-a0ca-0de5621895bf,. Coordinates do not match to country in source data. Not found a country in reverser geocoding. Consortium of Northeastern Herbaria,1930-06-08T00:00:00,,US,New York,Orange,Goshen,,41.40194,-74.32444,Vaccinium macrocarpum Aiton,USA,United States,USA.33_1,New York,USA.33.37_1,Orange
1304451449,GBIF,CNH,2b73de73-c349-496c-8dc8-41b4c3c01acc,. Coordinates do not match to country in source data. Not found a country in reverser geocoding. Consortium of Northeastern Herbaria,1916-06-27T00:00:00,,US,Massachusetts,Hampden,Wilbraham,,42.15277,-72.42527,Vaccinium macrocarpum Aiton,USA,United States,USA.22_1,Massachusetts,USA.22.7_1,Hampden
1304451447,GBIF,CNH,cb197dc2-5076-477e-b445-91fe600e1b8a,. Coordinates do not match to country in source data. Not found a country in reverser geocoding. Consortium of Northeastern Herbaria,1939-05-28T00:00:00,,US,Massachusetts,Worcester,Dudley,,42.05,-71.93333,Vaccinium macrocarpum Aiton,USA,United States,USA.22_1,Massachusetts,USA.22.14_1,Worcester
1304451446,GBIF,CNH,ccb651b7-99e0-4f7e-9b94-6d1abc20da78,. Coordinates do not match to country in source data. Not found a country in reverser geocoding. Consortium of Northeastern Herbaria,1931-06-18T00:00:00,Woods,US,Pennsylvania,Centre,Harris,,40.72916,-77.7625,Vaccinium macrocarpum Aiton,USA,United States,USA.39_1,Pennsylvania,USA.39.14_1,Centre
1304451445,GBIF,CNH,5e302b28-9ec5-4604-a3eb-dcf6a68c3bd0,. Coordinates do not match to country in source data. Not found a country in reverser geocoding. Consortium of Northeastern Herbaria,1905-08-01T00:00:00,,US,New Jersey,Morris,"Rockaway, Green Pond",,41.01722,-74.47805,Vaccinium macrocarpum Aiton,USA,United States,USA.31_1,New Jersey,USA.31.14_1,Morris
1304451442,GBIF,CNH,3c24998a-0cbb-4992-bc4a-4eac072eff13,. Coordinates do not match to country in source data. Not found a country in reverser geocoding. Consortium of Northeastern Herbaria,1931-06-18T00:00:00,woods,US,Pennsylvania,Centre,Harris,,40.72916,-77.7625,Vaccinium macrocarpum Aiton,USA,United States,USA.39_1,Pennsylvania,USA.39.14_1,Centre
1304451441,GBIF,CNH,be400263-0221-4714-8e62-306f299a3501,. Coordinates do not match to country in source data. Not found a country in reverser geocoding. Consortium of Northeastern Herbaria,1894-05-23T00:00:00,,US,New Jersey,Bergen,Tenafly,,40.91722,-73.95527,Vaccinium macrocarpum Aiton,USA,United States,USA.31_1,New Jersey,USA.31.2_1,Bergen
1304451440,GBIF,CNH,4de70db8-26b1-4e12-8227-20e90668f76b,. Coordinates do not match to country in source data. Not found a country in reverser geocoding. Consortium of Northeastern Herbaria,1941-05-04T00:00:00,,US,Massachusetts,Worcester,Southbridge,,42.075,-72.03333,Vaccinium macrocarpum Aiton,USA,United States,USA.22_1,Massachusetts,USA.22.14_1,Worcester
1304451439,GBIF,CNH,3ac6c7a3-4589-4731-bc20-814049542965,. Coordinates do not match to country in source data. Not found a country in reverser geocoding. Consortium of Northeastern Herbaria,1988-05-08T00:00:00,Mats among boulders.,US,Massachusetts,Essex,Gloucester,,42.61666,-70.66666,Vaccinium macrocarpum Aiton,USA,United States,USA.22_1,Massachusetts,USA.22.5_1,Essex
1304451437,GBIF,CNH,254bba65-cd89-473e-9f9e-94fd0c1a0aa0,. Coordinates do not match to country in source data. Not found a country in reverser geocoding. Consortium of Northeastern Herbaria,1936-05-07T00:00:00,,US,Massachusetts,Worcester,Holden,,42.35166,-71.85777,Vaccinium macrocarpum Aiton,USA,United States,USA.22_1,Massachusetts,USA.22.14_1,Worcester
1304451436,GBIF,CNH,5cbbaa97-4db9-44db-ba2b-3ee518f54075,. Coordinates do not match to country in source data. Not found a country in reverser geocoding. Consortium of Northeastern Herbaria,1949-07-07T00:00:00,,US,Connecticut,Hartford,Suffield,,41.98166,-72.65055,Vaccinium macrocarpum Aiton,USA,United States,USA.7_1,Connecticut,USA.7.2_1,Hartford
1304451435,GBIF,CNH,c9ac8085-8167-4c4e-86f8-fec048bad1bf,. Coordinates do not match to country in source data. Not found a country in reverser geocoding. Consortium of Northeastern Herbaria,1899-08-20T00:00:00,,US,Connecticut,Fairfield,Stratford,,41.18444,-73.13305,Vaccinium macrocarpum Aiton,USA,United States,USA.7_1,Connecticut,USA.7.1_1,Fairfield
1304451434,GBIF,CNH,c97367d5-4734-4214-8a51-9dc137cccece,. Coordinates do not match to country in source data. Not found a country in reverser geocoding. Consortium of Northeastern Herbaria,2011-06-19T00:00:00,,US,Rhode Island,Kent,Coventry,,41.70516,-71.74575,Vaccinium macrocarpum Aiton,USA,United States,USA.40_1,Rhode Island,USA.40.2_1,Kent
1304451433,GBIF,CNH,e979f8ac-87f2-432c-9087-2d67ed5e197a,. Coordinates do not match to country in source data. Not found a country in reverser geocoding. Consortium of Northeastern Herbaria,1975-08-14T00:00:00,,US,Connecticut,Windham,Putnam,,41.90611,-71.87083,Vaccinium macrocarpum Aiton,USA,United States,USA.7_1,Connecticut,USA.7.8_1,Windham
1304451432,GBIF,CNH,44aea28e-5148-4e14-b189-e5853fcf6b28,. Coordinates do not match to country in source data. Not found a country in reverser geocoding. Consortium of Northeastern Herbaria,1939-06-15T00:00:00,,US,Massachusetts,Worcester,Hardwick,,42.36666,-72.2,Vaccinium macrocarpum Aiton,USA,United States,USA.22_1,Massachusetts,USA.22.14_1,Worcester
1304451430,GBIF,CNH,88c81ebe-720b-45c6-b32e-70bcef23b1a2,. Coordinates do not match to country in source data. Not found a country in reverser geocoding. Consortium of Northeastern Herbaria,,,US,Massachusetts,Worcester,Spencer,,42.24388,-71.99222,Vaccinium macrocarpum Aiton,USA,United States,USA.22_1,Massachusetts,USA.22.14_1,Worcester
1304451429,GBIF,CNH,4eea2329-603d-4cf2-b18c-70accdffc952,. Coordinates do not match to country in source data. Not found a country in reverser geocoding. Consortium of Northeastern Herbaria,,,US,Massachusetts,Hampden,Springfield,,42.1,-72.55,Vaccinium macrocarpum Aiton,USA,United States,USA.22_1,Massachusetts,USA.22.7_1,Hampden
1304451428,GBIF,CNH,e4b09284-cf19-47ab-87d6-742def3347c3,. Coordinates do not match to country in source data. Not found a country in reverser geocoding. Consortium of Northeastern Herbaria,1989-06-23T00:00:00,open sloped dry woods with Acer and Quercus,US,Connecticut,Fairfield,Newtown,,41.43916,-73.24777,Vaccinium macrocarpum Aiton,USA,United States,USA.7_1,Connecticut,USA.7.5_1,New Haven
1304451427,GBIF,CNH,71ef660d-1ce6-4d4c-9cb0-be601aa0d0ef,. Coordinates do not match to country in source data. Not found a country in reverser geocoding. Consortium of Northeastern Herbaria,1937-05-17T00:00:00,,US,Massachusetts,Worcester,Fitchburg,,42.58333,-71.80222,Vaccinium macrocarpum Aiton,USA,United States,USA.22_1,Massachusetts,USA.22.14_1,Worcester
1304451426,GBIF,CNH,03c24818-76e8-47bb-a88a-cc117e22d1b8,. Coordinates do not match to country in source data. Not found a country in reverser geocoding. Consortium of Northeastern Herbaria,1981-05-05T00:00:00,,US,Connecticut,Hartford,Glastonbury,,41.66694,-72.59666,Vaccinium macrocarpum Aiton,USA,United States,USA.7_1,Connecticut,USA.7.2_1,Hartford
1304451425,GBIF,CNH,c6d72d89-00e2-4673-bf81-9fe08037bae3,. Coordinates do not match to country in source data. Not found a country in reverser geocoding. Consortium of Northeastern Herbaria,1920-07-24T00:00:00,Salt marsh,US,Rhode Island,Washington,"Charlestown, Quonochontaug",,41.34166,-71.72222,Vaccinium macrocarpum Aiton,USA,United States,USA.40_1,Rhode Island,USA.40.5_1,Washington
1304451424,GBIF,CNH,cccd0c2e-65a6-4e00-8815-3311628261d7,. Coordinates do not match to country in source data. Not found a country in reverser geocoding. Consortium of Northeastern Herbaria,1939-05-29T00:00:00,,US,Massachusetts,Worcester,Bolton,,42.43333,-71.60833,Vaccinium macrocarpum Aiton,USA,United States,USA.22_1,Massachusetts,USA.22.14_1,Worcester
1304451423,GBIF,CNH,fe379f52-6064-4d1b-943e-658fe40570c9,. Coordinates do not match to country in source data. Not found a country in reverser geocoding. Consortium of Northeastern Herbaria,1932-05-18T00:00:00,Field,US,Massachusetts,Worcester,Shrewsbury,,42.29583,-71.71277,Vaccinium macrocarpum Aiton,USA,United States,USA.22_1,Massachusetts,USA.22.14_1,Worcester
1304451421,GBIF,CNH,bdc9092d-098a-4c84-8389-33e4121d18b5,. Coordinates do not match to country in source data. Not found a country in reverser geocoding. Consortium of Northeastern Herbaria,1911-05-27T00:00:00,,US,Rhode Island,Kent,Coventry,,41.69111,-71.69944,Vaccinium macrocarpum Aiton,USA,United States,USA.40_1,Rhode Island,USA.40.2_1,Kent
1304451420,GBIF,CNH,06d2d4cd-b15c-4a09-ae68-543789148776,. Coordinates do not match to country in source data. Not found a country in reverser geocoding. Consortium of Northeastern Herbaria,1933-08-01T00:00:00,,US,Massachusetts,Worcester,Charlton,,42.13555,-71.97,Vaccinium macrocarpum Aiton,USA,United States,USA.22_1,Massachusetts,USA.22.14_1,Worcester
1304451418,GBIF,CNH,4f07b66e-18a6-4539-b04d-0c0c9fb81c0b,. Coordinates do not match to country in source data. Not found a country in reverser geocoding. Consortium of Northeastern Herbaria,1898-07-24T00:00:00,,US,Connecticut,New Haven,Milford,,41.22222,-73.05638,Vaccinium macrocarpum Aiton,USA,United States,USA.7_1,Connecticut,USA.7.5_1,New Haven
1304451417,GBIF,CNH,5b47c063-27d6-475d-8eba-5fd8278bb4ed,. Coordinates do not match to country in source data. Not found a country in reverser geocoding. Consortium of Northeastern Herbaria,1931-06-19T00:00:00,dry woods,US,Pennsylvania,Centre,Julian,,40.79972,-77.94611,Vaccinium macrocarpum Aiton,USA,United States,USA.39_1,Pennsylvania,USA.39.14_1,Centre
1304451416,GBIF,CNH,4041fd37-c637-4397-9a46-98440b736372,. Coordinates do not match to country in source data. Not found a country in reverser geocoding. Consortium of Northeastern Herbaria,1900-05-05T00:00:00,,US,Connecticut,Hartford,Manchester,,41.77583,-72.52194,Vaccinium macrocarpum Aiton,USA,United States,USA.7_1,Connecticut,USA.7.2_1,Hartford
1304451415,GBIF,CNH,0f0620b6-d2d9-4699-af6b-4fb899932604,. Coordinates do not match to country in source data. Not found a country in reverser geocoding. Consortium of Northeastern Herbaria,1995-05-29T00:00:00,Wet woods SW of chapel along trail.,US,New York,,,,43.00027,-75.5,Vaccinium macrocarpum Aiton,USA,United States,USA.33_1,New York,USA.33.34_1,Oneida
1304451414,GBIF,CNH,d5e86700-9364-4c57-83d3-9424b76b2bb2,. Coordinates do not match to country in source data. Not found a country in reverser geocoding. Consortium of Northeastern Herbaria,1938-05-03T00:00:00,,US,Massachusetts,Worcester,Berlin,,42.38138,-71.6375,Vaccinium macrocarpum Aiton,USA,United States,USA.22_1,Massachusetts,USA.22.14_1,Worcester
1304451412,GBIF,CNH,785cc67c-d988-4b46-8188-594a14aac001,. Coordinates do not match to country in source data. Not found a country in reverser geocoding. Consortium of Northeastern Herbaria,1919-06-28T00:00:00,Sandy bank of river,US,Rhode Island,Providence,"Providence, Manton",,41.83444,-71.47277,Vaccinium macrocarpum Aiton,USA,United States,USA.40_1,Rhode Island,USA.40.4_1,Providence
1304451411,GBIF,CNH,b2f64042-3260-4e2e-85f6-df9bd321e1a2,. Coordinates do not match to country in source data. Not found a country in reverser geocoding. Consortium of Northeastern Herbaria,1951-05-27T00:00:00,dry woods,US,Connecticut,Windham,Putnam,,41.89222,-71.86805,Vaccinium macrocarpum Aiton,USA,United States,USA.7_1,Connecticut,USA.7.8_1,Windham
1304451410,GBIF,CNH,9e3e89d2-dd4f-45ce-b084-e395f0dc982e,. Coordinates do not match to country in source data. Not found a country in reverser geocoding. Consortium of Northeastern Herbaria,1930-05-30T00:00:00,,US,Connecticut,Hartford,Suffield,,41.98166,-72.65055,Vaccinium macrocarpum Aiton,USA,United States,USA.7_1,Connecticut,USA.7.2_1,Hartford
1304451409,GBIF,CNH,3ba33871-81f4-4d2f-b277-9e491ed3cf8a,. Coordinates do not match to country in source data. Not found a country in reverser geocoding. Consortium of Northeastern Herbaria,1995-06-02T00:00:00,Open abandoned RR saltmarsh.,US,Connecticut,New Haven,Branford,,41.27777,-72.80027,Vaccinium macrocarpum Aiton,USA,United States,USA.7_1,Connecticut,USA.7.5_1,New Haven
1304451408,GBIF,CNH,b04500a1-9102-4b3b-a79e-63ceb3409bbd,. Coordinates do not match to country in source data. Not found a country in reverser geocoding. Consortium of Northeastern Herbaria,1932-05-17T00:00:00,meadows bordering tidewater,US,Connecticut,Fairfield,Fairfield,,41.17583,-73.27194,Vaccinium macrocarpum Aiton,USA,United States,USA.7_1,Connecticut,USA.7.1_1,Fairfield
1304451407,GBIF,CNH,540d1641-4bc5-4ea0-9388-0bf623680bb2,. Coordinates do not match to country in source data. Not found a country in reverser geocoding. Consortium of Northeastern Herbaria,1983-07-13T00:00:00,Abandoned railroad right-of-way,US,Connecticut,Windham,"Sterling, Oneco",,41.69361,-71.80833,Vaccinium macrocarpum Aiton,USA,United States,USA.7_1,Connecticut,USA.7.8_1,Windham
1304451406,GBIF,CNH,25a72fba-1d98-4743-9bbc-6bc074d73902,. Coordinates do not match to country in source data. Not found a country in reverser geocoding. Consortium of Northeastern Herbaria,1995-05-24T00:00:00,"dry open woods, hardwood woodlands",US,Connecticut,New Haven,Southbury,,41.47611,-73.23694,Vaccinium macrocarpum Aiton,USA,United States,USA.7_1,Connecticut,USA.7.5_1,New Haven
1304451405,GBIF,CNH,f998aab7-80aa-44b5-bc4c-69e1d02320e5,. Coordinates do not match to country in source data. Not found a country in reverser geocoding. Consortium of Northeastern Herbaria,1916-05-21T00:00:00,Boggy meadow,US,Connecticut,Tolland,Mansfield,,41.79416,-72.20972,Vaccinium macrocarpum Aiton,USA,United States,USA.7_1,Connecticut,USA.7.7_1,Tolland
1304451404,GBIF,CNH,9bfd7d33-5352-404b-bfb0-0a22052536fa,. Coordinates do not match to country in source data. Not found a country in reverser geocoding. Consortium of Northeastern Herbaria,1992-05-18T00:00:00,,US,Connecticut,Litchfield,New Hartford,,41.83777,-72.95805,Vaccinium macrocarpum Aiton,USA,United States,USA.7_1,Connecticut,USA.7.3_1,Litchfield
1304451403,GBIF,CNH,07cb47bf-8350-4c98-816f-0f6ecec3f8f9,. Coordinates do not match to country in source data. Not found a country in reverser geocoding. Consortium of Northeastern Herbaria,1991-05-07T00:00:00,woods,US,Connecticut,Hartford,Plainville,,41.66111,-72.8425,Vaccinium macrocarpum Aiton,USA,United States,USA.7_1,Connecticut,USA.7.2_1,Hartford
1304451402,GBIF,CNH,e379121f-c90a-4c7d-a54a-37e6c5d8fa39,. Coordinates do not match to country in source data. Not found a country in reverser geocoding. Consortium of Northeastern Herbaria,1993-07-25T00:00:00,edge of clearing at top of hill,US,Connecticut,New Haven,North Haven,,41.38166,-72.85888,Vaccinium macrocarpum Aiton,USA,United States,USA.7_1,Connecticut,USA.7.5_1,New Haven
1304451401,GBIF,CNH,fc36c274-5b9a-4895-96c1-7a99f924ffd4,. Coordinates do not match to country in source data. Not found a country in reverser geocoding. Consortium of Northeastern Herbaria,1995-08-10T00:00:00,Moist woods,US,Connecticut,Fairfield,Shelton,,41.34388,-73.12722,Vaccinium macrocarpum Aiton,USA,United States,USA.7_1,Connecticut,USA.7.1_1,Fairfield
1304451400,GBIF,CNH,d8a2c0dc-d076-4f8f-85c0-315505340a24,. Coordinates do not match to country in source data. Not found a country in reverser geocoding. Consortium of Northeastern Herbaria,1989-05-20T00:00:00,Woods.,US,New Jersey,Burlington Co,Atsion,,39.7425,-74.72611,Vaccinium macrocarpum Aiton,USA,United States,USA.31_1,New Jersey,USA.31.3_1,Burlington
1304451399,GBIF,CNH,1d1cc022-2cb1-4712-948d-32e1efefec9a,. Coordinates do not match to country in source data. Not found a country in reverser geocoding. Consortium of Northeastern Herbaria,1939-06-25T00:00:00,,US,Massachusetts,Worcester,Warren,,42.2125,-72.19111,Vaccinium macrocarpum Aiton,USA,United States,USA.22_1,Massachusetts,USA.22.14_1,Worcester
1304451398,GBIF,CNH,f490bc69-94b4-472f-b865-511169b39187,. Coordinates do not match to country in source data. Not found a country in reverser geocoding. Consortium of Northeastern Herbaria,1980-05-07T00:00:00,flood plain,US,Connecticut,Tolland,Stafford Springs,,41.95416,-72.30222,Vaccinium macrocarpum Aiton,USA,United States,USA.7_1,Connecticut,USA.7.7_1,Tolland
1304451397,GBIF,CNH,b9d999a4-51dd-4c54-9ccf-c769f5f40aae,. Coordinates do not match to country in source data. Not found a country in reverser geocoding. Consortium of Northeastern Herbaria,1905-05-26T00:00:00,"DRY OAKWOODS, ON COAST",US,Connecticut,Fairfield,Stratford,,41.18444,-73.13305,Vaccinium macrocarpum Aiton,USA,United States,USA.7_1,Connecticut,USA.7.1_1,Fairfield
1304451395,GBIF,CNH,2cac1593-1565-4910-b0c3-57214ff024e3,. Coordinates do not match to country in source data. Not found a country in reverser geocoding. Consortium of Northeastern Herbaria,1933-07-13T00:00:00,,US,Massachusetts,Worcester,Athol,,42.58333,-72.21666,Vaccinium macrocarpum Aiton,USA,United States,USA.22_1,Massachusetts,USA.22.14_1,Worcester
1304451394,GBIF,CNH,bfde6ac3-13bf-4f23-8d9f-0afa1e989b2b,. Coordinates do not match to country in source data. Not found a country in reverser geocoding. Consortium of Northeastern Herbaria,1933-08-05T00:00:00,,US,Massachusetts,Worcester,Blackstone,,42.01777,-71.54111,Vaccinium macrocarpum Aiton,USA,United States,USA.22_1,Massachusetts,USA.22.14_1,Worcester
1304451393,GBIF,CNH,3fce669d-5638-4ecb-b8eb-667a0a95439c,. Coordinates do not match to country in source data. Not found a country in reverser geocoding. Consortium of Northeastern Herbaria,1977-05-18T00:00:00,Deciduous woodland border,US,Massachusetts,Hampshire,Northampton,,42.33333,-72.66666,Vaccinium macrocarpum Aiton,USA,United States,USA.22_1,Massachusetts,USA.22.8_1,Hampshire
1304451392,GBIF,CNH,afbf8bc5-32ed-4e5d-8cda-ecb2095f647c,. Coordinates do not match to country in source data. Not found a country in reverser geocoding. Consortium of Northeastern Herbaria,1983-05-21T00:00:00,,US,Connecticut,Middlesex,Durham,,41.44972,-72.67388,Vaccinium macrocarpum Aiton,USA,United States,USA.7_1,Connecticut,USA.7.4_1,Middlesex
1304451391,GBIF,CNH,b48c51ba-3040-47a5-b33d-817e9c6bc4ba,. Coordinates do not match to country in source data. Not found a country in reverser geocoding. Consortium of Northeastern Herbaria,1939-05-24T00:00:00,,US,Massachusetts,Worcester,West Brookfield,,42.23527,-72.14111,Vaccinium macrocarpum Aiton,USA,United States,USA.22_1,Massachusetts,USA.22.14_1,Worcester
1304451390,GBIF,CNH,eed607c4-8426-40e0-bb42-e319ab5c41b8,. Coordinates do not match to country in source data. Not found a country in reverser geocoding. Consortium of Northeastern Herbaria,1945-04-28T00:00:00,,US,Massachusetts,Worcester,Paxton,,42.31111,-71.92805,Vaccinium macrocarpum Aiton,USA,United States,USA.22_1,Massachusetts,USA.22.14_1,Worcester
1304451389,GBIF,CNH,8b110197-1cff-45ae-86b7-5d2dbbd3f857,. Coordinates do not match to country in source data. Not found a country in reverser geocoding. Consortium of Northeastern Herbaria,1915-08-08T00:00:00,"Dry soil, open ledges",US,Vermont,Addison,Orwell,,43.80388,-73.29777,Vaccinium macrocarpum Aiton,USA,United States,USA.46_1,Vermont,USA.46.1_1,Addison
1304451388,GBIF,CNH,3664c792-a22a-424c-99f0-ade380945575,. Coordinates do not match to country in source data. Not found a country in reverser geocoding. Consortium of Northeastern Herbaria,1983-05-25T00:00:00,Oak woods,US,Connecticut,Fairfield,Stratford,,41.25583,-73.12916,Vaccinium macrocarpum Aiton,USA,United States,USA.7_1,Connecticut,USA.7.1_1,Fairfield
1304451387,GBIF,CNH,d19f85cd-f6df-4909-91d4-145f65a57a5f,. Coordinates do not match to country in source data. Not found a country in reverser geocoding. Consortium of Northeastern Herbaria,1892-07-18T00:00:00,sandy soil,US,Connecticut,Fairfield,Fairfield,,41.17583,-73.27194,Vaccinium macrocarpum Aiton,USA,United States,USA.7_1,Connecticut,USA.7.1_1,Fairfield
1304451386,GBIF,CNH,fedb3ab2-a4ae-4407-893d-89c22b3722fa,. Coordinates do not match to country in source data. Not found a country in reverser geocoding. Consortium of Northeastern Herbaria,1987-08-01T00:00:00,rocky hill,US,Connecticut,Tolland,Bolton,,41.79055,-72.44277,Vaccinium macrocarpum Aiton,USA,United States,USA.7_1,Connecticut,USA.7.7_1,Tolland
1304451385,GBIF,CNH,7ddb5332-1781-487a-9fe1-f482ce3f4397,. Coordinates do not match to country in source data. Not found a country in reverser geocoding. Consortium of Northeastern Herbaria,1930-05-24T00:00:00,Rocky woods,US,Connecticut,New London,Groton,,41.34583,-72.02972,Vaccinium macrocarpum Aiton,USA,United States,USA.7_1,Connecticut,USA.7.6_1,New London
1304451384,GBIF,CNH,235d666d-1db0-4993-87ba-99e2001c032b,. Coordinates do not match to country in source data. Not found a country in reverser geocoding. Consortium of Northeastern Herbaria,1995-05-23T00:00:00,dry open woods and ledges of trap rock ridge and hardwood woodlands,US,Connecticut,New Haven,Southbury,,41.47611,-73.23694,Vaccinium macrocarpum Aiton,USA,United States,USA.7_1,Connecticut,USA.7.5_1,New Haven
1304451383,GBIF,CNH,0705dc9f-1116-4384-89ae-3a031765594d,. Coordinates do not match to country in source data. Not found a country in reverser geocoding. Consortium of Northeastern Herbaria,1917-06-05T00:00:00,Cliffs,US,Connecticut,Tolland,"Mansfield, Storrs",,41.79083,-72.21333,Vaccinium macrocarpum Aiton,USA,United States,USA.7_1,Connecticut,USA.7.7_1,Tolland
1304451382,GBIF,CNH,8699f98a-bce5-49af-88bb-d7870081b32a,. Coordinates do not match to country in source data. Not found a country in reverser geocoding. Consortium of Northeastern Herbaria,1992-09-16T00:00:00,shrub-sedge swamp,US,Massachusetts,Barnstable,Sandwich,,41.65694,-70.54444,Vaccinium macrocarpum Aiton,USA,United States,USA.22_1,Massachusetts,USA.22.1_1,Barnstable
1304451381,GBIF,CNH,1db8a944-bc3b-429c-ac5e-471baba00455,. Coordinates do not match to country in source data. Not found a country in reverser geocoding. Consortium of Northeastern Herbaria,,Open exposed trap ridges,US,Connecticut,New Haven,Meriden,,41.56222,-72.84361,Vaccinium macrocarpum Aiton,USA,United States,USA.7_1,Connecticut,USA.7.5_1,New Haven
1304451380,GBIF,CNH,027b6dcf-0165-49de-93d0-6a177dd78db1,. Coordinates do not match to country in source data. Not found a country in reverser geocoding. Consortium of Northeastern Herbaria,1913-08-19T00:00:00,dry field,US,Connecticut,New London,East Lyme,,41.35305,-72.23,Vaccinium macrocarpum Aiton,USA,United States,USA.7_1,Connecticut,USA.7.6_1,New London
1304451379,GBIF,CNH,d26012ba-5b00-4f6b-b660-e9896dc692d5,. Coordinates do not match to country in source data. Not found a country in reverser geocoding. Consortium of Northeastern Herbaria,1933-06-28T00:00:00,,US,Massachusetts,Middlesex,Ayer,,42.47,-71.02111,Vaccinium macrocarpum Aiton,USA,United States,USA.22_1,Massachusetts,USA.22.5_1,Essex
1304451378,GBIF,CNH,65524015-5331-421a-963d-0bf9301094b1,. Coordinates do not match to country in source data. Not found a country in reverser geocoding. Consortium of Northeastern Herbaria,1983-05-19T00:00:00,EXPOSED TRAP ROCK,US,Connecticut,New Haven,Meriden,,41.55861,-72.75944,Vaccinium macrocarpum Aiton,USA,United States,USA.7_1,Connecticut,USA.7.5_1,New Haven
1304451377,GBIF,CNH,717b9bd7-0e38-4878-80e2-56be85442635,. Coordinates do not match to country in source data. Not found a country in reverser geocoding. Consortium of Northeastern Herbaria,1975-05-17T00:00:00,Edge of road under Pinus rigida,US,New Jersey,Burlington,Jenkins,,39.69805,-74.52833,Vaccinium macrocarpum Aiton,USA,United States,USA.31_1,New Jersey,USA.31.3_1,Burlington
1304451376,GBIF,CNH,93337338-e13a-4c9b-9c86-cec1bd385921,. Coordinates do not match to country in source data. Not found a country in reverser geocoding. Consortium of Northeastern Herbaria,1927-06-01T00:00:00,Dry open oak woods,US,Connecticut,New Haven,New Haven,,41.30805,-72.92805,Vaccinium macrocarpum Aiton,USA,United States,USA.7_1,Connecticut,USA.7.5_1,New Haven
1304451375,GBIF,CNH,f88407d8-5fd6-43c5-8968-d252514704a1,. Coordinates do not match to country in source data. Not found a country in reverser geocoding. Consortium of Northeastern Herbaria,1980-05-12T00:00:00,,US,Connecticut,New London,North Stonington,,41.46,-71.945,Vaccinium macrocarpum Aiton,USA,United States,USA.7_1,Connecticut,USA.7.6_1,New London
1304451374,GBIF,CNH,1788aedc-a239-4c3f-bcb2-b3ae2af38d3c,. Coordinates do not match to country in source data. Not found a country in reverser geocoding. Consortium of Northeastern Herbaria,1917-06-08T00:00:00,Dry open ground,US,Connecticut,Middlesex,Cromwell,,41.595,-72.64527,Vaccinium macrocarpum Aiton,USA,United States,USA.7_1,Connecticut,USA.7.4_1,Middlesex
1304451373,GBIF,CNH,5067ff69-12bc-467e-a30a-ffe9e6c62643,. Coordinates do not match to country in source data. Not found a country in reverser geocoding. Consortium of Northeastern Herbaria,1951-05-27T00:00:00,ROUGH PASTURE,US,Connecticut,Windham,Putnam,,41.89222,-71.86805,Vaccinium macrocarpum Aiton,USA,United States,USA.7_1,Connecticut,USA.7.8_1,Windham
1304451372,GBIF,CNH,d073e9b8-efd3-4e55-b2bc-44e35215c407,. Coordinates do not match to country in source data. Not found a country in reverser geocoding. Consortium of Northeastern Herbaria,1994-08-15T00:00:00,mixed woods,US,Connecticut,Fairfield,Redding,,41.31333,-73.33583,Vaccinium macrocarpum Aiton,USA,United States,USA.7_1,Connecticut,USA.7.1_1,Fairfield
1304451371,GBIF,CNH,332d5f6c-02a2-459b-af90-61f2d928bf32,. Coordinates do not match to country in source data. Not found a country in reverser geocoding. Consortium of Northeastern Herbaria,1997-05-24T00:00:00,open disturbed area,US,Connecticut,Tolland,Coventry,,41.78444,-72.33944,Vaccinium macrocarpum Aiton,USA,United States,USA.7_1,Connecticut,USA.7.7_1,Tolland
1304451370,GBIF,CNH,fe6f3a0e-4cf1-4276-b83c-ac4a48ec6e27,. Coordinates do not match to country in source data. Not found a country in reverser geocoding. Consortium of Northeastern Herbaria,1981-06-27T00:00:00,Woods.,US,New Jersey,Sussex,Montague Twp.,,41.29222,-74.69333,Vaccinium macrocarpum Aiton,USA,United States,USA.31_1,New Jersey,USA.31.19_1,Sussex
1304451369,GBIF,CNH,86900df5-893e-434c-ab04-9108067b1a2e,. Coordinates do not match to country in source data. Not found a country in reverser geocoding. Consortium of Northeastern Herbaria,1883-06-24T00:00:00,,US,Massachusetts,Norfolk,Needham,,42.28333,-71.24583,Vaccinium macrocarpum Aiton,USA,United States,USA.22_1,Massachusetts,USA.22.11_1,Norfolk
1304451368,GBIF,CNH,05bab048-5ae6-4b2c-9084-023817645a29,. Coordinates do not match to country in source data. Not found a country in reverser geocoding. Consortium of Northeastern Herbaria,1981-05-31T00:00:00,Pine-oak woods.,US,Connecticut,New London,Voluntown,,41.58888,-71.87333,Vaccinium macrocarpum Aiton,USA,United States,USA.7_1,Connecticut,USA.7.6_1,New London
1304451367,GBIF,CNH,2213bab1-71c4-4cb7-a66b-f73fdb983643,. Coordinates do not match to country in source data. Not found a country in reverser geocoding. Consortium of Northeastern Herbaria,1900-08-10T00:00:00,Swamp,US,Connecticut,Hartford,Southington,,41.59638,-72.94777,Vaccinium macrocarpum Aiton,USA,United States,USA.7_1,Connecticut,USA.7.5_1,New Haven
1304451366,GBIF,CNH,c1933cf4-4994-423e-8b98-67abbb068ba8,. Coordinates do not match to country in source data. Not found a country in reverser geocoding. Consortium of Northeastern Herbaria,1897-05-30T00:00:00,,US,Massachusetts,Suffolk,"Boston, West Roxbury",,42.26361,-71.14,Vaccinium macrocarpum Aiton,USA,United States,USA.22_1,Massachusetts,USA.22.13_1,Suffolk
1304451365,GBIF,CNH,c12d735b-98f1-46aa-b56f-bb09e7c1e9f7,. Coordinates do not match to country in source data. Not found a country in reverser geocoding. Consortium of Northeastern Herbaria,1991-05-01T00:00:00,exposed basalt ridge,US,Connecticut,Hartford,Bloomfield,,41.81166,-72.79861,Vaccinium macrocarpum Aiton,USA,United States,USA.7_1,Connecticut,USA.7.2_1,Hartford
1304451364,GBIF,CNH,82c7882f-9f73-419b-b8ce-3635047be99a,. Coordinates do not match to country in source data. Not found a country in reverser geocoding. Consortium of Northeastern Herbaria,1908-05-17T00:00:00,Dry woods,US,Connecticut,New Haven,Milford,,41.22222,-73.05638,Vaccinium macrocarpum Aiton,USA,United States,USA.7_1,Connecticut,USA.7.5_1,New Haven
1304451363,GBIF,CNH,62d3647c-a95b-4c71-870a-a278c81f815c,. Coordinates do not match to country in source data. Not found a country in reverser geocoding. Consortium of Northeastern Herbaria,1973-05-01T00:00:00,Very open woods,US,Connecticut,Windham,Ashford,,41.87916,-72.18833,Vaccinium macrocarpum Aiton,USA,United States,USA.7_1,Connecticut,USA.7.8_1,Windham
1304451362,GBIF,CNH,4074b62a-2bce-4da4-8cea-b45632d94d7c,. Coordinates do not match to country in source data. Not found a country in reverser geocoding. Consortium of Northeastern Herbaria,1913-05-06T00:00:00,,US,Connecticut,Hartford,Farmington,,41.69972,-72.8325,Vaccinium macrocarpum Aiton,USA,United States,USA.7_1,Connecticut,USA.7.2_1,Hartford
1304451361,GBIF,CNH,28bb5f7e-774d-4ed8-abbb-6dce789bbd53,. Coordinates do not match to country in source data. Not found a country in reverser geocoding. Consortium of Northeastern Herbaria,1987-07-14T00:00:00,"dry, sandy field; full of sun",US,Connecticut,Tolland,Willington,,41.88527,-72.26138,Vaccinium macrocarpum Aiton,USA,United States,USA.7_1,Connecticut,USA.7.7_1,Tolland
1304451360,GBIF,CNH,8e6b9177-2f5b-4756-ad6a-a83e39025596,. Coordinates do not match to country in source data. Not found a country in reverser geocoding. Consortium of Northeastern Herbaria,1952-06-30T00:00:00,Sandy hillside,US,Connecticut,Windham,Chaplin,,41.79472,-72.12722,Vaccinium macrocarpum Aiton,USA,United States,USA.7_1,Connecticut,USA.7.8_1,Windham
1304451359,GBIF,CNH,78f9aad8-93cf-4f22-bd09-a253aa693138,. Coordinates do not match to country in source data. Not found a country in reverser geocoding. Consortium of Northeastern Herbaria,1887-05-21T00:00:00,Woods.,US,New Jersey,Atlantic,"Buena, Landisville",,39.52472,-74.93861,Vaccinium macrocarpum Aiton,USA,United States,USA.31_1,New Jersey,USA.31.1_1,Atlantic
1304451358,GBIF,CNH,a24f03bf-4c27-47fa-aa95-031b4b09416c,. Coordinates do not match to country in source data. Not found a country in reverser geocoding. Consortium of Northeastern Herbaria,1928-08-24T00:00:00,Partial shade on dry bank along coast,US,Connecticut,New Haven,Milford,,41.22222,-73.05638,Vaccinium macrocarpum Aiton,USA,United States,USA.7_1,Connecticut,USA.7.5_1,New Haven
1304451357,GBIF,CNH,502a7338-d742-40fd-927c-0005346cc1d2,. Coordinates do not match to country in source data. Not found a country in reverser geocoding. Consortium of Northeastern Herbaria,1927-08-20T00:00:00,Lightly wooded ridge,US,Connecticut,Litchfield,Kent,,41.72472,-73.47694,Vaccinium macrocarpum Aiton,USA,United States,USA.7_1,Connecticut,USA.7.3_1,Litchfield
1304451356,GBIF,CNH,eb9f8ed3-0163-49c8-baed-f60b2b366fbc,. Coordinates do not match to country in source data. Not found a country in reverser geocoding. Consortium of Northeastern Herbaria,1905-05-18T00:00:00,,US,Connecticut,Litchfield,Salisbury,,41.98333,-73.42111,Vaccinium macrocarpum Aiton,USA,United States,USA.7_1,Connecticut,USA.7.3_1,Litchfield
1304451355,GBIF,CNH,3bd3e6ad-2dad-4d51-bd50-9885418468f5,. Coordinates do not match to country in source data. Not found a country in reverser geocoding. Consortium of Northeastern Herbaria,1945-06-04T00:00:00,,US,Massachusetts,Worcester,Paxton,,42.31111,-71.92805,Vaccinium macrocarpum Aiton,USA,United States,USA.22_1,Massachusetts,USA.22.14_1,Worcester
1304451354,GBIF,CNH,437fd1c2-30b2-4030-9fc4-a1546e85e489,. Coordinates do not match to country in source data. Not found a country in reverser geocoding. Consortium of Northeastern Herbaria,1911-05-14T00:00:00,,US,Rhode Island,Providence,East Providence,,41.81361,-71.37055,Vaccinium macrocarpum Aiton,USA,United States,USA.40_1,Rhode Island,USA.40.4_1,Providence
1304451353,GBIF,CNH,e6e9134f-f6e3-40c7-86c9-b9df8af8a337,. Coordinates do not match to country in source data. Not found a country in reverser geocoding. Consortium of Northeastern Herbaria,1929-06-02T00:00:00,DRY WOODS,US,Connecticut,New London,Groton,,41.34583,-72.02972,Vaccinium macrocarpum Aiton,USA,United States,USA.7_1,Connecticut,USA.7.6_1,New London
1304451352,GBIF,CNH,7ce406e2-9201-4d67-a15b-8f0e9758bca7,. Coordinates do not match to country in source data. Not found a country in reverser geocoding. Consortium of Northeastern Herbaria,1958-06-07T00:00:00,swamp open ground,US,Connecticut,Litchfield,Litchfield,,41.74722,-73.18861,Vaccinium macrocarpum Aiton,USA,United States,USA.7_1,Connecticut,USA.7.3_1,Litchfield
1304451351,GBIF,CNH,1bc3a022-8261-4f63-b95a-e9fa57a2c3e7,. Coordinates do not match to country in source data. Not found a country in reverser geocoding. Consortium of Northeastern Herbaria,1919-05-29T00:00:00,Top of trap ledges,US,Connecticut,Hartford,Avon,,41.80972,-72.83055,Vaccinium macrocarpum Aiton,USA,United States,USA.7_1,Connecticut,USA.7.2_1,Hartford
1304451350,GBIF,CNH,99053246-a957-4078-a19d-0fbd56563727,. Coordinates do not match to country in source data. Not found a country in reverser geocoding. Consortium of Northeastern Herbaria,1913-08-09T00:00:00,Woods.,US,Massachusetts,Middlesex,Newton,,42.44916,-71.26305,Vaccinium macrocarpum Aiton,USA,United States,USA.22_1,Massachusetts,USA.22.9_1,Middlesex
1304451349,GBIF,CNH,ef825707-a006-4de7-a9b3-fbcb5a1eb65c,. Coordinates do not match to country in source data. Not found a country in reverser geocoding. Consortium of Northeastern Herbaria,1930-05-17T00:00:00,ROCKY WOODS,US,Connecticut,New London,Groton,,41.34583,-72.02972,Vaccinium macrocarpum Aiton,USA,United States,USA.7_1,Connecticut,USA.7.6_1,New London
1304451348,GBIF,CNH,ac5c7bec-e4a2-43da-ac6c-b825c4954449,. Coordinates do not match to country in source data. Not found a country in reverser geocoding. Consortium of Northeastern Herbaria,2001-05-12T00:00:00,,US,Massachusetts,Hampden,Wales,,42.1,-72.24944,Vaccinium macrocarpum Aiton,USA,United States,USA.22_1,Massachusetts,USA.22.7_1,Hampden
1304451347,GBIF,CNH,01f5f9a8-39d5-4c1e-b147-83c710f23c2f,. Coordinates do not match to country in source data. Not found a country in reverser geocoding. Consortium of Northeastern Herbaria,1933-07-28T00:00:00,Dry shrubby pasture,US,Connecticut,Litchfield,Warren,,41.73638,-73.34222,Vaccinium macrocarpum Aiton,USA,United States,USA.7_1,Connecticut,USA.7.3_1,Litchfield
1304451346,GBIF,CNH,d1f07907-3319-46cd-82b3-b1220340e926,. Coordinates do not match to country in source data. Not found a country in reverser geocoding. Consortium of Northeastern Herbaria,1899-05-07T00:00:00,DRY WOODS,US,Connecticut,Fairfield,Stratford,,41.18444,-73.13305,Vaccinium macrocarpum Aiton,USA,United States,USA.7_1,Connecticut,USA.7.1_1,Fairfield
1304451345,GBIF,CNH,b0d74af6-05a6-4c30-aa24-96388822fb9d,. Coordinates do not match to country in source data. Not found a country in reverser geocoding. Consortium of Northeastern Herbaria,1981-05-18T00:00:00,dry slope of mountain,US,Connecticut,Litchfield,Kent,,41.75472,-73.47833,Vaccinium macrocarpum Aiton,USA,United States,USA.7_1,Connecticut,USA.7.3_1,Litchfield
1304451344,GBIF,CNH,25499167-b724-4600-b0ea-dba3116b1050,. Coordinates do not match to country in source data. Not found a country in reverser geocoding. Consortium of Northeastern Herbaria,1941-08-01T00:00:00,Open exposed trap ridges,US,Connecticut,New Haven,Meriden,,41.51611,-72.83416,Vaccinium macrocarpum Aiton,USA,United States,USA.7_1,Connecticut,USA.7.5_1,New Haven
1304451343,GBIF,CNH,0b21f757-2021-4385-95ab-12ea8b12e8bf,. Coordinates do not match to country in source data. Not found a country in reverser geocoding. Consortium of Northeastern Herbaria,1913-08-20T00:00:00,Moist pasture,US,Connecticut,New London,Stonington,,41.365,-71.90722,Vaccinium macrocarpum Aiton,USA,United States,USA.7_1,Connecticut,USA.7.6_1,New London
1304451342,GBIF,CNH,230a7a10-e726-4a4c-a9bb-48db1ebf174a,. Coordinates do not match to country in source data. Not found a country in reverser geocoding. Consortium of Northeastern Herbaria,1917-05-24T00:00:00,Upland thicket,US,Connecticut,Tolland,Bolton,,41.76416,-72.43805,Vaccinium macrocarpum Aiton,USA,United States,USA.7_1,Connecticut,USA.7.7_1,Tolland
1304451341,GBIF,CNH,5e05cf52-b1c8-4ebb-a38e-eb424f7d2ae8,. Coordinates do not match to country in source data. Not found a country in reverser geocoding. Consortium of Northeastern Herbaria,1873-01-01T00:00:00,,US,Massachusetts,Middlesex,Newton,,42.33333,-71.21666,Vaccinium macrocarpum Aiton,USA,United States,USA.22_1,Massachusetts,USA.22.9_1,Middlesex
1304451340,GBIF,CNH,6705e88d-3364-4919-93a5-2d6708755c32,. Coordinates do not match to country in source data. Not found a country in reverser geocoding. Consortium of Northeastern Herbaria,1978-07-02T00:00:00,thicket edge,US,Connecticut,New London,Mystic,,41.35416,-71.96638,Vaccinium macrocarpum Aiton,USA,United States,USA.7_1,Connecticut,USA.7.6_1,New London
1304451339,GBIF,CNH,6feaf761-ec5f-40a2-84c5-faef07e8aea6,. Coordinates do not match to country in source data. Not found a country in reverser geocoding. Consortium of Northeastern Herbaria,1987-07-14T00:00:00,,US,Connecticut,Tolland,Willington,,41.88111,-72.3025,Vaccinium macrocarpum Aiton,USA,United States,USA.7_1,Connecticut,USA.7.7_1,Tolland
1304451338,GBIF,CNH,74aa4d9f-3c3c-47fa-ac0f-830a4134884f,. Coordinates do not match to country in source data. Not found a country in reverser geocoding. Consortium of Northeastern Herbaria,1951-07-29T00:00:00,Dry soil,US,Connecticut,Hartford,Granby,,41.95388,-72.78861,Vaccinium macrocarpum Aiton,USA,United States,USA.7_1,Connecticut,USA.7.2_1,Hartford
1304451337,GBIF,CNH,4eda1313-346b-4436-8f66-dac108c58270,. Coordinates do not match to country in source data. Not found a country in reverser geocoding. Consortium of Northeastern Herbaria,2002-05-04T00:00:00,"Pine plains, 1 year after a fire",US,New Jersey,Ocean,"Stafford Township, Warren Grove",,39.675,-74.325,Vaccinium macrocarpum Aiton,USA,United States,USA.31_1,New Jersey,USA.31.15_1,Ocean
1304451336,GBIF,CNH,23e59f80-0466-4ea9-a91c-ad749e668d28,. Coordinates do not match to country in source data. Not found a country in reverser geocoding. Consortium of Northeastern Herbaria,1933-08-05T00:00:00,,US,Massachusetts,Worcester,Millville,,42.02777,-71.58083,Vaccinium macrocarpum Aiton,USA,United States,USA.22_1,Massachusetts,USA.22.14_1,Worcester
1304451335,GBIF,CNH,bbb4dd86-7bc8-412c-b64e-e639585aa4a5,. Coordinates do not match to country in source data. Not found a country in reverser geocoding. Consortium of Northeastern Herbaria,1982-08-16T00:00:00,,US,Connecticut,Hartford,Burlington,,41.75861,-72.96,Vaccinium macrocarpum Aiton,USA,United States,USA.7_1,Connecticut,USA.7.2_1,Hartford
1304451334,GBIF,CNH,94e0d3a1-f1d0-4022-b2f3-9ffc31d76f54,. Coordinates do not match to country in source data. Not found a country in reverser geocoding. Consortium of Northeastern Herbaria,1976-07-20T00:00:00,,US,Connecticut,Windham,Eastford,,41.84333,-72.10666,Vaccinium macrocarpum Aiton,USA,United States,USA.7_1,Connecticut,USA.7.8_1,Windham
1304451333,GBIF,CNH,be08522a-0f3b-4939-802d-b94ede3645a0,. Coordinates do not match to country in source data. Not found a country in reverser geocoding. Consortium of Northeastern Herbaria,1907-06-12T00:00:00,Dry open woods and thickets,US,Connecticut,Tolland,Bolton,,41.76416,-72.43805,Vaccinium macrocarpum Aiton,USA,United States,USA.7_1,Connecticut,USA.7.7_1,Tolland
1304451332,GBIF,CNH,47773bb1-2671-4650-a47d-1711f61f31e8,. Coordinates do not match to country in source data. Not found a country in reverser geocoding. Consortium of Northeastern Herbaria,1946-08-02T00:00:00,Wooded hillside,US,Connecticut,Tolland,Tolland,,41.87138,-72.36861,Vaccinium macrocarpum Aiton,USA,United States,USA.7_1,Connecticut,USA.7.7_1,Tolland
1304451331,GBIF,CNH,92c58498-993a-4982-bd0b-3fbfd262057d,. Coordinates do not match to country in source data. Not found a country in reverser geocoding. Consortium of Northeastern Herbaria,1930-09-10T00:00:00,Pond,US,Connecticut,Fairfield,Danbury,,41.44176,-73.52484,Vaccinium macrocarpum Aiton,USA,United States,USA.7_1,Connecticut,USA.7.1_1,Fairfield
1304451330,GBIF,CNH,5c04218c-e65c-4e89-8fb9-90ad83e8786f,. Coordinates do not match to country in source data. Not found a country in reverser geocoding. Consortium of Northeastern Herbaria,2003-06-02T00:00:00,,US,Connecticut,Middlesex,Durham,,41.40985,-72.69597,Vaccinium macrocarpum Aiton,USA,United States,USA.7_1,Connecticut,USA.7.5_1,New Haven
1304451329,GBIF,CNH,8766e69f-067f-4d60-8cd3-26465fd21c81,. Coordinates do not match to country in source data. Not found a country in reverser geocoding. Consortium of Northeastern Herbaria,,,US,Vermont,Lamoille,Johnson,,44.64388,-72.68166,Vaccinium macrocarpum Aiton,USA,United States,USA.46_1,Vermont,USA.46.8_1,Lamoille
1304451328,GBIF,CNH,befe7255-d403-4338-8684-db1f5472af17,. Coordinates do not match to country in source data. Not found a country in reverser geocoding. Consortium of Northeastern Herbaria,1998-05-12T00:00:00,Dry shrub thicket on periodially-cleared gasline,US,Connecticut,Hartford,Windsor,,41.905,-72.70194,Vaccinium macrocarpum Aiton,USA,United States,USA.7_1,Connecticut,USA.7.2_1,Hartford
1304451327,GBIF,CNH,9e51b3e8-b1d8-427e-abe7-2befaa9e6784,. Coordinates do not match to country in source data. Not found a country in reverser geocoding. Consortium of Northeastern Herbaria,1981-07-22T00:00:00,,US,Connecticut,Hartford,Southington,,41.59638,-72.94777,Vaccinium macrocarpum Aiton,USA,United States,USA.7_1,Connecticut,USA.7.5_1,New Haven
1304451326,GBIF,CNH,ece71e6d-a0e7-4a8c-acf0-9559c1500cd1,. Coordinates do not match to country in source data. Not found a country in reverser geocoding. Consortium of Northeastern Herbaria,1979-09-19T00:00:00,on sphagnum mat,US,Connecticut,Litchfield,Salisbury,,41.98333,-73.42111,Vaccinium macrocarpum Aiton,USA,United States,USA.7_1,Connecticut,USA.7.3_1,Litchfield
1304451325,GBIF,CNH,2514c4c6-d224-4cfc-bc89-6b849c6968bc,. Coordinates do not match to country in source data. Not found a country in reverser geocoding. Consortium of Northeastern Herbaria,1981-05-21T00:00:00,,US,Connecticut,Litchfield,Sharon,,41.85426,-73.41151,Vaccinium macrocarpum Aiton,USA,United States,USA.7_1,Connecticut,USA.7.3_1,Litchfield
1304451324,GBIF,CNH,349408af-fa01-499d-86d4-42035bf10656,. Coordinates do not match to country in source data. Not found a country in reverser geocoding. Consortium of Northeastern Herbaria,1933-09-13T00:00:00,Shrubby swamp along coast,US,Connecticut,Middlesex,Westbrook,,41.29583,-72.46472,Vaccinium macrocarpum Aiton,USA,United States,USA.7_1,Connecticut,USA.7.4_1,Middlesex
1304451323,GBIF,CNH,c30e51eb-eff3-49f6-a538-1c74ec201ed6,. Coordinates do not match to country in source data. Not found a country in reverser geocoding. Consortium of Northeastern Herbaria,1922-05-21T00:00:00,,US,Connecticut,Tolland,"Mansfield, Storrs",,41.79083,-72.21333,Vaccinium macrocarpum Aiton,USA,United States,USA.7_1,Connecticut,USA.7.7_1,Tolland
1304451322,GBIF,CNH,66c77434-b209-4214-8bf5-ce6af24f116c,. Coordinates do not match to country in source data. Not found a country in reverser geocoding. Consortium of Northeastern Herbaria,2003-07-29T00:00:00,"Open ground, sandy soil.",US,New Jersey,Burlington,Medford,,39.884,-74.785,Vaccinium macrocarpum Aiton,USA,United States,USA.31_1,New Jersey,USA.31.3_1,Burlington
1304451321,GBIF,CNH,566614ec-1cef-44ca-b667-1fc95f73cd97,. Coordinates do not match to country in source data. Not found a country in reverser geocoding. Consortium of Northeastern Herbaria,1977-05-23T00:00:00,hillside,US,Connecticut,Tolland,"Mansfield, Gurleyville",,41.81472,-72.22527,Vaccinium macrocarpum Aiton,USA,United States,USA.7_1,Connecticut,USA.7.7_1,Tolland
1304451320,GBIF,CNH,46949ef2-115e-4ec0-9bcf-fff27d783ef7,. Coordinates do not match to country in source data. Not found a country in reverser geocoding. Consortium of Northeastern Herbaria,1994-06-26T00:00:00,,US,Connecticut,Fairfield,Shelton,,41.29638,-73.14611,Vaccinium macrocarpum Aiton,USA,United States,USA.7_1,Connecticut,USA.7.1_1,Fairfield
1304451319,GBIF,CNH,fd0cd4bc-dd15-4271-afdf-c48d7345adc9,. Coordinates do not match to country in source data. Not found a country in reverser geocoding. Consortium of Northeastern Herbaria,1982-10-15T00:00:00,,US,Connecticut,Litchfield,Norfolk,,41.99388,-73.20194,Vaccinium macrocarpum Aiton,USA,United States,USA.7_1,Connecticut,USA.7.3_1,Litchfield
1304451318,GBIF,CNH,4681aa8e-5f76-47b2-a359-f8e8885a9d1b,. Coordinates do not match to country in source data. Not found a country in reverser geocoding. Consortium of Northeastern Herbaria,1983-07-28T00:00:00,Abandoned commercial peat bog.,US,Maine,Hancock,Penobscot,,44.46444,-68.71111,Vaccinium macrocarpum Aiton,USA,United States,USA.20_1,Maine,USA.20.5_1,Hancock
1304451317,GBIF,CNH,507dd664-f0ab-4839-85bd-8b1835076497,. Coordinates do not match to country in source data. Not found a country in reverser geocoding. Consortium of Northeastern Herbaria,1930-05-12T00:00:00,,US,Connecticut,Hartford,Suffield,,41.98166,-72.65055,Vaccinium macrocarpum Aiton,USA,United States,USA.7_1,Connecticut,USA.7.2_1,Hartford
1304451316,GBIF,CNH,31291e60-3fa6-4470-887e-4e6e222d1b03,. Coordinates do not match to country in source data. Not found a country in reverser geocoding. Consortium of Northeastern Herbaria,1930-08-10T00:00:00,"Bog, Pond",US,Connecticut,Tolland,Mansfield,,41.78944,-72.26083,Vaccinium macrocarpum Aiton,USA,United States,USA.7_1,Connecticut,USA.7.7_1,Tolland
1304451315,GBIF,CNH,f479de4b-0a71-464f-9a97-af62186c7a8a,. Coordinates do not match to country in source data. Not found a country in reverser geocoding. Consortium of Northeastern Herbaria,1976-08-03T00:00:00,banks,US,Connecticut,Windham,Pomfret,,41.89972,-72.01361,Vaccinium macrocarpum Aiton,USA,United States,USA.7_1,Connecticut,USA.7.8_1,Windham
1304451314,GBIF,CNH,9cb4080c-4eba-4ef6-a1be-2486cabfa79c,. Coordinates do not match to country in source data. Not found a country in reverser geocoding. Consortium of Northeastern Herbaria,2003-05-23T00:00:00,Oak-dominated woods on sandy soil.,US,New Jersey,Middlesex,East Brunswick,,40.41,-74.40416,Vaccinium macrocarpum Aiton,USA,United States,USA.31_1,New Jersey,USA.31.12_1,Middlesex
1304451313,GBIF,CNH,98970f6e-5964-4e67-bb98-467fea88964a,. Coordinates do not match to country in source data. Not found a country in reverser geocoding. Consortium of Northeastern Herbaria,1929-06-27T00:00:00,Bog,US,New Hampshire,Grafton,Hanover,,43.70222,-72.28944,Vaccinium macrocarpum Aiton,USA,United States,USA.30_1,New Hampshire,USA.30.5_1,Grafton
1304451312,GBIF,CNH,1e96dcf4-d172-4c7b-8241-450170013bcc,. Coordinates do not match to country in source data. Not found a country in reverser geocoding. Consortium of Northeastern Herbaria,1878-06-02T00:00:00,,US,Vermont,Addison,Ripton,,43.98166,-73.01555,Vaccinium macrocarpum Aiton,USA,United States,USA.46_1,Vermont,USA.46.1_1,Addison
1304451311,GBIF,CNH,718e2c44-f055-410b-bfdd-a46ca784dd32,. Coordinates do not match to country in source data. Not found a country in reverser geocoding. Consortium of Northeastern Herbaria,1915-06-22T00:00:00,"Bog, Lake",US,Connecticut,Hartford,Suffield,,42.025,-72.75694,Vaccinium macrocarpum Aiton,USA,United States,USA.7_1,Connecticut,USA.7.2_1,Hartford
1304451310,GBIF,CNH,b023d72a-5a57-4891-9b47-c20b2525c336,. Coordinates do not match to country in source data. Not found a country in reverser geocoding. Consortium of Northeastern Herbaria,1982-08-04T00:00:00,Bog.,US,Maine,Aroostook,Fort Kent,,47.23972,-68.56083,Vaccinium macrocarpum Aiton,USA,United States,USA.20_1,Maine,USA.20.2_1,Aroostook
1304451309,GBIF,CNH,b8c1b15a-5f73-4bd2-a0d2-1dbd0dfe5649,. Coordinates do not match to country in source data. Not found a country in reverser geocoding. Consortium of Northeastern Herbaria,1903-04-20T00:00:00,"Bog, Pond",US,Connecticut,Litchfield,New Milford,,41.67333,-73.45722,Vaccinium macrocarpum Aiton,USA,United States,USA.7_1,Connecticut,USA.7.3_1,Litchfield
1304451308,GBIF,CNH,3f2a7c9a-7bfb-4408-a39e-7a29e0132437,. Coordinates do not match to country in source data. Not found a country in reverser geocoding. Consortium of Northeastern Herbaria,2002-06-19T00:00:00,,US,Connecticut,New London,North Stonington,,41.42777,-71.85916,Vaccinium macrocarpum Aiton,USA,United States,USA.7_1,Connecticut,USA.7.6_1,New London
1304451307,GBIF,CNH,e1074f84-aaa7-4601-aae2-04fb264415a7,. Coordinates do not match to country in source data. Not found a country in reverser geocoding. Consortium of Northeastern Herbaria,2003-05-23T00:00:00,Sandy soil on pine plains.,US,New Jersey,Ocean,"Stafford Township, Warren Grove",,39.675,-74.325,Vaccinium macrocarpum Aiton,USA,United States,USA.31_1,New Jersey,USA.31.15_1,Ocean
1304451306,GBIF,CNH,5e9b5297-017d-4f0d-9e44-abc09a20b1e3,. Coordinates do not match to country in source data. Not found a country in reverser geocoding. Consortium of Northeastern Herbaria,1910-08-01T00:00:00,"Bog, Lake",US,Connecticut,Hartford,Suffield,,42.025,-72.75694,Vaccinium macrocarpum Aiton,USA,United States,USA.7_1,Connecticut,USA.7.2_1,Hartford
1304451305,GBIF,CNH,ded74f40-b29b-41cd-a4cf-83f986917b95,. Coordinates do not match to country in source data. Not found a country in reverser geocoding. Consortium of Northeastern Herbaria,1904-07-30T00:00:00,Pond,US,Connecticut,Litchfield,Salisbury,,42.02027,-73.46638,Vaccinium macrocarpum Aiton,USA,United States,USA.7_1,Connecticut,USA.7.3_1,Litchfield
1304451304,GBIF,CNH,05eb4fc1-d241-464b-a175-0d92509ab0ca,. Coordinates do not match to country in source data. Not found a country in reverser geocoding. Consortium of Northeastern Herbaria,1982-06-02T00:00:00,On sphagnum mat on side of bog,US,New Hampshire,Hillsborough,Hillsborough,,43.13944,-71.89805,Vaccinium macrocarpum Aiton,USA,United States,USA.30_1,New Hampshire,USA.30.6_1,Hillsborough
1304451303,GBIF,CNH,ed8bb3d6-e070-49a2-a82a-95abb9c84853,. Coordinates do not match to country in source data. Not found a country in reverser geocoding. Consortium of Northeastern Herbaria,1992-10-05T00:00:00,Bog,US,Connecticut,Litchfield,Torrington,,41.80055,-73.12111,Vaccinium macrocarpum Aiton,USA,United States,USA.7_1,Connecticut,USA.7.3_1,Litchfield
1304451302,GBIF,CNH,9deb6d1d-02eb-4d0d-8b65-de7b69324639,. Coordinates do not match to country in source data. Not found a country in reverser geocoding. Consortium of Northeastern Herbaria,1984-06-04T00:00:00,Sphagnum bog.,US,New York,Wayne,Zurich,,43.15055,-77.04333,Vaccinium macrocarpum Aiton,USA,United States,USA.33_1,New York,USA.33.60_1,Wayne
1304451301,GBIF,CNH,029f6b62-c1a0-4fea-88f9-f6529d62cce8,. Coordinates do not match to country in source data. Not found a country in reverser geocoding. Consortium of Northeastern Herbaria,1927-05-19T00:00:00,Floating bog,US,Rhode Island,Providence,Glocester,,41.92388,-71.78,Vaccinium macrocarpum Aiton,USA,United States,USA.40_1,Rhode Island,USA.40.4_1,Providence
1304451300,GBIF,CNH,b6289652-06bc-4117-8b67-24156ff97f61,. Coordinates do not match to country in source data. Not found a country in reverser geocoding. Consortium of Northeastern Herbaria,1913-07-22T00:00:00,Low pasture,US,Massachusetts,Worcester,Princeton,,42.45,-71.88333,Vaccinium macrocarpum Aiton,USA,United States,USA.22_1,Massachusetts,USA.22.14_1,Worcester
1304451299,GBIF,CNH,24032024-bb3b-4969-907c-d37bd9003640,. Coordinates do not match to country in source data. Not found a country in reverser geocoding. Consortium of Northeastern Herbaria,1975-08-18T00:00:00,,US,Connecticut,New London,Voluntown,,41.63583,-71.79194,Vaccinium macrocarpum Aiton,USA,United States,USA.7_1,Connecticut,USA.7.6_1,New London
1304451298,GBIF,CNH,106e4542-496d-4e16-b09f-4d18066c5a4c,. Coordinates do not match to country in source data. Not found a country in reverser geocoding. Consortium of Northeastern Herbaria,1984-09-01T00:00:00,Dry woods and thickets,US,New York,Cortland,Virgil,,42.51055,-76.19444,Vaccinium macrocarpum Aiton,USA,United States,USA.33_1,New York,USA.33.12_1,Cortland
1304451297,GBIF,CNH,89818615-5846-43bf-b3fa-b5b3b117d2e2,. Coordinates do not match to country in source data. Not found a country in reverser geocoding. Consortium of Northeastern Herbaria,1929-07-03T00:00:00,"Bog, swamp",US,Connecticut,New Haven,Bethany,,41.42555,-72.99305,Vaccinium macrocarpum Aiton,USA,United States,USA.7_1,Connecticut,USA.7.5_1,New Haven
1304451296,GBIF,CNH,436ff298-fec4-47e7-b40a-f37ba511d017,. Coordinates do not match to country in source data. Not found a country in reverser geocoding. Consortium of Northeastern Herbaria,2006-05-17T00:00:00,,US,Rhode Island,Providence,Glocester,,41.90417,-71.78988,Vaccinium macrocarpum Aiton,USA,United States,USA.40_1,Rhode Island,USA.40.4_1,Providence
1304451295,GBIF,CNH,b64f2e47-4624-4588-b19c-760e8154c5cc,. Coordinates do not match to country in source data. Not found a country in reverser geocoding. Consortium of Northeastern Herbaria,1893-08-26T00:00:00,Cold sphagnum bogs,US,Vermont,Lamoille,Stowe,,44.54361,-72.81472,Vaccinium macrocarpum Aiton,USA,United States,USA.46_1,Vermont,USA.46.4_1,Chittenden
1304451294,GBIF,CNH,31835745-c464-4f42-bcf6-02c7d70d4ff2,. Coordinates do not match to country in source data. Not found a country in reverser geocoding. Consortium of Northeastern Herbaria,,,US,Maine,Penobscot,Hermon,,44.81,-68.91333,Vaccinium macrocarpum Aiton,USA,United States,USA.20_1,Maine,USA.20.10_1,Penobscot
1304451293,GBIF,CNH,69c477a7-e2d6-433a-8659-25a55cdecc8c,. Coordinates do not match to country in source data. Not found a country in reverser geocoding. Consortium of Northeastern Herbaria,1940-08-11T00:00:00,Boggy spot,US,New Hampshire,Coos,Sargents Purchase,,44.25805,-71.32777,Vaccinium macrocarpum Aiton,USA,United States,USA.30_1,New Hampshire,USA.30.4_1,Coos
1304451292,GBIF,CNH,1ea4bb5d-42a9-47ad-8202-e20409c2aa25,. Coordinates do not match to country in source data. Not found a country in reverser geocoding. Consortium of Northeastern Herbaria,1979-08-23T00:00:00,,US,Connecticut,Hartford,Southington,,41.59638,-72.94777,Vaccinium macrocarpum Aiton,USA,United States,USA.7_1,Connecticut,USA.7.5_1,New Haven
1304451291,GBIF,CNH,c736290a-6f6f-4ffa-9170-0fe254f8ec8f,. Coordinates do not match to country in source data. Not found a country in reverser geocoding. Consortium of Northeastern Herbaria,1976-04-23T00:00:00,Open woods,US,Connecticut,Middlesex,East Haddam,,41.47611,-72.34166,Vaccinium macrocarpum Aiton,USA,United States,USA.7_1,Connecticut,USA.7.4_1,Middlesex
1304451290,GBIF,CNH,07774572-1ce5-419b-9df3-a9abac3045be,. Coordinates do not match to country in source data. Not found a country in reverser geocoding. Consortium of Northeastern Herbaria,1979-08-21T00:00:00,Open sphagnous bog with low vegetation and environs.,US,Connecticut,Hartford,Southington,,41.59638,-72.94777,Vaccinium macrocarpum Aiton,USA,United States,USA.7_1,Connecticut,USA.7.5_1,New Haven
1304451289,GBIF,CNH,788f5a28-2df5-41c5-9736-eef1acf69f4a,. Coordinates do not match to country in source data. Not found a country in reverser geocoding. Consortium of Northeastern Herbaria,1915-04-27T00:00:00,Black spruce bog,US,Rhode Island,Providence,Scituate,,41.7876,-71.60061,Vaccinium macrocarpum Aiton,USA,United States,USA.40_1,Rhode Island,USA.40.4_1,Providence
1304451288,GBIF,CNH,60e98834-3956-41f0-ad3c-ed8b981205e1,. Coordinates do not match to country in source data. Not found a country in reverser geocoding. Consortium of Northeastern Herbaria,1982-08-17T00:00:00,Sphagnous swale,US,Connecticut,Hartford,South Windsor,,41.82361,-72.62111,Vaccinium macrocarpum Aiton,USA,United States,USA.7_1,Connecticut,USA.7.2_1,Hartford
1304451287,GBIF,CNH,252c4fc1-9e70-4a4f-8c9f-9f19766d100e,. Coordinates do not match to country in source data. Not found a country in reverser geocoding. Consortium of Northeastern Herbaria,1917-06-24T00:00:00,,US,Connecticut,Litchfield,Norfolk,,41.99388,-73.20194,Vaccinium macrocarpum Aiton,USA,United States,USA.7_1,Connecticut,USA.7.3_1,Litchfield
1304451286,GBIF,CNH,3ddf797c-eaa2-42dc-bde4-e10a611c1115,. Coordinates do not match to country in source data. Not found a country in reverser geocoding. Consortium of Northeastern Herbaria,1899-07-04T00:00:00,Peaty hollows,US,Maine,Franklin,Franklin,,44.97227,-70.3259,Vaccinium macrocarpum Aiton,USA,United States,USA.20_1,Maine,USA.20.4_1,Franklin
1304451285,GBIF,CNH,006b922e-da84-4fe1-97ac-4d8da1a1ffe2,. Coordinates do not match to country in source data. Not found a country in reverser geocoding. Consortium of Northeastern Herbaria,1982-08-04T00:00:00,Bog.,US,Maine,Aroostook,Fort Kent,,47.23972,-68.56083,Vaccinium macrocarpum Aiton,USA,United States,USA.20_1,Maine,USA.20.2_1,Aroostook
1304451284,GBIF,CNH,0a30f5b0-5d0b-491b-b9eb-d62da7c92049,. Coordinates do not match to country in source data. Not found a country in reverser geocoding. Consortium of Northeastern Herbaria,1903-05-11T00:00:00,"swamp, pond",US,Connecticut,Litchfield,Kent,,41.72472,-73.41722,Vaccinium macrocarpum Aiton,USA,United States,USA.7_1,Connecticut,USA.7.3_1,Litchfield
1304451283,GBIF,CNH,ec6e5aef-ca5f-45c8-bea5-47362b3dba71,. Coordinates do not match to country in source data. Not found a country in reverser geocoding. Consortium of Northeastern Herbaria,1991-06-08T00:00:00,Open sphagnum area,US,Vermont,Lamoille,Stowe,,44.47472,-72.70166,Vaccinium macrocarpum Aiton,USA,United States,USA.46_1,Vermont,USA.46.8_1,Lamoille
1304451282,GBIF,CNH,7935f643-3cca-434a-b080-b90c2d290f1d,. Coordinates do not match to country in source data. Not found a country in reverser geocoding. Consortium of Northeastern Herbaria,1900-06-03T00:00:00,Swamp,US,Connecticut,Hartford,Burlington,,41.75861,-72.96,Vaccinium macrocarpum Aiton,USA,United States,USA.7_1,Connecticut,USA.7.2_1,Hartford
1304451281,GBIF,CNH,84532038-3bb6-4f0c-859c-d24d636a952b,. Coordinates do not match to country in source data. Not found a country in reverser geocoding. Consortium of Northeastern Herbaria,2003-10-09T00:00:00,bog,US,Connecticut,Tolland,Willington,,43.89166,-72.29166,Vaccinium macrocarpum Aiton,USA,United States,USA.46_1,Vermont,USA.46.9_1,Orange
1304451280,GBIF,CNH,15414f92-3249-4012-b4a8-8c105e321a1c,. Coordinates do not match to country in source data. Not found a country in reverser geocoding. Consortium of Northeastern Herbaria,1983-07-03T00:00:00,Floating island,US,Rhode Island,Providence,Glocester,,41.92388,-71.78,Vaccinium macrocarpum Aiton,USA,United States,USA.40_1,Rhode Island,USA.40.4_1,Providence
1304451279,GBIF,CNH,34d01c87-9736-41c7-885a-a375becf5319,. Coordinates do not match to country in source data. Not found a country in reverser geocoding. Consortium of Northeastern Herbaria,1913-09-09T00:00:00,"Bog, Pond",US,Connecticut,Middlesex,Durham,,41.42444,-72.74944,Vaccinium macrocarpum Aiton,USA,United States,USA.7_1,Connecticut,USA.7.5_1,New Haven
1304451278,GBIF,CNH,f8c940c7-933a-402c-aefa-3badac9102f9,. Coordinates do not match to country in source data. Not found a country in reverser geocoding. Consortium of Northeastern Herbaria,1939-06-07T00:00:00,,US,Massachusetts,Worcester,Boylston,,42.35,-71.71611,Vaccinium macrocarpum Aiton,USA,United States,USA.22_1,Massachusetts,USA.22.14_1,Worcester
1304451277,GBIF,CNH,1b85ed4e-e36d-4bd8-a43d-708ef60d7943,. Coordinates do not match to country in source data. Not found a country in reverser geocoding. Consortium of Northeastern Herbaria,1936-05-11T00:00:00,,US,Massachusetts,Worcester,Auburn,,42.2,-71.85,Vaccinium macrocarpum Aiton,USA,United States,USA.22_1,Massachusetts,USA.22.14_1,Worcester
1304451276,GBIF,CNH,69634245-3032-401c-bd13-06a7483f204f,. Coordinates do not match to country in source data. Not found a country in reverser geocoding. Consortium of Northeastern Herbaria,,,US,Massachusetts,Hampden,Wilbraham,,42.12361,-72.43138,Vaccinium macrocarpum Aiton,USA,United States,USA.22_1,Massachusetts,USA.22.7_1,Hampden
1304451275,GBIF,CNH,f439a90a-5a07-4d7f-b62d-51970f9997b0,. Coordinates do not match to country in source data. Not found a country in reverser geocoding. Consortium of Northeastern Herbaria,1893-09-11T00:00:00,,US,Connecticut,Fairfield,Shelton,,41.29638,-73.14611,Vaccinium macrocarpum Aiton,USA,United States,USA.7_1,Connecticut,USA.7.1_1,Fairfield
1304451274,GBIF,CNH,31bac2b9-5fe0-4265-b4ca-6313a4dfec9d,. Coordinates do not match to country in source data. Not found a country in reverser geocoding. Consortium of Northeastern Herbaria,1913-06-02T00:00:00,wood area,US,Connecticut,Litchfield,Norfolk,,42.005,-73.2,Vaccinium macrocarpum Aiton,USA,United States,USA.7_1,Connecticut,USA.7.3_1,Litchfield
1304451273,GBIF,CNH,3b668874-dbeb-4aa4-b5f3-18cfb5bca8cf,. Coordinates do not match to country in source data. Not found a country in reverser geocoding. Consortium of Northeastern Herbaria,1935-09-27T00:00:00,,US,Connecticut,Litchfield,Salisbury,,42.02027,-73.46638,Vaccinium macrocarpum Aiton,USA,United States,USA.7_1,Connecticut,USA.7.3_1,Litchfield
1304451272,GBIF,CNH,691c0b68-60b1-4840-b5e7-3e14fd6e99b3,. Coordinates do not match to country in source data. Not found a country in reverser geocoding. Consortium of Northeastern Herbaria,1919-06-10T00:00:00,Bog,US,Connecticut,Litchfield,Norfolk,,41.99388,-73.20194,Vaccinium macrocarpum Aiton,USA,United States,USA.7_1,Connecticut,USA.7.3_1,Litchfield
1304451271,GBIF,CNH,2e9b1aec-aff1-4dd9-a691-56324e62e0a0,. Coordinates do not match to country in source data. Not found a country in reverser geocoding. Consortium of Northeastern Herbaria,1932-05-11T00:00:00,,US,Massachusetts,Worcester,Worcester,,42.27055,-71.80777,Vaccinium macrocarpum Aiton,USA,United States,USA.22_1,Massachusetts,USA.22.14_1,Worcester
1304451270,GBIF,CNH,fabd7a01-9f64-4105-a7b2-1a2bf6671bca,. Coordinates do not match to country in source data. Not found a country in reverser geocoding. Consortium of Northeastern Herbaria,1990-07-04T00:00:00,Bog,US,Connecticut,Tolland,Willington,,41.89243,-72.29544,Vaccinium macrocarpum Aiton,USA,United States,USA.7_1,Connecticut,USA.7.7_1,Tolland
1304451269,GBIF,CNH,9e1769ad-ba61-4365-8af5-3c114b497360,. Coordinates do not match to country in source data. Not found a country in reverser geocoding. Consortium of Northeastern Herbaria,1989-06-08T00:00:00,Rock ledge,US,New Hampshire,Carroll,Hart''s Location,,44.20641,-71.39873,Vaccinium macrocarpum Aiton,USA,United States,USA.30_1,New Hampshire,USA.30.2_1,Carroll
1304451268,GBIF,CNH,dd4ac5ab-3362-4094-aa25-212ff019b4cc,. Coordinates do not match to country in source data. Not found a country in reverser geocoding. Consortium of Northeastern Herbaria,2001-09-24T00:00:00,,US,New Hampshire,Carroll,Ossipee,,43.76666,-71.11666,Vaccinium macrocarpum Aiton,USA,United States,USA.30_1,New Hampshire,USA.30.2_1,Carroll
1304451267,GBIF,CNH,d0c2849b-ba61-4a03-96a8-48ebfb9c63e1,. Coordinates do not match to country in source data. Not found a country in reverser geocoding. Consortium of Northeastern Herbaria,2002-05-04T00:00:00,Pine plains,US,New Jersey,Burlington,Woodland Township,,39.77611,-74.4525,Vaccinium macrocarpum Aiton,USA,United States,USA.31_1,New Jersey,USA.31.3_1,Burlington
1304451266,GBIF,CNH,13cb59ea-945b-4185-8702-0f856be69946,. Coordinates do not match to country in source data. Not found a country in reverser geocoding. Consortium of Northeastern Herbaria,1939-10-05T00:00:00,,US,Connecticut,Tolland,"Mansfield, Storrs",,41.80833,-72.25,Vaccinium macrocarpum Aiton,USA,United States,USA.7_1,Connecticut,USA.7.7_1,Tolland
1304451265,GBIF,CNH,79f8c65f-715a-4308-8e7c-ce6c0bc95a6c,. Coordinates do not match to country in source data. Not found a country in reverser geocoding. Consortium of Northeastern Herbaria,1916-08-03T00:00:00,Open bank at border of woods,US,Vermont,Orleans,Westmore,,44.75194,-72.06333,Vaccinium macrocarpum Aiton,USA,United States,USA.46_1,Vermont,USA.46.10_1,Orleans
1304451264,GBIF,CNH,f0f276c9-3e29-45b2-8f68-03c7094ab059,. Coordinates do not match to country in source data. Not found a country in reverser geocoding. Consortium of Northeastern Herbaria,1982-08-05T00:00:00,,US,Maine,Aroostook,Fort Kent,,47.20527,-68.58611,Vaccinium macrocarpum Aiton,USA,United States,USA.20_1,Maine,USA.20.2_1,Aroostook
1304451263,GBIF,CNH,e39a6928-0d3c-4fe7-9af3-4133b54edb49,. Coordinates do not match to country in source data. Not found a country in reverser geocoding. Consortium of Northeastern Herbaria,1904-07-04T00:00:00,Swamp on margin of pond,US,Connecticut,Litchfield,Salisbury,,41.93805,-73.455,Vaccinium macrocarpum Aiton,USA,United States,USA.7_1,Connecticut,USA.7.3_1,Litchfield
1304451262,GBIF,CNH,84a74e27-d87f-48cd-a3aa-29e69d2abfd6,. Coordinates do not match to country in source data. Not found a country in reverser geocoding. Consortium of Northeastern Herbaria,2004-08-29T00:00:00,"Steep, stony somewhat open decicuous forest. Dryish site, on convex slope.",US,Connecticut,Litchfield,Salisbury,,41.985,-73.42277,Vaccinium macrocarpum Aiton,USA,United States,USA.7_1,Connecticut,USA.7.3_1,Litchfield
1304451261,GBIF,CNH,3257ea3c-3e9d-457a-9dfe-7a65cea7e4e1,. Coordinates do not match to country in source data. Not found a country in reverser geocoding. Consortium of Northeastern Herbaria,1933-05-20T00:00:00,,US,Massachusetts,Worcester,Millbury,,42.19388,-71.76,Vaccinium macrocarpum Aiton,USA,United States,USA.22_1,Massachusetts,USA.22.14_1,Worcester
1304451260,GBIF,CNH,0a4c341e-bea6-4957-baa0-621e897801d2,. Coordinates do not match to country in source data. Not found a country in reverser geocoding. Consortium of Northeastern Herbaria,1904-09-05T00:00:00,,US,Connecticut,Litchfield,Norfolk,,41.99388,-73.20194,Vaccinium macrocarpum Aiton,USA,United States,USA.7_1,Connecticut,USA.7.3_1,Litchfield
1304451259,GBIF,CNH,62501005-b225-4371-a0d6-826ea785459b,. Coordinates do not match to country in source data. Not found a country in reverser geocoding. Consortium of Northeastern Herbaria,1919-05-20T00:00:00,"In sphagnum, floating bog",US,Rhode Island,Providence,Glocester,,41.92388,-71.78,Vaccinium macrocarpum Aiton,USA,United States,USA.40_1,Rhode Island,USA.40.4_1,Providence
1304451258,GBIF,CNH,8483cbe8-bb3f-4091-8366-9b03d23655a2,. Coordinates do not match to country in source data. Not found a country in reverser geocoding. Consortium of Northeastern Herbaria,1899-09-17T00:00:00,Bog,US,Connecticut,Fairfield,Shelton,,41.29638,-73.14611,Vaccinium macrocarpum Aiton,USA,United States,USA.7_1,Connecticut,USA.7.1_1,Fairfield
1304451257,GBIF,CNH,3671200c-3c1e-4154-9f84-275c9a2045b9,. Coordinates do not match to country in source data. Not found a country in reverser geocoding. Consortium of Northeastern Herbaria,1877-06-06T00:00:00,Swamp,US,Vermont,Lamoille,Stowe,,44.47472,-72.70166,Vaccinium macrocarpum Aiton,USA,United States,USA.46_1,Vermont,USA.46.8_1,Lamoille
1304451256,GBIF,CNH,3a822924-a874-431b-9077-dcdb139fec0a,. Coordinates do not match to country in source data. Not found a country in reverser geocoding. Consortium of Northeastern Herbaria,1965-09-26T00:00:00,Floating bog mat,US,New Hampshire,Belknap,Sanbornton,,43.555,-71.61,Vaccinium macrocarpum Aiton,USA,United States,USA.30_1,New Hampshire,USA.30.1_1,Belknap
1304451255,GBIF,CNH,e94ad9b8-95d8-449e-976a-3d8fc7902b17,. Coordinates do not match to country in source data. Not found a country in reverser geocoding. Consortium of Northeastern Herbaria,1979-05-27T00:00:00,Sphagnum bog,US,New Hampshire,Merrimack,Henniker,,43.17972,-71.82222,Vaccinium macrocarpum Aiton,USA,United States,USA.30_1,New Hampshire,USA.30.7_1,Merrimack
1304451254,GBIF,CNH,d1f438bd-75ff-4bd9-b3a0-8757c78b4dfc,. Coordinates do not match to country in source data. Not found a country in reverser geocoding. Consortium of Northeastern Herbaria,1948-07-27T00:00:00,Hillside,US,New Hampshire,Grafton,Franconia,,44.17527,-71.69222,Vaccinium macrocarpum Aiton,USA,United States,USA.30_1,New Hampshire,USA.30.5_1,Grafton
1304451253,GBIF,CNH,6f0909f5-1293-4f05-be86-45da0bcd65ae,. Coordinates do not match to country in source data. Not found a country in reverser geocoding. Consortium of Northeastern Herbaria,1991-07-26T00:00:00,Old field,US,Maine,Franklin,,,44.77944,-70.24555,Vaccinium macrocarpum Aiton,USA,United States,USA.20_1,Maine,USA.20.4_1,Franklin
1304451252,GBIF,CNH,82d99699-22b5-49e7-a394-e7dfefbb05ff,. Coordinates do not match to country in source data. Not found a country in reverser geocoding. Consortium of Northeastern Herbaria,1903-05-31T00:00:00,,US,Connecticut,Litchfield,Salisbury,,42.02027,-73.46638,Vaccinium macrocarpum Aiton,USA,United States,USA.7_1,Connecticut,USA.7.3_1,Litchfield
1304451251,GBIF,CNH,b2c8ccbb-dc18-466c-8c08-c19d704a665d,. Coordinates do not match to country in source data. Not found a country in reverser geocoding. Consortium of Northeastern Herbaria,1913-08-11T00:00:00,"Sphagnum bog, margin of pond",US,Massachusetts,Norfolk,Brookline,,42.31388,-71.175,Vaccinium macrocarpum Aiton,USA,United States,USA.22_1,Massachusetts,USA.22.11_1,Norfolk
1304451250,GBIF,CNH,705977c5-2acb-47a0-b410-30eb3c50c261,. Coordinates do not match to country in source data. Not found a country in reverser geocoding. Consortium of Northeastern Herbaria,1939-05-19T00:00:00,,US,Massachusetts,Worcester,Douglas,,42.05416,-71.73944,Vaccinium macrocarpum Aiton,USA,United States,USA.22_1,Massachusetts,USA.22.14_1,Worcester
1304451249,GBIF,CNH,9731d213-420f-496f-9663-182e95d0afd6,. Coordinates do not match to country in source data. Not found a country in reverser geocoding. Consortium of Northeastern Herbaria,1936-05-13T00:00:00,,US,Massachusetts,Worcester,Westborough,,42.26944,-71.61611,Vaccinium macrocarpum Aiton,USA,United States,USA.22_1,Massachusetts,USA.22.14_1,Worcester
1304451248,GBIF,CNH,4e34129b-c406-49b8-8bab-8129da0e6ee1,. Coordinates do not match to country in source data. Not found a country in reverser geocoding. Consortium of Northeastern Herbaria,1981-10-08T00:00:00,Swamp north of road.,US,Connecticut,New London,Groton,,41.33,-72.045,Vaccinium macrocarpum Aiton,USA,United States,USA.7_1,Connecticut,USA.7.6_1,New London
1304451247,GBIF,CNH,88e04c2e-43c2-4be2-87bb-aa88053f01ab,. Coordinates do not match to country in source data. Not found a country in reverser geocoding. Consortium of Northeastern Herbaria,1974-10-23T00:00:00,,US,Connecticut,Tolland,Willington,,41.89243,-72.29544,Vaccinium macrocarpum Aiton,USA,United States,USA.7_1,Connecticut,USA.7.7_1,Tolland
1304451246,GBIF,CNH,bcfeca28-8e09-4412-b6d2-03be41492c0e,. Coordinates do not match to country in source data. Not found a country in reverser geocoding. Consortium of Northeastern Herbaria,1904-06-14T00:00:00,,US,Connecticut,Litchfield,Norfolk,,41.99388,-73.20194,Vaccinium macrocarpum Aiton,USA,United States,USA.7_1,Connecticut,USA.7.3_1,Litchfield
1304451245,GBIF,CNH,532968b5-aa44-4114-909f-01166126ff1f,. Coordinates do not match to country in source data. Not found a country in reverser geocoding. Consortium of Northeastern Herbaria,1914-08-28T00:00:00,Mountain slope,US,New Hampshire,Coos,Carroll,,44.15888,-71.36166,Vaccinium macrocarpum Aiton,USA,United States,USA.30_1,New Hampshire,USA.30.2_1,Carroll
1304451244,GBIF,CNH,ba734331-0094-4b8c-b58c-484693653b84,. Coordinates do not match to country in source data. Not found a country in reverser geocoding. Consortium of Northeastern Herbaria,2002-06-16T00:00:00,,US,Connecticut,Hartford,Simsbury,,41.86333,-72.82027,Vaccinium macrocarpum Aiton,USA,United States,USA.7_1,Connecticut,USA.7.2_1,Hartford
1304451243,GBIF,CNH,ae643dc8-d2ef-43b4-a151-064969c6b94d,. Coordinates do not match to country in source data. Not found a country in reverser geocoding. Consortium of Northeastern Herbaria,1975-06-01T00:00:00,"Moist woods, swamps, and clearings",US,Massachusetts,Middlesex,Reading,,42.52555,-71.09527,Vaccinium macrocarpum Aiton,USA,United States,USA.22_1,Massachusetts,USA.22.9_1,Middlesex
1304451242,GBIF,CNH,33281734-53ca-4956-8c7f-39885d3ccd28,Point in the water. original: Point in the water. Consortium of Northeastern Herbaria,1983-08-31T00:00:00,,US,Rhode Island,Washington,Block Island,,41.19166,-71.575,Vaccinium macrocarpum Aiton,,,,,,
1304451241,GBIF,CNH,3dc92e20-b98c-4181-a9b8-f7c7b13f0296,. Coordinates do not match to country in source data. Not found a country in reverser geocoding. Consortium of Northeastern Herbaria,1979-05-27T00:00:00,Sphagnum bog,US,New Hampshire,Merrimack,Henniker,,43.17972,-71.82222,Vaccinium macrocarpum Aiton,USA,United States,USA.30_1,New Hampshire,USA.30.7_1,Merrimack
1304451240,GBIF,CNH,c2d72885-1988-4b82-a395-492b050d93da,. Coordinates do not match to country in source data. Not found a country in reverser geocoding. Consortium of Northeastern Herbaria,1935-05-25T00:00:00,,US,Massachusetts,Worcester,Upton,,42.17444,-71.60222,Vaccinium macrocarpum Aiton,USA,United States,USA.22_1,Massachusetts,USA.22.14_1,Worcester
1304451239,GBIF,CNH,c47436dd-f5c0-4378-aa1c-60f7f53d73f6,. Coordinates do not match to country in source data. Not found a country in reverser geocoding. Consortium of Northeastern Herbaria,1996-08-05T00:00:00,,US,Maine,Lincoln,South Bristol,,43.90666,-69.51555,Vaccinium macrocarpum Aiton,USA,United States,USA.20_1,Maine,USA.20.8_1,Lincoln
1304451238,GBIF,CNH,8a1e255e-e516-4f67-a142-78b0c5641569,. Coordinates do not match to country in source data. Not found a country in reverser geocoding. Consortium of Northeastern Herbaria,1983-06-30T00:00:00,Bog.,US,Connecticut,New Haven,Middlebury,,41.52666,-73.15833,Vaccinium macrocarpum Aiton,USA,United States,USA.7_1,Connecticut,USA.7.3_1,Litchfield
1304451237,GBIF,CNH,d9060a0f-d44b-43fc-9917-795bf9d56f61,. Coordinates do not match to country in source data. Not found a country in reverser geocoding. Consortium of Northeastern Herbaria,1919-07-29T00:00:00,Dry sandy expanse,US,Maine,Oxford,Norway,,44.22888,-70.61166,Vaccinium macrocarpum Aiton,USA,United States,USA.20_1,Maine,USA.20.9_1,Oxford
1304451236,GBIF,CNH,1caddb75-0527-40d0-93e7-6bda0159edc5,. Coordinates do not match to country in source data. Not found a country in reverser geocoding. Consortium of Northeastern Herbaria,1982-07-23T00:00:00,,US,Connecticut,Hartford,Burlington,,41.7425,-72.97111,Vaccinium macrocarpum Aiton,USA,United States,USA.7_1,Connecticut,USA.7.2_1,Hartford
1304451235,GBIF,CNH,d0ad817b-361c-44fc-a7f6-d964e17a9016,Point in the water. Point in the water. original: Point in the water. georef: Point in the water. Consortium of Northeastern Herbaria,1977-08-12T00:00:00,"Upper edge of rocks, in crevices",US,Maine,Lincoln,South Bristol,,43.83138,-69.51555,Vaccinium macrocarpum Aiton,,,,,,
1304451234,GBIF,CNH,0214790f-6af7-4711-9bb2-b6a69e4a0c14,. Coordinates do not match to country in source data. Not found a country in reverser geocoding. Consortium of Northeastern Herbaria,2011-10-08T00:00:00,Open area of hardwood forest.,US,New Hampshire,Grafton,Warren,,43.9018,-71.82147,Vaccinium macrocarpum Aiton,USA,United States,USA.30_1,New Hampshire,USA.30.5_1,Grafton
1304451233,GBIF,CNH,b80cff81-500c-495d-8ff2-328cb726dfb2,. Coordinates do not match to country in source data. Not found a country in reverser geocoding. Consortium of Northeastern Herbaria,1937-05-23T00:00:00,,US,Massachusetts,Worcester,Northbridge,,42.13333,-71.65,Vaccinium macrocarpum Aiton,USA,United States,USA.22_1,Massachusetts,USA.22.14_1,Worcester
1304451232,GBIF,CNH,28d40dff-5409-41c9-979c-ae7a9115a798,. Coordinates do not match to country in source data. Not found a country in reverser geocoding. Consortium of Northeastern Herbaria,1994-09-14T00:00:00,,US,Connecticut,New Haven,North Haven,,41.38166,-72.85888,Vaccinium macrocarpum Aiton,USA,United States,USA.7_1,Connecticut,USA.7.5_1,New Haven
1304451231,GBIF,CNH,9d23073c-93c7-44b7-9bed-6f5323df71cb,. Coordinates do not match to country in source data. Not found a country in reverser geocoding. Consortium of Northeastern Herbaria,1921-09-18T00:00:00,,US,New York,Essex,Keene,,44.16111,-73.72,Vaccinium macrocarpum Aiton,USA,United States,USA.33_1,New York,USA.33.16_1,Essex
1304451230,GBIF,CNH,ba43845b-b51d-4893-a3ee-e5dc3b08adf5,. Coordinates do not match to country in source data. Not found a country in reverser geocoding. Consortium of Northeastern Herbaria,1979-09-19T00:00:00,on sphagnum mat,US,Connecticut,Litchfield,Salisbury,,41.98333,-73.42111,Vaccinium macrocarpum Aiton,USA,United States,USA.7_1,Connecticut,USA.7.3_1,Litchfield
1304451229,GBIF,CNH,4278a35a-2aca-47c3-91e9-e02556299057,. Coordinates do not match to country in source data. Not found a country in reverser geocoding. Consortium of Northeastern Herbaria,1940-08-04T00:00:00,,US,Connecticut,New London,Colchester,,41.53944,-72.39694,Vaccinium macrocarpum Aiton,USA,United States,USA.7_1,Connecticut,USA.7.6_1,New London
1304451228,GBIF,CNH,9e837da2-86f6-4d11-9c5e-d8689290341f,. Coordinates do not match to country in source data. Not found a country in reverser geocoding. Consortium of Northeastern Herbaria,1877-06-18T00:00:00,,US,Vermont,Addison,Bristol,,44.13111,-73.11138,Vaccinium macrocarpum Aiton,USA,United States,USA.46_1,Vermont,USA.46.1_1,Addison
1304451227,GBIF,CNH,6cdbe21c-5345-455b-a383-121fd32adea6,. Coordinates do not match to country in source data. Not found a country in reverser geocoding. Consortium of Northeastern Herbaria,1984-07-08T00:00:00,Swampy lake margin.,US,Connecticut,Tolland,Bolton,,41.80833,-72.43,Vaccinium macrocarpum Aiton,USA,United States,USA.7_1,Connecticut,USA.7.7_1,Tolland
1304451226,GBIF,CNH,f2a9539f-a53c-4537-bde0-c97cfe36ff31,. Coordinates do not match to country in source data. Not found a country in reverser geocoding. Consortium of Northeastern Herbaria,1914-08-28T00:00:00,Dry opening in woods,US,New Hampshire,Coos,Beans,,44.19451,-71.38868,Vaccinium macrocarpum Aiton,USA,United States,USA.30_1,New Hampshire,USA.30.4_1,Coos
1304451225,GBIF,CNH,b96dee4e-dfd2-47fe-8bbf-cdcf5a7b300f,. Coordinates do not match to country in source data. Not found a country in reverser geocoding. Consortium of Northeastern Herbaria,1982-07-23T00:00:00,Wet roadside ditch.,US,New Jersey,Burlington,,,39.88333,-74.64138,Vaccinium macrocarpum Aiton,USA,United States,USA.31_1,New Jersey,USA.31.3_1,Burlington
1304451224,GBIF,CNH,9504dbf0-7d82-49d9-ae5c-d0634e8c71cd,. Coordinates do not match to country in source data. Not found a country in reverser geocoding. Consortium of Northeastern Herbaria,2006-09-11T00:00:00,heath dominated forest.,US,Connecticut,Litchfield,Salisbury,,42.05111,-73.4825,Vaccinium macrocarpum Aiton,USA,United States,USA.22_1,Massachusetts,USA.22.2_1,Berkshire
1304451223,GBIF,CNH,63780e48-a918-4f06-a9a6-0a60650c80d8,. Coordinates do not match to country in source data. Not found a country in reverser geocoding. Consortium of Northeastern Herbaria,1929-06-05T00:00:00,Hillsides and open woods,US,New Hampshire,Merrimack,New London,,43.41388,-71.985,Vaccinium macrocarpum Aiton,USA,United States,USA.30_1,New Hampshire,USA.30.7_1,Merrimack
1304451222,GBIF,CNH,823c4581-a63f-44fa-8885-ca2d41f68d6e,. Coordinates do not match to country in source data. Not found a country in reverser geocoding. Consortium of Northeastern Herbaria,1921-09-18T00:00:00,,US,New York,Essex,Keene,,44.16111,-73.72,Vaccinium macrocarpum Aiton,USA,United States,USA.33_1,New York,USA.33.16_1,Essex
1304451221,GBIF,CNH,0ae93287-07bd-4e7c-8d67-2f5683b957c9,. Coordinates do not match to country in source data. Not found a country in reverser geocoding. Consortium of Northeastern Herbaria,1981-10-05T00:00:00,Late stage sphagnum shrub bog,US,Connecticut,,,,41.66694,-72.66638,Vaccinium macrocarpum Aiton,USA,United States,USA.7_1,Connecticut,USA.7.2_1,Hartford
1304451220,GBIF,CNH,2d7e3dc3-1406-407c-a8ba-6096edf624ad,. Coordinates do not match to country in source data. Not found a country in reverser geocoding. Consortium of Northeastern Herbaria,1975-10-10T00:00:00,bog,US,Massachusetts,Middlesex,North Reading,,42.575,-71.07916,Vaccinium macrocarpum Aiton,USA,United States,USA.22_1,Massachusetts,USA.22.9_1,Middlesex
1304451219,GBIF,CNH,67c27ddc-e4e1-45fd-9f19-a3a478edc008,. Coordinates do not match to country in source data. Not found a country in reverser geocoding. Consortium of Northeastern Herbaria,2011-10-08T00:00:00,Boggy end of lake,US,New Hampshire,Grafton,Warren,,43.90463,-71.82052,Vaccinium macrocarpum Aiton,USA,United States,USA.30_1,New Hampshire,USA.30.5_1,Grafton
1304451218,GBIF,CNH,a6e71aad-a3d4-4a18-8f7a-b761c0ab5317,. Coordinates do not match to country in source data. Not found a country in reverser geocoding. Consortium of Northeastern Herbaria,1948-07-18T00:00:00,Sphagnous thickets at margin of Boggy swale,US,Connecticut,Middlesex,Killingworth,,41.35805,-72.56361,Vaccinium macrocarpum Aiton,USA,United States,USA.7_1,Connecticut,USA.7.4_1,Middlesex
1304451217,GBIF,CNH,aad868c6-f3d2-4bb4-b379-31db3cda2cf1,. Coordinates do not match to country in source data. Not found a country in reverser geocoding. Consortium of Northeastern Herbaria,1930-08-10T00:00:00,in marginal thicket.,US,Connecticut,Tolland,Mansfield,,41.78944,-72.26083,Vaccinium macrocarpum Aiton,USA,United States,USA.7_1,Connecticut,USA.7.7_1,Tolland
1304451216,GBIF,CNH,9f412d04-6a8a-40b1-a93e-f1e2e183d709,. Coordinates do not match to country in source data. Not found a country in reverser geocoding. Consortium of Northeastern Herbaria,1903-06-22T00:00:00,roadside,US,Connecticut,Tolland,Mansfield,,41.81416,-72.22166,Vaccinium macrocarpum Aiton,USA,United States,USA.7_1,Connecticut,USA.7.7_1,Tolland
1304451215,GBIF,CNH,14d5def6-e163-4a8f-ac96-df21fe9864ef,. Coordinates do not match to country in source data. Not found a country in reverser geocoding. Consortium of Northeastern Herbaria,1898-06-01T00:00:00,,US,Connecticut,Hartford,Windsor,,41.91805,-72.69305,Vaccinium macrocarpum Aiton,USA,United States,USA.7_1,Connecticut,USA.7.2_1,Hartford
1304451214,GBIF,CNH,1b6db513-5d58-47c8-8fe9-290a59b35dee,Point in the water. original: Point in the water. Consortium of Northeastern Herbaria,1908-08-30T00:00:00,dry sandy swamps,US,New York,Suffolk,Fishers Island,,41.27305,-71.98166,Vaccinium macrocarpum Aiton,USA,United States,USA.33_1,New York,USA.33.53_1,Suffolk
1304451213,GBIF,CNH,b9cc5f67-beb8-4ffe-88e2-01cb5af5cdd6,. Coordinates do not match to country in source data. Not found a country in reverser geocoding. Consortium of Northeastern Herbaria,1981-07-19T00:00:00,,US,Connecticut,Windham,Thompson,,42.02,-71.81805,Vaccinium macrocarpum Aiton,USA,United States,USA.7_1,Connecticut,USA.7.8_1,Windham
1304451212,GBIF,CNH,be671847-e5a2-48ac-a609-1edd002bf455,. Coordinates do not match to country in source data. Not found a country in reverser geocoding. Consortium of Northeastern Herbaria,1989-09-25T00:00:00,open marsh,US,Connecticut,Tolland,Tolland,,41.87138,-72.36861,Vaccinium macrocarpum Aiton,USA,United States,USA.7_1,Connecticut,USA.7.7_1,Tolland
1304451211,GBIF,CNH,2064617d-6854-496b-925d-fe6f81aad7dd,. Coordinates do not match to country in source data. Not found a country in reverser geocoding. Consortium of Northeastern Herbaria,1982-07-13T00:00:00,,US,Connecticut,New London,East Lyme,,41.35305,-72.23,Vaccinium macrocarpum Aiton,USA,United States,USA.7_1,Connecticut,USA.7.6_1,New London
1304451210,GBIF,CNH,bab33a98-aaed-4eeb-b0ba-66cf0e4a0b31,. Coordinates do not match to country in source data. Not found a country in reverser geocoding. Consortium of Northeastern Herbaria,2003-09-24T00:00:00,BOG,US,Connecticut,Tolland,Union,,42.01916,-72.13166,Vaccinium macrocarpum Aiton,USA,United States,USA.7_1,Connecticut,USA.7.7_1,Tolland
1304451209,GBIF,CNH,2fd50c3c-4789-4dcb-b201-3f603e3ce740,. Coordinates do not match to country in source data. Not found a country in reverser geocoding. Consortium of Northeastern Herbaria,1903-08-20T00:00:00,,US,Connecticut,Litchfield,Salisbury,,42.02027,-73.46638,Vaccinium macrocarpum Aiton,USA,United States,USA.7_1,Connecticut,USA.7.3_1,Litchfield
1304451208,GBIF,CNH,11735a1d-db93-47ce-b36d-b35d71879f22,. Coordinates do not match to country in source data. Not found a country in reverser geocoding. Consortium of Northeastern Herbaria,1914-08-05T00:00:00,Bog along roadside,US,Connecticut,Middlesex,East Hampton,,41.56805,-72.50611,Vaccinium macrocarpum Aiton,USA,United States,USA.7_1,Connecticut,USA.7.4_1,Middlesex
1304451207,GBIF,CNH,88bdfdb7-afda-4373-8dec-1dae49ea208c,. Coordinates do not match to country in source data. Not found a country in reverser geocoding. Consortium of Northeastern Herbaria,1992-07-14T00:00:00,Woods along outcrops of ledges at base of open face,US,Maine,Piscataquis,Kineo Township,,45.69972,-69.73444,Vaccinium macrocarpum Aiton,USA,United States,USA.20_1,Maine,USA.20.11_1,Piscataquis
1304451206,GBIF,CNH,bb5db37a-1414-479d-a62d-1d25bc0d1a87,. Coordinates do not match to country in source data. Not found a country in reverser geocoding. Consortium of Northeastern Herbaria,1994-09-02T00:00:00,,US,Connecticut,Windham,Thompson,,41.97176,-71.81006,Vaccinium macrocarpum Aiton,USA,United States,USA.7_1,Connecticut,USA.7.8_1,Windham
1304451205,GBIF,CNH,80e87986-06e5-4105-a423-04dfb849a245,. Coordinates do not match to country in source data. Not found a country in reverser geocoding. Consortium of Northeastern Herbaria,1981-08-29T00:00:00,,US,New Hampshire,Merrimack,Bradford,,43.24472,-71.91444,Vaccinium macrocarpum Aiton,USA,United States,USA.30_1,New Hampshire,USA.30.7_1,Merrimack
1304451204,GBIF,CNH,bc05a8da-27ec-47e7-a340-ecb930734337,. Coordinates do not match to country in source data. Not found a country in reverser geocoding. Consortium of Northeastern Herbaria,1983-07-16T00:00:00,,US,Connecticut,Windham,Thompson,,41.94277,-71.82944,Vaccinium macrocarpum Aiton,USA,United States,USA.7_1,Connecticut,USA.7.8_1,Windham
1304451203,GBIF,CNH,74a1d95d-9835-4e5c-9068-d8eb41ad3a4e,. Coordinates do not match to country in source data. Not found a country in reverser geocoding. Consortium of Northeastern Herbaria,1940-09-12T00:00:00,Sphagnum border of lake,US,Connecticut,Tolland,"Mansfield, Storrs",,41.80694,-72.24777,Vaccinium macrocarpum Aiton,USA,United States,USA.7_1,Connecticut,USA.7.7_1,Tolland
1304451202,GBIF,CNH,e2919d69-fdb6-4a0f-b727-ab8890960456,. Coordinates do not match to country in source data. Not found a country in reverser geocoding. Consortium of Northeastern Herbaria,1912-08-09T00:00:00,"Woods and pastures, east slope",US,Massachusetts,Berkshire,Adams,,42.6375,-73.16666,Vaccinium macrocarpum Aiton,USA,United States,USA.22_1,Massachusetts,USA.22.2_1,Berkshire
1304451201,GBIF,CNH,bd8d7eb7-8a45-4f42-b6d9-7c09a37eea81,. Coordinates do not match to country in source data. Not found a country in reverser geocoding. Consortium of Northeastern Herbaria,1893-09-18T00:00:00,among Sphagna in bog,US,Connecticut,New Haven,Milford,,41.22222,-73.05638,Vaccinium macrocarpum Aiton,USA,United States,USA.7_1,Connecticut,USA.7.5_1,New Haven
1304451200,GBIF,CNH,d65807cc-4cb3-43b1-8623-bd3b796b2038,. Coordinates do not match to country in source data. Not found a country in reverser geocoding. Consortium of Northeastern Herbaria,2008-10-09T00:00:00,Swamp along road.,US,New Hampshire,Cheshire,Nelson,,42.99055,-72.13083,Vaccinium macrocarpum Aiton,USA,United States,USA.30_1,New Hampshire,USA.30.3_1,Cheshire
1304451199,GBIF,CNH,e0084e2a-2ba8-495d-8304-ddceec149697,. Coordinates do not match to country in source data. Not found a country in reverser geocoding. Consortium of Northeastern Herbaria,1903-07-07T00:00:00,,US,Connecticut,Hartford,Simsbury,,41.86805,-72.77888,Vaccinium macrocarpum Aiton,USA,United States,USA.7_1,Connecticut,USA.7.2_1,Hartford
1304451198,GBIF,CNH,8bc3535d-de84-4986-88ba-6e5efc82af89,. Coordinates do not match to country in source data. Not found a country in reverser geocoding. Consortium of Northeastern Herbaria,1982-09-08T00:00:00,,US,Connecticut,Hartford,Granby,,41.98305,-72.79333,Vaccinium macrocarpum Aiton,USA,United States,USA.7_1,Connecticut,USA.7.2_1,Hartford
1304451197,GBIF,CNH,d32844e2-a423-4eeb-ae63-35559c6025f5,. Coordinates do not match to country in source data. Not found a country in reverser geocoding. Consortium of Northeastern Herbaria,1948-07-18T00:00:00,Sphagnous thickets at margin of Boggy swale,US,Connecticut,Middlesex,Killingworth,,41.35805,-72.56361,Vaccinium macrocarpum Aiton,USA,United States,USA.7_1,Connecticut,USA.7.4_1,Middlesex
1304451196,GBIF,CNH,bf3fd764-d082-456a-8a9a-78dc1129a7a2,. Coordinates do not match to country in source data. Not found a country in reverser geocoding. Consortium of Northeastern Herbaria,1941-07-06T00:00:00,,US,Connecticut,New Haven,New Haven,,41.30805,-72.92805,Vaccinium macrocarpum Aiton,USA,United States,USA.7_1,Connecticut,USA.7.5_1,New Haven
1304451195,GBIF,CNH,cb3a2570-3534-47cf-9b2e-c2b4ba6f7946,. Coordinates do not match to country in source data. Not found a country in reverser geocoding. Consortium of Northeastern Herbaria,1946-09-15T00:00:00,Boggy meadow,US,Connecticut,Windham,Scotland,,41.69833,-72.08138,Vaccinium macrocarpum Aiton,USA,United States,USA.7_1,Connecticut,USA.7.8_1,Windham
1304451194,GBIF,CNH,10f84b27-8faa-4b8e-851d-097d60ede061,. Coordinates do not match to country in source data. Not found a country in reverser geocoding. Consortium of Northeastern Herbaria,1893-07-04T00:00:00,,US,Connecticut,Middlesex,East Haddam,,41.46888,-72.46583,Vaccinium macrocarpum Aiton,USA,United States,USA.7_1,Connecticut,USA.7.4_1,Middlesex
1304451193,GBIF,CNH,588e3e10-8d1a-4dea-9640-6b097c226398,. Coordinates do not match to country in source data. Not found a country in reverser geocoding. Consortium of Northeastern Herbaria,1954-07-15T00:00:00,Moist but not boggy area along Rt. 44A,US,Connecticut,Tolland,Coventry,,41.78444,-72.33944,Vaccinium macrocarpum Aiton,USA,United States,USA.7_1,Connecticut,USA.7.7_1,Tolland
1304451192,GBIF,CNH,aff31082-6430-4143-aa6b-d87a3797be34,. Coordinates do not match to country in source data. Not found a country in reverser geocoding. Consortium of Northeastern Herbaria,1929-07-03T00:00:00,In sphagnum,US,Connecticut,New Haven,Bethany,,41.42555,-72.99305,Vaccinium macrocarpum Aiton,USA,United States,USA.7_1,Connecticut,USA.7.5_1,New Haven
1304451191,GBIF,CNH,5337c6ec-6038-4b6e-a3c3-bfeef8f497e1,. Coordinates do not match to country in source data. Not found a country in reverser geocoding. Consortium of Northeastern Herbaria,1992-10-05T00:00:00,open sphagnous bog dissected by town line,US,Connecticut,Litchfield,Torrington,,41.80055,-73.12111,Vaccinium macrocarpum Aiton,USA,United States,USA.7_1,Connecticut,USA.7.3_1,Litchfield
1304451190,GBIF,CNH,fecff024-40e7-4be1-be1c-25a7e312eefc,. Coordinates do not match to country in source data. Not found a country in reverser geocoding. original: Coordinates not found to compare the country. Consortium of Northeastern Herbaria,1935-06-11T00:00:00,,US,Connecticut,Middlesex,Westbrook,,41.26833,-72.4725,Vaccinium macrocarpum Aiton,,,,,,
1304451189,GBIF,CNH,5bb8f43f-d359-42ef-bb54-b9b3079b2411,. Coordinates do not match to country in source data. Not found a country in reverser geocoding. Consortium of Northeastern Herbaria,1893-07-04T00:00:00,,US,Connecticut,Middlesex,East Haddam,,41.46888,-72.46583,Vaccinium macrocarpum Aiton,USA,United States,USA.7_1,Connecticut,USA.7.4_1,Middlesex
1304451188,GBIF,CNH,22b526d5-b5e7-4d00-8ab9-207ea4650b41,. Coordinates do not match to country in source data. Not found a country in reverser geocoding. Consortium of Northeastern Herbaria,1932-07-28T00:00:00,Bog,US,Connecticut,New London,"Groton, Trails Corner",,41.34138,-72.05777,Vaccinium macrocarpum Aiton,USA,United States,USA.7_1,Connecticut,USA.7.6_1,New London
1304451187,GBIF,CNH,2ee8bd1b-68f9-44a5-9162-940790f41b29,. Coordinates do not match to country in source data. Not found a country in reverser geocoding. Consortium of Northeastern Herbaria,1981-10-10T00:00:00,,US,Massachusetts,Barnstable,Wellfleet,,41.95149,-69.99585,Vaccinium macrocarpum Aiton,USA,United States,USA.22_1,Massachusetts,USA.22.1_1,Barnstable
1304451185,GBIF,CNH,7ad916a4-a765-45ab-99bd-a0ae45bae4b5,. Coordinates do not match to country in source data. Not found a country in reverser geocoding. Consortium of Northeastern Herbaria,1990-08-14T00:00:00,open swamp,US,Connecticut,Litchfield,Salisbury,,42.01666,-73.39583,Vaccinium macrocarpum Aiton,USA,United States,USA.7_1,Connecticut,USA.7.3_1,Litchfield
1304451184,GBIF,CNH,8737cd0e-de53-4428-8722-5c0ab1c9707d,. Coordinates do not match to country in source data. Not found a country in reverser geocoding. Consortium of Northeastern Herbaria,1897-06-11T00:00:00,,US,Maine,Hancock,Lamoine,,44.49111,-68.31916,Vaccinium macrocarpum Aiton,USA,United States,USA.20_1,Maine,USA.20.5_1,Hancock
1304451183,GBIF,CNH,d3974a06-37c9-4619-85cf-54db4e307ead,. Coordinates do not match to country in source data. Not found a country in reverser geocoding. Consortium of Northeastern Herbaria,1904-07-30T00:00:00,,US,Connecticut,Litchfield,Salisbury,,42.02027,-73.46638,Vaccinium macrocarpum Aiton,USA,United States,USA.7_1,Connecticut,USA.7.3_1,Litchfield
1304451181,GBIF,CNH,cebbb854-a022-4e47-abba-87ade3f7effa,. Coordinates do not match to country in source data. Not found a country in reverser geocoding. Consortium of Northeastern Herbaria,1895-07-08T00:00:00,,US,Connecticut,Middlesex,East Haddam,,41.46888,-72.46583,Vaccinium macrocarpum Aiton,USA,United States,USA.7_1,Connecticut,USA.7.4_1,Middlesex
1304451180,GBIF,CNH,0817c214-5d5c-45ef-8539-b2232f807e0f,. Coordinates do not match to country in source data. Not found a country in reverser geocoding. Consortium of Northeastern Herbaria,1893-09-18T00:00:00,dry roadside bank: open,US,Connecticut,New Haven,Milford,,41.22222,-73.05638,Vaccinium macrocarpum Aiton,USA,United States,USA.7_1,Connecticut,USA.7.5_1,New Haven
1304451179,GBIF,CNH,5fac6856-1916-480d-96ef-a5b6513e3231,. Coordinates do not match to country in source data. Not found a country in reverser geocoding. Consortium of Northeastern Herbaria,1982-08-17T00:00:00,,US,Connecticut,Hartford,South Windsor,,41.82361,-72.62111,Vaccinium macrocarpum Aiton,USA,United States,USA.7_1,Connecticut,USA.7.2_1,Hartford
1304451178,GBIF,CNH,9ac16cf1-3641-412f-b282-4f92f0844306,. Coordinates do not match to country in source data. Not found a country in reverser geocoding. Consortium of Northeastern Herbaria,1992-10-08T00:00:00,Abandoned cranberry bog,US,Connecticut,Middlesex,Portland,,41.59916,-72.59111,Vaccinium macrocarpum Aiton,USA,United States,USA.7_1,Connecticut,USA.7.4_1,Middlesex
1304451177,GBIF,CNH,c6b96e4f-0445-4ab0-bbbf-06a4c2952bec,. Coordinates do not match to country in source data. Not found a country in reverser geocoding. Consortium of Northeastern Herbaria,1982-07-12T00:00:00,occasional on N.W mat near edge,US,New Hampshire,Hillsborough,Hillsborough,,43.14277,-71.90666,Vaccinium macrocarpum Aiton,USA,United States,USA.30_1,New Hampshire,USA.30.6_1,Hillsborough
1304451176,GBIF,CNH,9dde0cab-562e-4add-bd58-0bfcc5d733be,. Coordinates do not match to country in source data. Not found a country in reverser geocoding. Consortium of Northeastern Herbaria,1936-08-13T00:00:00,margin of woods,US,Maine,Waldo,Lincolnville,,44.25305,-69.10305,Vaccinium macrocarpum Aiton,USA,United States,USA.20_1,Maine,USA.20.7_1,Knox
1304451175,GBIF,CNH,537f8b8e-3cc4-4ef1-a0af-5b1920a7f790,. Coordinates do not match to country in source data. Not found a country in reverser geocoding. Consortium of Northeastern Herbaria,1990-07-19T00:00:00,medium fen at shrubby end,US,Connecticut,New London,Colchester,,41.53194,-72.38527,Vaccinium macrocarpum Aiton,USA,United States,USA.7_1,Connecticut,USA.7.6_1,New London
1304451174,GBIF,CNH,13c5d0fb-c6dc-441a-bb1d-93ec7bc4ec3e,. Coordinates do not match to country in source data. Not found a country in reverser geocoding. Consortium of Northeastern Herbaria,1988-08-16T00:00:00,Bog,US,Connecticut,Windham,"Windham, Willimantic",,41.71055,-72.20861,Vaccinium macrocarpum Aiton,USA,United States,USA.7_1,Connecticut,USA.7.8_1,Windham
1304451173,GBIF,CNH,0eaaa321-3344-49b3-9117-bcd3bffa3bb7,. Coordinates do not match to country in source data. Not found a country in reverser geocoding. Consortium of Northeastern Herbaria,1903-07-07T00:00:00,,US,Connecticut,Hartford,Simsbury,,41.86805,-72.77888,Vaccinium macrocarpum Aiton,USA,United States,USA.7_1,Connecticut,USA.7.2_1,Hartford
1304451172,GBIF,CNH,1038fc4a-0a64-414d-a2ce-51307ece63db,. Coordinates do not match to country in source data. Not found a country in reverser geocoding. Consortium of Northeastern Herbaria,1956-07-14T00:00:00,wet swamp with sphagnum,US,Massachusetts,Franklin,Deerfield,,42.49861,-72.58138,Vaccinium macrocarpum Aiton,USA,United States,USA.22_1,Massachusetts,USA.22.6_1,Franklin
1304451171,GBIF,CNH,c1da0eea-e1da-4fc9-8a51-e1ea64c3e3ca,. Coordinates do not match to country in source data. Not found a country in reverser geocoding. Consortium of Northeastern Herbaria,1990-06-28T00:00:00,Pond edge,US,Connecticut,New London,Colchester,,41.53944,-72.39694,Vaccinium macrocarpum Aiton,USA,United States,USA.7_1,Connecticut,USA.7.6_1,New London
1304451170,GBIF,CNH,eccc8bb5-b157-4974-8979-ef5d6f69cf1d,. Coordinates do not match to country in source data. Not found a country in reverser geocoding. original: Coordinates not found to compare the country. georef: Coordinates not found to compare the country. Consortium of Northeastern Herbaria,1920-08-09T00:00:00,,US,New Jersey,Ocean,"Dover, Toms River",,39.9375,-74.11111,Vaccinium macrocarpum Aiton,,,,,,
1304451169,GBIF,CNH,c21e13cf-6ac2-4701-bb27-c05d87a2cfd6,. Coordinates do not match to country in source data. Not found a country in reverser geocoding. Consortium of Northeastern Herbaria,1991-06-28T00:00:00,Sphagnum bog,US,Connecticut,Middlesex,East Haddam,,41.52111,-72.32972,Vaccinium macrocarpum Aiton,USA,United States,USA.7_1,Connecticut,USA.7.4_1,Middlesex
1304451168,GBIF,CNH,7329aa73-5f0c-44be-8031-3c3e52647269,. Coordinates do not match to country in source data. Not found a country in reverser geocoding. Consortium of Northeastern Herbaria,1974-08-18T00:00:00,,US,Connecticut,Middlesex,East Haddam,,41.52111,-72.32972,Vaccinium macrocarpum Aiton,USA,United States,USA.7_1,Connecticut,USA.7.4_1,Middlesex
1304451166,GBIF,CNH,fc2f4579-9e39-4faa-8593-2bd5c123853e,. Coordinates do not match to country in source data. Not found a country in reverser geocoding. Consortium of Northeastern Herbaria,1891-08-20T00:00:00,,US,Connecticut,Fairfield,Stratford,,41.18444,-73.13305,Vaccinium macrocarpum Aiton,USA,United States,USA.7_1,Connecticut,USA.7.1_1,Fairfield
1304451165,GBIF,CNH,f5c90af6-4f5c-48bc-ac8d-163f964fc358,. Coordinates do not match to country in source data. Not found a country in reverser geocoding. Consortium of Northeastern Herbaria,1902-07-04T00:00:00,Moist grounds about the lake,US,Connecticut,Tolland,Bolton,,41.79055,-72.44277,Vaccinium macrocarpum Aiton,USA,United States,USA.7_1,Connecticut,USA.7.7_1,Tolland
1304451164,GBIF,CNH,cd6abc7b-7bec-43d3-98b5-a616578c5c08,. Coordinates do not match to country in source data. Not found a country in reverser geocoding. Consortium of Northeastern Herbaria,1978-07-24T00:00:00,bog,US,Connecticut,New London,Groton,,41.34583,-72.02972,Vaccinium macrocarpum Aiton,USA,United States,USA.7_1,Connecticut,USA.7.6_1,New London
1304451163,GBIF,CNH,087e5355-cf6e-470e-ab7e-eef5769f995b,. Coordinates do not match to country in source data. Not found a country in reverser geocoding. Consortium of Northeastern Herbaria,1948-07-18T00:00:00,in a bog,US,Connecticut,Middlesex,Killingworth,,41.35805,-72.56361,Vaccinium macrocarpum Aiton,USA,United States,USA.7_1,Connecticut,USA.7.4_1,Middlesex
1304451162,GBIF,CNH,5c891091-928a-4c6f-a19d-1c54580ec5c2,. Coordinates do not match to country in source data. Not found a country in reverser geocoding. Consortium of Northeastern Herbaria,1928-06-12T00:00:00,Sphagnum swamp,US,Connecticut,New London,"Groton, Trails Corner",,41.34138,-72.05777,Vaccinium macrocarpum Aiton,USA,United States,USA.7_1,Connecticut,USA.7.6_1,New London
1304451161,GBIF,CNH,33c75a97-cb7d-4d85-bac9-dc272169ce74,. Coordinates do not match to country in source data. Not found a country in reverser geocoding. Consortium of Northeastern Herbaria,1916-08-19T00:00:00,,US,Rhode Island,Kent,Brush Neck,,41.69138,-71.41083,Vaccinium macrocarpum Aiton,USA,United States,USA.40_1,Rhode Island,USA.40.2_1,Kent
1304451159,GBIF,CNH,e42a33f7-a7ca-4cd8-9912-7a8a07af17d5,. Coordinates do not match to country in source data. Not found a country in reverser geocoding. Consortium of Northeastern Herbaria,1991-07-23T00:00:00,sphagum mat of small bog,US,Maine,Franklin,"Phillips, Madrid Junction",,44.86972,-70.40027,Vaccinium macrocarpum Aiton,USA,United States,USA.20_1,Maine,USA.20.4_1,Franklin
1304451158,GBIF,CNH,620933b7-c832-425f-a539-f41bafc5e028,. Coordinates do not match to country in source data. Not found a country in reverser geocoding. Consortium of Northeastern Herbaria,1936-08-13T00:00:00,Margin of woods bordering lake,US,Maine,Waldo,Lincolnville,,44.25305,-69.10305,Vaccinium macrocarpum Aiton,USA,United States,USA.20_1,Maine,USA.20.7_1,Knox
1304451157,GBIF,CNH,08fce9e5-dcf6-467e-bcc1-1e505b6c642a,. Coordinates do not match to country in source data. Not found a country in reverser geocoding. Consortium of Northeastern Herbaria,1903-05-11T00:00:00,In a dense colony on bank of pond,US,Connecticut,Litchfield,Kent,,41.72472,-73.41722,Vaccinium macrocarpum Aiton,USA,United States,USA.7_1,Connecticut,USA.7.3_1,Litchfield
1304451155,GBIF,CNH,a9750753-c07b-44bc-9d9b-3fa1035e5db6,Point in the water. original: Point in the water. Consortium of Northeastern Herbaria,1936-06-18T00:00:00,bog,US,New York,Suffolk,East Hampton,,41.03583,-71.955,Vaccinium macrocarpum Aiton,USA,United States,USA.33_1,New York,USA.33.53_1,Suffolk
1304451154,GBIF,CNH,2688b2d0-f765-4ed0-ae9d-a9c3b76d1198,. Coordinates do not match to country in source data. Not found a country in reverser geocoding. Consortium of Northeastern Herbaria,1955-07-10T00:00:00,,US,Connecticut,Litchfield,Norfolk,,41.96888,-73.16222,Vaccinium macrocarpum Aiton,USA,United States,USA.7_1,Connecticut,USA.7.3_1,Litchfield
1304451152,GBIF,CNH,708886d3-26ac-49c9-b5dd-2ee75d4e4c00,. Coordinates do not match to country in source data. Not found a country in reverser geocoding. Consortium of Northeastern Herbaria,1931-09-20T00:00:00,Wet depressed sandy waste on coast,US,Connecticut,New Haven,Milford,,41.22222,-73.05638,Vaccinium macrocarpum Aiton,USA,United States,USA.7_1,Connecticut,USA.7.5_1,New Haven
1304451150,GBIF,CNH,ee0f7f0f-e0ca-4af5-a9bc-c7fb9092a3c7,. Coordinates do not match to country in source data. Not found a country in reverser geocoding. Consortium of Northeastern Herbaria,1982-06-25T00:00:00,Sphagun mat,US,New Hampshire,Hillsborough,Hillsborough,,43.13944,-71.89805,Vaccinium macrocarpum Aiton,USA,United States,USA.30_1,New Hampshire,USA.30.6_1,Hillsborough
1304451149,GBIF,CNH,d53fa031-0102-46d8-b1c5-2a54880efb3c,. Coordinates do not match to country in source data. Not found a country in reverser geocoding. Consortium of Northeastern Herbaria,1962-08-31T00:00:00,Natural cranberry bog,US,Massachusetts,Nantucket,"Nantucket, Polpis",,41.29833,-70.01277,Vaccinium macrocarpum Aiton,USA,United States,USA.22_1,Massachusetts,USA.22.10_1,Nantucket
1304451148,GBIF,CNH,9ff861f6-0e79-4261-96fa-0f88497b65ca,. Coordinates do not match to country in source data. Not found a country in reverser geocoding. Consortium of Northeastern Herbaria,1974-06-23T00:00:00,,US,Connecticut,New Haven,Bethany,,41.44638,-72.99611,Vaccinium macrocarpum Aiton,USA,United States,USA.7_1,Connecticut,USA.7.5_1,New Haven
1304451146,GBIF,CNH,9768e1e4-3997-4b1a-b136-25c617b6249d,. Coordinates do not match to country in source data. Not found a country in reverser geocoding. Consortium of Northeastern Herbaria,1940-08-14T00:00:00,Open larch bog,US,Pennsylvania,Clinton,Tamarack,,41.42444,-77.84833,Vaccinium macrocarpum Aiton,USA,United States,USA.39_1,Pennsylvania,USA.39.18_1,Clinton
1304451145,GBIF,CNH,f2e59522-a199-44e4-85dd-e4f1ccbe099b,Point in the water. original: Point in the water. Consortium of Northeastern Herbaria,1905-06-27T00:00:00,peat swamps,US,New York,Suffolk,Southold,,41.27305,-71.98222,Vaccinium macrocarpum Aiton,USA,United States,USA.33_1,New York,USA.33.53_1,Suffolk
1304451143,GBIF,CNH,84b6a944-471f-4724-ba49-e0a1ec1670bb,. Coordinates do not match to country in source data. Not found a country in reverser geocoding. Consortium of Northeastern Herbaria,1965-09-26T00:00:00,Floating bog mat,US,New Hampshire,Belknap,Sanbornton,,43.555,-71.61,Vaccinium macrocarpum Aiton,USA,United States,USA.30_1,New Hampshire,USA.30.1_1,Belknap
1304451142,GBIF,CNH,29e72ce9-bc55-424f-b800-8ba33dc901d1,. Coordinates do not match to country in source data. Not found a country in reverser geocoding. Consortium of Northeastern Herbaria,1905-08-19T00:00:00,Swamps,US,Pennsylvania,Crawford,Linesville,,41.65616,-80.42395,Vaccinium macrocarpum Aiton,USA,United States,USA.39_1,Pennsylvania,USA.39.20_1,Crawford
1304451140,GBIF,CNH,e7136db3-c07d-4bde-8e49-4e855fa73732,. Coordinates do not match to country in source data. Not found a country in reverser geocoding. Consortium of Northeastern Herbaria,1988-10-22T00:00:00,marshy ground in brush,US,Connecticut,Tolland,Tolland,,41.87138,-72.36861,Vaccinium macrocarpum Aiton,USA,United States,USA.7_1,Connecticut,USA.7.7_1,Tolland
1304451138,GBIF,CNH,91ea369b-27be-46d8-a400-7cba3df81311,Point in the water. original: Point in the water. Consortium of Northeastern Herbaria,1967-08-24T00:00:00,marsh,US,New York,Suffolk,Sayville,,40.65555,-73.11333,Vaccinium macrocarpum Aiton,USA,United States,USA.33_1,New York,USA.33.53_1,Suffolk
1304451137,GBIF,CNH,b54bd263-527a-47cb-b142-45c755380bd1,. Coordinates do not match to country in source data. Not found a country in reverser geocoding. Consortium of Northeastern Herbaria,1978-07-22T00:00:00,,US,Massachusetts,Barnstable,South Dennis,,41.72333,-70.16638,Vaccinium macrocarpum Aiton,USA,United States,USA.22_1,Massachusetts,USA.22.1_1,Barnstable
1304451136,GBIF,CNH,d9fd7558-ebe3-485a-a09d-b48bb50e1f98,. Coordinates do not match to country in source data. Not found a country in reverser geocoding. Consortium of Northeastern Herbaria,1923-07-05T00:00:00,Open meadow,US,Connecticut,New London,Ledyard,,41.43972,-72.01555,Vaccinium macrocarpum Aiton,USA,United States,USA.7_1,Connecticut,USA.7.6_1,New London
1304451134,GBIF,CNH,43cc29f5-2bf1-4e3c-9170-8ee37c8cbbf5,. Coordinates do not match to country in source data. Not found a country in reverser geocoding. Consortium of Northeastern Herbaria,1945-09-13T00:00:00,,US,Massachusetts,Barnstable,Falmouth,,41.60416,-70.635,Vaccinium macrocarpum Aiton,USA,United States,USA.22_1,Massachusetts,USA.22.1_1,Barnstable
1304451130,GBIF,CNH,d290846a-af0c-4648-861a-827546baa940,. Coordinates do not match to country in source data. Not found a country in reverser geocoding. Consortium of Northeastern Herbaria,1948-09-11T00:00:00,Boggy sphagnous shore,US,Rhode Island,Washington,Exeter,,41.59805,-71.78361,Vaccinium macrocarpum Aiton,USA,United States,USA.40_1,Rhode Island,USA.40.5_1,Washington
1304451129,GBIF,CNH,90947505-02c4-4a43-9d6a-a8114fe06cab,. Coordinates do not match to country in source data. Not found a country in reverser geocoding. Consortium of Northeastern Herbaria,1893-06-28T00:00:00,Sphagnicolous,US,Connecticut,Fairfield,Stratford,,41.18444,-73.13305,Vaccinium macrocarpum Aiton,USA,United States,USA.7_1,Connecticut,USA.7.1_1,Fairfield
1304451127,GBIF,CNH,c7d0bda1-51a3-4cdc-847a-dbd3f5b829ac,Point in the water. original: Point in the water. Consortium of Northeastern Herbaria,1967-08-21T00:00:00,swale,US,New York,Suffolk,Sayville,,40.65555,-73.11333,Vaccinium macrocarpum Aiton,USA,United States,USA.33_1,New York,USA.33.53_1,Suffolk
1304451123,GBIF,CNH,d3168b08-ccc1-41bf-b7bb-4cc9f4fb68a4,. Coordinates do not match to country in source data. Not found a country in reverser geocoding. Consortium of Northeastern Herbaria,1946-09-15T00:00:00,,US,Connecticut,Windham,Scotland,,41.69833,-72.08138,Vaccinium macrocarpum Aiton,USA,United States,USA.7_1,Connecticut,USA.7.8_1,Windham
1304451116,GBIF,CNH,73cf488a-eb27-43db-b6a1-0d4006d60b8b,. Coordinates do not match to country in source data. Not found a country in reverser geocoding. Consortium of Northeastern Herbaria,1974-08-27T00:00:00,Forming a dense mat in open bog.,US,New Jersey,Burlington,,,39.71611,-74.79777,Vaccinium macrocarpum Aiton,USA,United States,USA.31_1,New Jersey,USA.31.4_1,Camden
1304451110,GBIF,CNH,d0025abb-6563-4e4a-a4e3-e1f9cb655e1b,. Coordinates do not match to country in source data. Not found a country in reverser geocoding. Consortium of Northeastern Herbaria,1974-08-27T00:00:00,Growing on mat of Sphagnum sp.,US,New Jersey,Burlington,,,39.71611,-74.79777,Vaccinium macrocarpum Aiton,USA,United States,USA.31_1,New Jersey,USA.31.4_1,Camden
1304451106,GBIF,CNH,60f9929e-451e-4366-b90d-0d99584e5004,. Coordinates do not match to country in source data. Not found a country in reverser geocoding. Consortium of Northeastern Herbaria,1983-08-15T00:00:00,,US,Massachusetts,Barnstable,Barnstable,,41.68,-70.28333,Vaccinium macrocarpum Aiton,USA,United States,USA.22_1,Massachusetts,USA.22.1_1,Barnstable
1304451104,GBIF,CNH,706339b9-3c73-41ab-9a27-89e2fe2243ec,. Coordinates do not match to country in source data. Not found a country in reverser geocoding. Consortium of Northeastern Herbaria,1972-07-20T00:00:00,sphagnous bog,US,New York,Suffolk,,,40.66777,-73.05472,Vaccinium macrocarpum Aiton,USA,United States,USA.33_1,New York,USA.33.53_1,Suffolk
1304451091,GBIF,CNH,21e8632b-ffa0-4c83-bbd1-a971c6ede814,. Coordinates do not match to country in source data. Not found a country in reverser geocoding. Consortium of Northeastern Herbaria,1916-09-16T00:00:00,Shore of pond,US,Massachusetts,Barnstable,Dennis,,41.71666,-70.16194,Vaccinium macrocarpum Aiton,USA,United States,USA.22_1,Massachusetts,USA.22.1_1,Barnstable
1304451083,GBIF,CNH,14ffa256-e313-4c92-b585-9d220d33957d,. Coordinates do not match to country in source data. Not found a country in reverser geocoding. Consortium of Northeastern Herbaria,1873-01-01T00:00:00,,US,Maine,Somerset,Moose River,,45.65277,-70.26611,Vaccinium macrocarpum Aiton,USA,United States,USA.20_1,Maine,USA.20.13_1,Somerset
1304448097,GBIF,MOR,7b704c36-7f64-4307-a302-c0a8a537b851,. Coordinates do not match to country in source data. Not found a country in reverser geocoding. Morton Arboretum,1987-03-28T00:00:00,,US,Illinois,Cook,,"Zander''s Woods Nature Preserve, ca. 200 ft S of Thornton-Lansing Road and ca. 400 ft W of Hwy 394 at S end of wet depression.",41.56806,-87.60806,Vaccinium macrocarpum Aiton,USA,United States,USA.14_1,Illinois,USA.14.16_1,Cook
1304448072,GBIF,MOR,17712ba9-b9d1-4e45-8685-cd3bd520e201,. Coordinates do not match to country in source data. Not found a country in reverser geocoding. Morton Arboretum,1985-06-17T00:00:00,,US,Indiana,Porter,,"About 1.5 miles west of Valparaiso, north of Joliet Road, in wet ground around Hatch Lake.",41.473056,-87.090119,Vaccinium macrocarpum Aiton,USA,United States,USA.15_1,Indiana,USA.15.65_1,Porter
1304448061,GBIF,MOR,45286f55-1177-466d-b53d-8dfff2113776,. Coordinates do not match to country in source data. Not found a country in reverser geocoding. Morton Arboretum,1985-05-28T00:00:00,,US,Indiana,LaPorte,,"North of Pinhook near Durham, east of Wozniak Road, in Woodwardia/Chamaedaphne bog south of 50 South Road, just west of 700 West Road.",41.59222,-86.8375,Vaccinium macrocarpum Aiton,USA,United States,USA.15_1,Indiana,USA.15.47_1,LaPorte
1304448060,GBIF,MOR,fdbca30b-9f38-40bb-ade6-92be34474cb7,. Coordinates do not match to country in source data. Not found a country in reverser geocoding. Morton Arboretum,1984-07-31T00:00:00,,US,Illinois,McHenry,,"Northwest of Ringwood, on the Glacial Park County Conservation Area.",42.39222,-88.29694,Vaccinium macrocarpum Aiton,USA,United States,USA.14_1,Illinois,USA.14.64_1,McHenry
1304448058,GBIF,MOR,5e69b7f7-5e4a-4877-b7ec-734f15166dba,. Coordinates do not match to country in source data. Not found a country in reverser geocoding. Morton Arboretum,2004-06-27T00:00:00,,US,Wisconsin,Walworth,,"Just north of East Troy at Beulah Bog Nature Preserve, in zone of boggy margin between larches and inner shoreline.",42.78528,-88.405,Vaccinium macrocarpum Aiton,USA,United States,USA.50_1,Wisconsin,USA.50.67_1,Walworth
1304448055,GBIF,MOR,5683e0a7-dbbc-4575-af32-d716c9f80926,. Coordinates do not match to country in source data. Not found a country in reverser geocoding. Morton Arboretum,1950-10-01T00:00:00,,US,Michigan,Berrien,,Near Benton Harbor,42.11667,-86.45417,Vaccinium macrocarpum Aiton,USA,United States,USA.23_1,Michigan,USA.23.11_1,Berrien
1304448052,GBIF,MOR,0fe4b460-3bd2-4998-ad64-c6f8a77551f9,. Coordinates do not match to country in source data. Not found a country in reverser geocoding. Morton Arboretum,1982-10-05T00:00:00,,US,Indiana,LaPorte,,"Recolonizing salt impacted area, PB-90, a transect in Pinhook Bog; in saturated peat.",41.615,-86.84833,Vaccinium macrocarpum Aiton,USA,United States,USA.15_1,Indiana,USA.15.47_1,LaPorte
1304448049,GBIF,MOR,336538ba-ecf1-4a7b-869d-50029a4aaf83,. Coordinates do not match to country in source data. Not found a country in reverser geocoding. Morton Arboretum,1985-06-17T00:00:00,,US,Indiana,Porter,,"About 1.5 miles west of Valparaiso, north of Joliet Road, in wet ground around Hatch Lake.",41.473056,-87.090119,Vaccinium macrocarpum Aiton,USA,United States,USA.15_1,Indiana,USA.15.65_1,Porter
1304448046,GBIF,MOR,53e50974-c01e-4b08-88e8-1939da7235a0,. Coordinates do not match to country in source data. Not found a country in reverser geocoding. Morton Arboretum,1984-07-03T00:00:00,Bog,US,Indiana,LaPorte,,"Indiana Dunes National Lakeshore, Pinhook Bog",41.615,-86.84833,Vaccinium macrocarpum Aiton,USA,United States,USA.15_1,Indiana,USA.15.47_1,LaPorte
1304448045,GBIF,MOR,5ac70ec8-0c2e-466c-92df-c5ebd4f3f1ab,. Coordinates do not match to country in source data. Not found a country in reverser geocoding. Morton Arboretum,1984-07-16T00:00:00,,US,Indiana,LaPorte,,"Pinhook Bog, Indiana Dunes National Lakeshore, E side of Wozniak Rd., approx. 8 mi S of Michigan City.",41.591583,-86.895,Vaccinium macrocarpum Aiton,USA,United States,USA.15_1,Indiana,USA.15.47_1,LaPorte
1304448039,GBIF,MOR,164140c7-14c7-4cdb-9f10-8ed8d945634d,. Coordinates do not match to country in source data. Not found a country in reverser geocoding. Morton Arboretum,1991-09-21T00:00:00,,US,Indiana,St. Joseph,,"In a boggy marsh discovered by Keith Board, S of a railroad, E of a savanna, 0.4 mi W of Mayflower Rd., just W of Butternut Rd., NW of South Bend.",41.68333,-86.257761,Vaccinium macrocarpum Aiton,USA,United States,USA.15_1,Indiana,USA.15.72_1,Saint Joseph
1304448038,GBIF,MOR,8bffe0c6-5d0b-412d-b5a9-a8d810d3ca76,. Coordinates do not match to country in source data. Not found a country in reverser geocoding. Morton Arboretum,1971-06-20T00:00:00,,US,Michigan,Berrien,,"In acid bog, Mud Lake, W of Buchanan. (Buchanan Twp)",41.82722,-86.36111,Vaccinium macrocarpum Aiton,USA,United States,USA.23_1,Michigan,USA.23.11_1,Berrien
1304448025,GBIF,MOR,fa47bf27-62cf-45d3-8199-d95ce362720e,. Coordinates do not match to country in source data. Not found a country in reverser geocoding. Morton Arboretum,1984-08-30T00:00:00,,US,Michigan,Berrien,,Near Buchanan at the Mud Lake bog.,41.82722,-86.36111,Vaccinium macrocarpum Aiton,USA,United States,USA.23_1,Michigan,USA.23.11_1,Berrien
1304448024,GBIF,MOR,b40edf77-ffcf-4c99-8743-a190cca1ae22,. Coordinates do not match to country in source data. Not found a country in reverser geocoding. Morton Arboretum,1983-11-17T00:00:00,,US,Illinois,Cook,,"Zander''s Woods Nature Preserve, 200 ft S of Thornton-Lansing Road and 400 ft W of Hwy 394, in wet depression. Several hundred stems in an area 10 x 3 ft.",41.56806,-87.60806,Vaccinium macrocarpum Aiton,USA,United States,USA.14_1,Illinois,USA.14.16_1,Cook
1304448016,GBIF,MOR,6eca5974-2fdc-45f0-8220-53280585801a,. Coordinates do not match to country in source data. Not found a country in reverser geocoding. Morton Arboretum,1988-07-29T00:00:00,,US,Illinois,Lake,,"Cedar Lake bog, Lake Valk.",42.42222,-88.08972,Vaccinium macrocarpum Aiton,USA,United States,USA.14_1,Illinois,USA.14.50_1,Lake
1304447995,GBIF,MOR,29a1393f-c3ac-4df2-bc02-8d99c844595a,. Coordinates do not match to country in source data. Not found a country in reverser geocoding. Morton Arboretum,1946-06-30T00:00:00,,US,Indiana,Lake,,"Gary, IL. Tolleston swamp.",41.59306,-87.36611,Vaccinium macrocarpum Aiton,USA,United States,USA.15_1,Indiana,USA.15.45_1,Lake
1304444893,GBIF,OSC,716d3471-b85c-46bf-8bda-2abba5deaed8,. Coordinates do not match to country in source data. Not found a country in reverser geocoding. Oregon State University Herbarium,2008-07-20T00:00:00,Open shrub community in deflation plain.,US,Oregon,Coos,,"Unaccessioned specimen: Brainerd, R. #765",43.4305,-124.2818,Vaccinium macrocarpum Aiton,USA,United States,USA.38_1,Oregon,USA.38.6_1,Coos
1304444831,GBIF,OSC,db594ade-91dc-4e83-bb0c-6bc84b06fe18,. Coordinates do not match to country in source data. Not found a country in reverser geocoding. Oregon State University Herbarium,1997-06-20T00:00:00,,US,Oregon,Coos,,Croft Lake Bog,42.9833,-124.4667,Vaccinium macrocarpum Aiton,USA,United States,USA.38_1,Oregon,USA.38.6_1,Coos
1304444830,GBIF,OSC,2801904d-f7c0-4f7a-94b8-688f6e69e157,. Coordinates do not match to country in source data. Not found a country in reverser geocoding. Oregon State University Herbarium,2006-07-20T00:00:00,"in Darlingtonia fen with peaty soil, with cushions of moss dissected by small channels cut down to the sandy substrate and draining into a marsh dominated by tall Scirpus.",US,Oregon,Coos,,Croft Lake Bog.,42.9861,-124.4531,Vaccinium macrocarpum Aiton,USA,United States,USA.38_1,Oregon,USA.38.6_1,Coos
1304444826,GBIF,OSC,a83e5afb-b31d-4834-b94e-2276f212949e,. Coordinates do not match to country in source data. Not found a country in reverser geocoding. Oregon State University Herbarium,2008-11-02T00:00:00,"Border of fresh water marsh, with Carex obnupta, Triglochin.",US,Oregon,Coos,,Near mouth of New River.,43,-124.4567,Vaccinium macrocarpum Aiton,USA,United States,USA.38_1,Oregon,USA.38.6_1,Coos
1304444825,GBIF,OSC,69b1fdee-29f5-488c-abb8-6727879227eb,. Coordinates do not match to country in source data. Not found a country in reverser geocoding. Oregon State University Herbarium,1997-01-01T00:00:00,,US,Oregon,Coos,,Lost Lake,43.022,-124.4296,Vaccinium macrocarpum Aiton,USA,United States,USA.38_1,Oregon,USA.38.6_1,Coos
1304444824,GBIF,OSC,b1547442-05dd-459a-a12b-4f6f00fce18a,. Coordinates do not match to country in source data. Not found a country in reverser geocoding. Oregon State University Herbarium,2010-06-14T00:00:00,,US,Oregon,Coos,,"Croft Lake Lane, 1.6 mi. west of junction with Highway 101, ca. 11 mi. south of Bandon, in cultivation; 12m; 42.9916&#176; N -124.44801&#176; W",42.9916,-124.448,Vaccinium macrocarpum Aiton,USA,United States,USA.38_1,Oregon,USA.38.6_1,Coos
1304444823,GBIF,OSC,b8049fdd-8bbe-4c17-adc3-849f91a4b163,. Coordinates do not match to country in source data. Not found a country in reverser geocoding. Oregon State University Herbarium,2010-06-14T00:00:00,,US,Oregon,Coos,,"Croft Lake Lane, 1.6 mi. west of junction with Highway 101, ca. 11 mi. south of Bandon, in cultivation; 12m; 42.9916&#176; N -124.44801&#176; W",42.9916,-124.448,Vaccinium macrocarpum Aiton,USA,United States,USA.38_1,Oregon,USA.38.6_1,Coos
1304444818,GBIF,OSC,530a892f-df7a-4ccc-8910-9ee040f1b129,. Coordinates do not match to country in source data. Not found a country in reverser geocoding. Oregon State University Herbarium,1924-07-11T00:00:00,,US,Oregon,Tillamook,,Sand L.,45.2761,-123.9442,Vaccinium macrocarpum Aiton,USA,United States,USA.38_1,Oregon,USA.38.29_1,Tillamook
1304444813,GBIF,OSC,943ec4d4-c813-4bd2-a0d4-753104fc98ac,. Coordinates do not match to country in source data. Not found a country in reverser geocoding. Oregon State University Herbarium,2010-06-14T00:00:00,,US,Oregon,Coos,,"Croft Lake Lane, 1.6 mi. west of junction with Highway 101, ca. 11 mi. south of Bandon, in cultivation; 12m",42.9916,-124.448,Vaccinium macrocarpum Aiton,USA,United States,USA.38_1,Oregon,USA.38.6_1,Coos
1304444811,GBIF,OSC,8a315fe7-01ac-44fb-95ec-fc31d10875b9,. Coordinates do not match to country in source data. Not found a country in reverser geocoding. Oregon State University Herbarium,1953-02-16T00:00:00,,US,Oregon,Coos,,Bullards.,43.15,-124.3944,Vaccinium macrocarpum Aiton,USA,United States,USA.38_1,Oregon,USA.38.6_1,Coos
1304444809,GBIF,OSC,311426ec-7b85-43b2-afd3-7e2fcaa9703d,. Coordinates do not match to country in source data. Not found a country in reverser geocoding. Oregon State University Herbarium,1918-05-18T00:00:00,sphagnum bog.,US,Oregon,Lincoln,,Beaver Creek Sphagnum bog; 10 miles S. of Newport.,44.4774,-124.0799,Vaccinium macrocarpum Aiton,USA,United States,USA.38_1,Oregon,USA.38.21_1,Lincoln
1304444808,GBIF,OSC,b55494e1-733f-44df-8c85-d793abad8e6c,. Coordinates do not match to country in source data. Not found a country in reverser geocoding. Oregon State University Herbarium,1996-07-09T00:00:00,"forest, herbland, shrubland",US,Oregon,Clatsop,,Gearhart  Bog,46.0449,-123.9088,Vaccinium macrocarpum Aiton,USA,United States,USA.38_1,Oregon,USA.38.4_1,Clatsop
1304444802,GBIF,OSC,0838046a-f929-49f4-a419-adaa7d39b9e8,. Coordinates do not match to country in source data. Not found a country in reverser geocoding. Oregon State University Herbarium,1992-07-10T00:00:00,"in old abandoned cranberry bog; aspect none, slope none.",US,Oregon,Coos,,east of trail to NE corner of Muddy Lake.,42.9894,-124.4447,Vaccinium macrocarpum Aiton,USA,United States,USA.38_1,Oregon,USA.38.6_1,Coos
1304444797,GBIF,OSC,0b2d0bd9-ca32-407e-ba82-3c437dbe9924,. Coordinates do not match to country in source data. Not found a country in reverser geocoding. Oregon State University Herbarium,2006-07-20T00:00:00,,US,Oregon,Curry,,Croft Lake Bog,42.9855,-124.4533,Vaccinium macrocarpum Aiton,USA,United States,USA.38_1,Oregon,USA.38.6_1,Coos
1304444795,GBIF,OSC,7a36f9fc-fe54-4fc8-ba09-bf54e58712eb,. Coordinates do not match to country in source data. Not found a country in reverser geocoding. Oregon State University Herbarium,1997-08-20T00:00:00,"boggy margin, N end of Muddy Lake; full sun.",US,Oregon,Coos,,"N end of Muddy Lake; New River ACEC, Coos Bay District BLM.",42.9894,-124.4447,Vaccinium macrocarpum Aiton,USA,United States,USA.38_1,Oregon,USA.38.6_1,Coos
1304444794,GBIF,OSC,8c196727-8495-4e0e-8f06-b083363287dc,. Coordinates do not match to country in source data. Not found a country in reverser geocoding. Oregon State University Herbarium,2004-01-01T00:00:00,,US,Oregon,Coos,,New River ACEC,42.9745,-124.4623,Vaccinium macrocarpum Aiton,USA,United States,USA.38_1,Oregon,USA.38.6_1,Coos
1304444792,GBIF,OSC,9084a5b2-1de7-4ee2-a64e-06c740f2429d,. Coordinates do not match to country in source data. Not found a country in reverser geocoding. Oregon State University Herbarium,1997-01-01T00:00:00,,US,Oregon,Coos,,New River ACEC-Muddy Lake Area,42.9948,-124.4373,Vaccinium macrocarpum Aiton,USA,United States,USA.38_1,Oregon,USA.38.6_1,Coos
1304444791,GBIF,OSC,37378e4b-f88e-49b2-a91e-edb53f94fb32,. Coordinates do not match to country in source data. Not found a country in reverser geocoding. Oregon State University Herbarium,1997-08-21T00:00:00,"edge of water; ditches, margins of cranberry bogs; full sun.",US,Oregon,Curry,,"1.5 miles west of Route 101, south and southwest of Floras Lake.",42.8756,-124.5024,Vaccinium macrocarpum Aiton,USA,United States,USA.38_1,Oregon,USA.38.8_1,Curry
1304444790,GBIF,OSC,53f1973c-8295-472f-ac42-16258cb2d39a,. Coordinates do not match to country in source data. Not found a country in reverser geocoding. Oregon State University Herbarium,1997-06-20T00:00:00,diverse small bog at the edge of a pond.,US,Oregon,Coos,,bog on private property at Croft Lake; adjacent to the Bureau of Land Management''s New River Area of Critical Environmental Concern; ca. 8 miles south of Bandon.,42.9886,-124.4593,Vaccinium macrocarpum Aiton,USA,United States,USA.38_1,Oregon,USA.38.6_1,Coos
1304444788,GBIF,OSC,d0351281-e5b7-442a-9d59-18ccb4ad5bf1,. Coordinates do not match to country in source data. Not found a country in reverser geocoding. Oregon State University Herbarium,1979-08-04T00:00:00,,US,Oregon,Coos,,"""""""Hauser Bog"""", E of Highway 101 at milepost 228, 1.6 km N of Hauser, near weigh station.""",43.5024,-124.2114,Vaccinium macrocarpum Aiton,USA,United States,USA.38_1,Oregon,USA.38.6_1,Coos
1304444786,GBIF,OSC,69948e59-0513-4154-9330-1356428d0be5,. Coordinates do not match to country in source data. Not found a country in reverser geocoding. Oregon State University Herbarium,1918-06-20T00:00:00,Sphagnum bog.,US,Oregon,Lincoln,,Beaver Creek; 10 miles south of Newport.,44.5206,-124.0703,Vaccinium macrocarpum Aiton,USA,United States,USA.38_1,Oregon,USA.38.21_1,Lincoln
1304444785,GBIF,OSC,0917bfcf-fb78-42e8-9920-d388a3b091e4,. Coordinates do not match to country in source data. Not found a country in reverser geocoding. Oregon State University Herbarium,1918-05-18T00:00:00,sphagnum bog; sea level.,US,Oregon,Lincoln,,Beaver Creek; 10 miles S. of Newport.,44.5206,-124.0703,Vaccinium macrocarpum Aiton,USA,United States,USA.38_1,Oregon,USA.38.21_1,Lincoln
1304444778,GBIF,OSC,3843850d-b857-48af-88d8-34f26a4bf1e7,. Coordinates do not match to country in source data. Not found a country in reverser geocoding. Oregon State University Herbarium,1997-01-01T00:00:00,,US,Oregon,Coos,,"North Spit - Wilson, Zika",43.4308,-124.2704,Vaccinium macrocarpum Aiton,USA,United States,USA.38_1,Oregon,USA.38.6_1,Coos
1304444776,GBIF,OSC,3d24c995-2fce-4130-bd95-7f94bfb072ed,. Coordinates do not match to country in source data. Not found a country in reverser geocoding. Oregon State University Herbarium,1997-07-23T00:00:00,naturalized weed floating in bog mat.,US,Oregon,Coos,,"N end of Lost Lake, New River ACEC, Coos Bay District BLM.",43.022,-124.4296,Vaccinium macrocarpum Aiton,USA,United States,USA.38_1,Oregon,USA.38.6_1,Coos
1304444775,GBIF,OSC,48add47f-8264-4a15-922b-0b16babeab3d,. Coordinates do not match to country in source data. Not found a country in reverser geocoding. Oregon State University Herbarium,2005-07-23T00:00:00,,US,Oregon,Coos,,"North end of Lost Lake, New River Area of Critical Environmental Concern, Coos Bay BLM District",43.0328,-124.4248,Vaccinium macrocarpum Aiton,USA,United States,USA.38_1,Oregon,USA.38.6_1,Coos
1304444763,GBIF,OSC,e2cc3f53-df54-4d01-987f-a5e1f5523932,. Coordinates do not match to country in source data. Not found a country in reverser geocoding. Oregon State University Herbarium,1997-08-19T00:00:00,"Deflation plain on sandy substrate at the coast, associated species: Carex obnupta, Salix hookeriana, Scirpus pungens.",US,Oregon,Coos,,North Spit of Coos bay.,43.4298,-124.2853,Vaccinium macrocarpum Aiton,USA,United States,USA.38_1,Oregon,USA.38.6_1,Coos
1304444761,GBIF,OSC,d022b4b6-1a2f-4d06-96d8-c451c0ac7fb0,. Coordinates do not match to country in source data. Not found a country in reverser geocoding. Oregon State University Herbarium,2010-06-14T00:00:00,,US,Oregon,Coos,,"Croft Lake Lane, 1.6 mi. W of junction with Hwy. 101, ca. 11 mi. S of Bandon, in cultivation; 12m",42.9916,-124.448,Vaccinium macrocarpum Aiton,USA,United States,USA.38_1,Oregon,USA.38.6_1,Coos
1304444751,GBIF,OSC,55fdc852-2070-4dcc-8ec8-c9affce9ca47,. Coordinates do not match to country in source data. Not found a country in reverser geocoding. Oregon State University Herbarium,1997-01-01T00:00:00,,US,Oregon,Curry,,Sea Winds Farm,42.8898,-124.4828,Vaccinium macrocarpum Aiton,USA,United States,USA.38_1,Oregon,USA.38.8_1,Curry
1304203722,GBIF,Bioversity,9cc15a42-5a75-40cf-ac33-9aaed3a8a817,Bioversity International,2010-08-23T00:00:00,Slough inland from primary dune of lake shore,US,Maine,Washington Co.,,"ca 17 km WSW of Grand Lake Stream village, NW shore of Fourth Machias Lake",45.17,-67.99,Vaccinium macrocarpum Aiton,USA,United States,USA.20_1,Maine,USA.20.15_1,Washington
1304203669,GBIF,Bioversity,686f1b63-ac38-4ac8-9a56-a62a5e0906a0,Point in the water. original: Point in the water. georef: Point in the water. Bioversity International,2010-08-22T00:00:00,"Low, open area in young successional woods around dirt parking area",US,Maine,Washington Co.,,"S of Bucks Harbor at Howard Cove, area known locally as Jasper Beach",44.63,-67.39,Vaccinium macrocarpum Aiton,USA,United States,USA.20_1,Maine,USA.20.15_1,Washington
1304203552,GBIF,Bioversity,10c14e8c-2c15-4b03-9266-f393f7643f7f,Bioversity International,2010-09-19T00:00:00,"Bog with Eriophorum, Vaccinium macrocarpon, Kalmia angustifolia, Chamaedaphne calyculata, Sphagnum spp.",US,New York,Putnam Co.,,"2.15 km NNW of Putnam Valley, ca 550 m W of Putnam Valley Elementary School",41.36,-73.88,Vaccinium macrocarpum Aiton,USA,United States,USA.33_1,New York,USA.33.41_1,Putnam
1304203128,GBIF,Bioversity,bfc24c31-b614-4c80-8f39-876dbf414667,Bioversity International,1994-04-11T00:00:00,Cranberry fen,US,New Jersey,Ocean Co.,,"Rt 539, 5km N of Rt 72",39.92,-74.5,Vaccinium macrocarpum Aiton,USA,United States,USA.31_1,New Jersey,USA.31.3_1,Burlington
1302779283,GBIF,CPNWH,0ee52261-5678-4e09-8b13-4a22bef2ccc4,. Coordinates do not match to country in source data. Not found a country in reverser geocoding. Consortium of Pacific Northwest Herbaria,1997-06-20T00:00:00,,US,Oregon,Coos,bog on private property at Croft Lake; adjacent to the Bureau of Land Management''s New River Area of Critical Environmental Concern; ca. 8 miles south of Bandon.,,42.9886,-124.4592,Vaccinium macrocarpum Aiton,USA,United States,USA.38_1,Oregon,USA.38.6_1,Coos
1302778927,GBIF,CPNWH,3c4316c7-4035-442d-bdd2-5710c69e9a48,. Coordinates do not match to country in source data. Not found a country in reverser geocoding. Consortium of Pacific Northwest Herbaria,1953-02-16T00:00:00,,US,Oregon,Coos,Bullards.,,43.15,-124.3944,Vaccinium macrocarpum Aiton,USA,United States,USA.38_1,Oregon,USA.38.6_1,Coos
1302778912,GBIF,CPNWH,1c1c0373-9078-42dc-ae71-4ab1b4ccaddd,. Coordinates do not match to country in source data. Not found a country in reverser geocoding. Consortium of Pacific Northwest Herbaria,2008-11-02T00:00:00,,US,Oregon,Coos,Near mouth of New River.,,43,-124.456667,Vaccinium macrocarpum Aiton,USA,United States,USA.38_1,Oregon,USA.38.6_1,Coos
1302778890,GBIF,CPNWH,7c81db0d-b58a-4a8d-9496-915a739b3ea9,. Coordinates do not match to country in source data. Not found a country in reverser geocoding. Consortium of Pacific Northwest Herbaria,1979-08-04T00:00:00,,US,Oregon,Coos,"&quot;Hauser Bog&quot;, E of Highway 101 at milepost 228, 1.6 km N of Hauser, near weigh station.",,43.5023,-124.2113,Vaccinium macrocarpum Aiton,USA,United States,USA.38_1,Oregon,USA.38.6_1,Coos
1302778864,GBIF,CPNWH,6e88310e-7a87-4ea9-ac94-be31ce8ac49a,. Coordinates do not match to country in source data. Not found a country in reverser geocoding. Consortium of Pacific Northwest Herbaria,1979-08-04T00:00:00,,US,Oregon,Coos,"&quot;Hauser Bog&quot;, E of Highway 101 at milepost 228, 1.6 km N of Hauser, near weigh station.",,43.5023,-124.2113,Vaccinium macrocarpum Aiton,USA,United States,USA.38_1,Oregon,USA.38.6_1,Coos
1302778839,GBIF,CPNWH,113c349e-e357-4198-a31e-535189f6a38c,. Coordinates do not match to country in source data. Not found a country in reverser geocoding. Consortium of Pacific Northwest Herbaria,1979-08-04T00:00:00,,US,Oregon,Coos,"&quot;Hauser Bog&quot;, E of Highway 101 at milepost 228, 1.6 km N of Hauser, near weigh station.",,43.5023,-124.2113,Vaccinium macrocarpum Aiton,USA,United States,USA.38_1,Oregon,USA.38.6_1,Coos
1302778819,GBIF,CPNWH,e9ced195-e00b-4ac3-a067-28abad340774,. Coordinates do not match to country in source data. Not found a country in reverser geocoding. Consortium of Pacific Northwest Herbaria,1979-08-04T00:00:00,,US,Oregon,Coos,"&quot;Hauser Bog&quot;, E of Highway 101 at milepost 228, 1.6 km N of Hauser, near weigh station.",,43.5023,-124.2113,Vaccinium macrocarpum Aiton,USA,United States,USA.38_1,Oregon,USA.38.6_1,Coos
1302778798,GBIF,CPNWH,08512f81-d60d-4371-bafb-2367ef0a9cbb,. Coordinates do not match to country in source data. Not found a country in reverser geocoding. Consortium of Pacific Northwest Herbaria,1918-05-18T00:00:00,,US,Oregon,Lincoln,Beaver Creek; 10 miles S. of Newport.,,44.5206,-124.0703,Vaccinium macrocarpum Aiton,USA,United States,USA.38_1,Oregon,USA.38.21_1,Lincoln
1302778769,GBIF,CPNWH,f515b09c-df2e-4542-8eb9-4dcc8597677a,. Coordinates do not match to country in source data. Not found a country in reverser geocoding. Consortium of Pacific Northwest Herbaria,1918-06-20T00:00:00,,US,Oregon,Lincoln,Beaver Creek; 10 miles south of Newport.,,44.5206,-124.0703,Vaccinium macrocarpum Aiton,USA,United States,USA.38_1,Oregon,USA.38.21_1,Lincoln
1302778750,GBIF,CPNWH,90ac62d7-b0e2-435f-ab7b-06e9e0823f98,Point in the water. Point in the water. Coordinates do not match to country in source data. original: Point in the water. Consortium of Pacific Northwest Herbaria,1918-05-18T00:00:00,,US,Oregon,Lincoln,Beaver Creek Sphagnum bog; 10 miles S. of Newport.,,44.4688,-124.086,Vaccinium macrocarpum Aiton,,,,,,
1302778731,GBIF,CPNWH,7763e8d7-b017-404c-b379-23208d373e48,. Coordinates do not match to country in source data. Not found a country in reverser geocoding. Consortium of Pacific Northwest Herbaria,1924-07-11T00:00:00,,US,Oregon,Tillamook,Sand L.,,45.2761,-123.9442,Vaccinium macrocarpum Aiton,USA,United States,USA.38_1,Oregon,USA.38.29_1,Tillamook
1302778663,GBIF,CPNWH,689df425-4102-4fbb-a0f9-ad2a2407bd0f,. Coordinates do not match to country in source data. Not found a country in reverser geocoding. Consortium of Pacific Northwest Herbaria,1942-07-27T00:00:00,,US,Washington,,"Obtained from eastern states, now cultivated at Cranberry-Blueberry Laboratory, Long Beach.",,46.3525,-124.05306,Vaccinium macrocarpum Aiton,USA,United States,USA.48_1,Washington,USA.48.25_1,Pacific
1302778647,GBIF,CPNWH,f9becccb-8f6c-4fb6-9920-d414824a8bf1,. Coordinates do not match to country in source data. Not found a country in reverser geocoding. Consortium of Pacific Northwest Herbaria,1889-05-29T00:00:00,,US,Washington,King,Seattle.,,47.60639,-122.33083,Vaccinium macrocarpum Aiton,USA,United States,USA.48_1,Washington,USA.48.17_1,King
1302778631,GBIF,CPNWH,aefd01a2-08fd-488d-a63c-8a6954de9e88,. Coordinates do not match to country in source data. Not found a country in reverser geocoding. Consortium of Pacific Northwest Herbaria,2007-08-14T00:00:00,,US,Washington,Pacific,"Long Beach Peninsula, southwest shore of Island Lake.",,46.425,-124.036667,Vaccinium macrocarpum Aiton,USA,United States,USA.48_1,Washington,USA.48.25_1,Pacific
1302778601,GBIF,CPNWH,6b8264e6-d116-40b0-8aea-8576d6543810,. Coordinates do not match to country in source data. Not found a country in reverser geocoding. Consortium of Pacific Northwest Herbaria,2004-06-03T00:00:00,,US,Washington,Grays Harbor,"Near Astoria Lane, Route 105, Ocosta.",,46.891667,-124.01,Vaccinium macrocarpum Aiton,USA,United States,USA.48_1,Washington,USA.48.14_1,Grays Harbor
1302778571,GBIF,CPNWH,8ce02b8c-fefc-4074-b500-3f6b4832bfb1,. Coordinates do not match to country in source data. Not found a country in reverser geocoding. Consortium of Pacific Northwest Herbaria,2007-08-15T00:00:00,,US,Washington,Grays Harbor,"Both sides of Marine Drive at and west of Sandy Drive south, Grayland.",,46.823333,-124.098333,Vaccinium macrocarpum Aiton,USA,United States,USA.48_1,Washington,USA.48.14_1,Grays Harbor
1302778531,GBIF,CPNWH,90ef8ab9-74f0-47b3-b0ae-ccd6341bc5f2,. Coordinates do not match to country in source data. Not found a country in reverser geocoding. Consortium of Pacific Northwest Herbaria,1988-07-08T00:00:00,,CA,British Columbia,,"Greater Vancouver Regional District, Burnaby, off Marshland Street, Big Bend Street.",,49.266667,-122.95,Vaccinium macrocarpum Aiton,CAN,Canada,CAN.2_1,British Columbia,CAN.2.14_1,Greater Vancouver
1302778487,GBIF,CPNWH,98bd1ead-f214-48a6-ad75-fd9e92718c3c,. Coordinates do not match to country in source data. Not found a country in reverser geocoding. Consortium of Pacific Northwest Herbaria,1997-08-20T00:00:00,,US,Oregon,Coos,"N end of Muddy Lake; New River ACEC, Coos Bay District BLM.",,42.9894,-124.4447,Vaccinium macrocarpum Aiton,USA,United States,USA.38_1,Oregon,USA.38.6_1,Coos
1302778455,GBIF,CPNWH,9b1db5a4-6921-48c1-af6a-37cb6b2cc463,. Coordinates do not match to country in source data. Not found a country in reverser geocoding. original: Coordinates not found to compare the country. Consortium of Pacific Northwest Herbaria,2002-06-11T00:00:00,,CA,British Columbia,,"Alert Bay, beside GATOR trails.",,50.583333,-126.933333,Vaccinium macrocarpum Aiton,,,,,,
1302778439,GBIF,CPNWH,4a254145-5c4a-487c-84c7-56082c0f6f4e,. Coordinates do not match to country in source data. Not found a country in reverser geocoding. Consortium of Pacific Northwest Herbaria,2010-09-10T00:00:00,,CA,Nova Scotia,,"Queens County, Ponhook Lake, Grassy Point.",,44.28951,-64.87572,Vaccinium macrocarpum Aiton,CAN,Canada,CAN.7_1,Nova Scotia,CAN.7.14_1,Queens
1302778425,GBIF,CPNWH,61d88ee2-99f1-4446-8207-bac268897d95,. Coordinates do not match to country in source data. Not found a country in reverser geocoding. Consortium of Pacific Northwest Herbaria,1997-07-23T00:00:00,,US,Oregon,Coos,"N end of Lost Lake, New River ACEC, Coos Bay District BLM.",,43.022,-124.4296,Vaccinium macrocarpum Aiton,USA,United States,USA.38_1,Oregon,USA.38.6_1,Coos
1302601831,GBIF,USDA_NPGS_GRIN,7cdd25ba-6bcf-4ba8-af43-f0bd5b0f0d8b,". Coordinates do not match to country in source data. Not found a country in reverser geocoding. Very dry site, V. macrocarpon fruits few and scattered. additional associated plants Pyrus melanocarpa, Gaultheria procumbens, Rhodedron sp.(This accession was part of the PL,SD ''breakout'' - 1992). U.S. Department of Agriculture",1991-10-30T00:00:00,,US,,,,"Anvil Bog'' Oligotrophic fen on Glotflety property, McHenry, Garrett county, MD",39.567,-79.30483,Vaccinium macrocarpum Aiton,USA,United States,USA.21_1,Maryland,USA.21.11_1,Garrett
1302601820,GBIF,USDA_NPGS_GRIN,fc3d8736-703c-4c5f-a818-6d6548ddc359,". Coordinates do not match to country in source data. Not found a country in reverser geocoding. (This accession was part of the PL,SD ''breakout'' - 1992). U.S. Department of Agriculture",1991-10-17T00:00:00,,US,,,,"Beamer Farm, Route 1, Box 82, Fancy Gap Va. About 3/4 mile e east of intersection routes 683 and 701 on route 683.  Site is downhill from house.",36.75,-80.83333,Vaccinium macrocarpum Aiton,USA,United States,USA.47_1,Virginia,USA.47.22_1,Carroll
1302601817,GBIF,USDA_NPGS_GRIN,4a55e8ca-9b53-4164-97d5-2ab6b29f6ba2,. Coordinates do not match to country in source data. Not found a country in reverser geocoding. D. W. Ogle collection<br><br>. U.S. Department of Agriculture,1991-10-19T00:00:00,,US,,,,"Side of Holston mountains above Shady Valley, Johnson county , Tennessee.",36.51667,-81.96667,Vaccinium macrocarpum Aiton,USA,United States,USA.43_1,Tennessee,USA.43.46_1,Johnson
1302601813,GBIF,USDA_NPGS_GRIN,7404ae3f-231e-4c67-988b-5c3b2fbec553,". Coordinates do not match to country in source data. Not found a country in reverser geocoding. Site proposed as a research natural area. (This accession was part of the PL,SD ''breakout'' - 1992). U.S. Department of Agriculture",1991-10-30T00:00:00,,US,,,,"Minerotrophic fen in large basin between 2 ridges, Tucker Co Big Run Bog (A.K.A. Olson Bog), Monongahela National Forest",39.1175,-79.58333,Vaccinium macrocarpum Aiton,USA,United States,USA.49_1,West Virginia,USA.49.47_1,Tucker
1302601810,GBIF,USDA_NPGS_GRIN,af077aae-849d-4010-a625-cbcb2fad40d3,". Coordinates do not match to country in source data. Not found a country in reverser geocoding. a very small population of V. oxycoccos was found across the road from this site, too few plants to collect. (This accession was part of the PL,SD ''breakout'' - 1992). U.S. Department of Agriculture",1991-10-30T00:00:00,,US,,,,"Canaan mountain, Tucker county, Red Run Headwaters Bog, Monongahela National Forest",39.07333,-79.47316,Vaccinium macrocarpum Aiton,USA,United States,USA.49_1,West Virginia,USA.49.47_1,Tucker
1302601807,GBIF,USDA_NPGS_GRIN,f470944c-fc3e-466e-8e9f-2a15b28519ee,. Coordinates do not match to country in source data. Not found a country in reverser geocoding. Kim Hummer collected in Pensylvania.<br><br>. U.S. Department of Agriculture,2007-10-23T00:00:00,,US,,,,"Black Moshannon State Park, 4216 Beaver Road Philipsburg, PA 16866. Along the Bog Trail.",40.71094,-78.06292,Vaccinium macrocarpum Aiton,USA,United States,USA.39_1,Pennsylvania,USA.39.31_1,Huntingdon
1302601806,GBIF,USDA_NPGS_GRIN,9a01b302-6c5e-4d4f-990c-67536a8c7bb0,". Coordinates do not match to country in source data. Not found a country in reverser geocoding. (This accession was part of the PL,SD ''breakout'' - 1992) Site is called, ''locality No 3'' in paper listed in collector''s notes: typical cranberry bog. Part of site described in paper from which all germplasm was collected was to the right of the driveway as one faces the house. (site to the left and downslope held no cranberries)Site was surrounded by cleared pasture. Had been carefully cleared of invading vegetation by previous owner, Charles Auburn (farther of present owner), and now is droppin in productivity due to same.. U.S. Department of Agriculture",1991-10-17T00:00:00,,US,,,,"Amburn/Landreth Farm, Woodland, VA, just north of intersection of routes 723 and 712, north of Poplar Knob",36.83333,-80.81667,Vaccinium macrocarpum Aiton,USA,United States,USA.47_1,Virginia,USA.47.22_1,Carroll
1302601798,GBIF,USDA_NPGS_GRIN,3854496d-0c85-4748-aaa6-55a083ce5db7,". Coordinates do not match to country in source data. Not found a country in reverser geocoding. This location will not support cranberries long. (This accession was part of the PL,SD ''breakout'' - 1992). U.S. Department of Agriculture",1990-09-01T00:00:00,,US,,,,"Bog off Rt. 152 1mi W of So. Lee, roadside, soon to be lost",43.25,-71.16667,Vaccinium macrocarpum Aiton,USA,United States,USA.30_1,New Hampshire,USA.30.9_1,Strafford
1302601794,GBIF,USDA_NPGS_GRIN,4cd713a8-d238-413d-b1cd-1f48a14f7627,"Point in the water. Point in the water. original: Point in the water. Yellow bell'' type morphology. (This accession was part of the PL,SD ''breakout'' - 1992)<br><br>Don Mairs collection<br><br>. U.S. Department of Agriculture",1990-01-01T00:00:00,,US,,,,"Vinalhaven Island, Knox County, Maine",44.03333,-68.91667,Vaccinium macrocarpum Aiton,,,,,,
1302601791,GBIF,USDA_NPGS_GRIN,632d0e99-12c8-4948-9fa1-23a263782000,". Coordinates do not match to country in source data. Not found a country in reverser geocoding. Site a nearly level 1/2A seepage area. Fenced and Maintained by Watauga Audubon Chapter in Kingsport(This accession was part of the PL,SD ''breakout'' - 1992). U.S. Department of Agriculture",1991-10-17T00:00:00,,US,,,,"Private residence, Lester and Pearl osborne, Route 1, Box 214, Shady valley TN, On norh facing side of cross mountain about 200 yards north adn sownslope from Osborne''s barn at top of ridge",36.48861,-81.96416,Vaccinium macrocarpum Aiton,USA,United States,USA.43_1,Tennessee,USA.43.46_1,Johnson
1302601787,GBIF,USDA_NPGS_GRIN,6d6a1e86-33f6-4383-aaca-a8e00e0c5f33,. Coordinates do not match to country in source data. Not found a country in reverser geocoding. V. macrocarpon intermixed with V. oxycoccos. Collection site to be renamed by the MD Nat''l Heritage Program Staff. U.S. Department of Agriculture,1991-10-29T00:00:00,,US,,,,"Potomac-Garret State Forest, Jim Metchum''s Bog near WV/MD border",39.49166,-79.44583,Vaccinium macrocarpum Aiton,USA,United States,USA.21_1,Maryland,USA.21.11_1,Garrett
1302601785,GBIF,USDA_NPGS_GRIN,71330854-4e88-4e1d-9e09-6cceff5d174b,". Coordinates do not match to country in source data. Not found a country in reverser geocoding. (This accession was part of the PL,SD ''breakout'' - 1992). U.S. Department of Agriculture",1991-10-29T00:00:00,,US,,,,"Six to Eight acres of Sedge/Shrub minerotophic acidic fen on  Snaggy Mountain rd, Garrett county, MD, Murley Run Bog, Potomic-Garrett State Forest",39.47833,-79.46083,Vaccinium macrocarpum Aiton,USA,United States,USA.21_1,Maryland,USA.21.11_1,Garrett
1302601784,GBIF,USDA_NPGS_GRIN,6cdca442-d85e-4ede-a521-d1b829be9639,". Coordinates do not match to country in source data. Not found a country in reverser geocoding. Associated with Rubus Hispidus, Polytrichum sp., Alnus Rugosa. (This accession was part of the PL,SD ''breakout'' - 1992). U.S. Department of Agriculture",1991-10-29T00:00:00,,US,,,,"The Glades'' minerotrophic fen, near Grantsville, Garrett county, MD",39.55767,-79.27967,Vaccinium macrocarpum Aiton,USA,United States,USA.21_1,Maryland,USA.21.11_1,Garrett
1302601783,GBIF,USDA_NPGS_GRIN,b3163b6f-54d6-4f84-ae0f-bf8e8f17036c,". Coordinates do not match to country in source data. Not found a country in reverser geocoding. Found at edge of bog in lowlying moist location, open above. Assoc. leatherleaf, partridgeberry, sphagnum. U.S. Department of Agriculture",1990-09-01T00:00:00,,US,,,,"Strafford County, Lee, behind library parking lot trail through woods to bog.",43.1235,-71.0109,Vaccinium macrocarpum Aiton,USA,United States,USA.30_1,New Hampshire,USA.30.9_1,Strafford
1302601782,GBIF,USDA_NPGS_GRIN,5678cb5a-9569-454e-a666-ff72abd71151,. Coordinates do not match to country in source data. Not found a country in reverser geocoding. Joseph Postman collection<br><br>. U.S. Department of Agriculture,,,US,,,,"Summit of Blue Hill about 2 km NNW of the town of Blue Hill, Hancock county, Maine. About 30 m SE of fire lookout tower.",44.43417,-68.59028,Vaccinium macrocarpum Aiton,USA,United States,USA.20_1,Maine,USA.20.5_1,Hancock
1302601781,GBIF,USDA_NPGS_GRIN,bcde0d58-a20c-4fb9-9ff3-1d7ef0ce0ab4,". Coordinates do not match to country in source data. Not found a country in reverser geocoding. Poor fen'' as descirbed by Ogle in paper and by Sjors (1959) cited by Ogle (p 144) Cranberry crop at this site very poor in 1991, leaves smaller that usual. ''something had been in and tramping but probably not human.'' (This accession was part of the PL,SD ''breakout'' - 1992). U.S. Department of Agriculture",1991-10-17T00:00:00,,US,,,,"Nature area owend by the Nature Conservancy, near intersecti on of routes 785 and 613 across route 613 from stone quarry,  1/4 mile up dirt road, Big Spring Glade area",36.66667,-80.93333,Vaccinium macrocarpum Aiton,USA,United States,USA.47_1,Virginia,USA.47.49_1,Galax
1302601780,GBIF,USDA_NPGS_GRIN,8c9bbd27-8f7e-4740-8baf-9607cb12356e,. Coordinates do not match to country in source data. Not found a country in reverser geocoding. original: Coordinates does not match to country in source data. search=US found=KZ. U.S. Department of Agriculture,1983-07-04T00:00:00,,US,,,,Growing in open field and partially shaded by deciduous tree,44.5,-68.5,Vaccinium macrocarpum Aiton,USA,United States,USA.20_1,Maine,USA.20.5_1,Hancock
1302601776,GBIF,USDA_NPGS_GRIN,f6c87316-cb0a-4ce2-b7d5-e6f3e6b1625f,". Coordinates do not match to country in source data. Not found a country in reverser geocoding. Growing in partial shade, assoc. ferns, leatherleaf. (This accession was part of the PL,SD ''breakout'' - 1992). U.S. Department of Agriculture",1990-09-01T00:00:00,,US,,,,"Chittenden County, northwest side of Shelburn Pond.",44.3901,-73.1691,Vaccinium macrocarpum Aiton,USA,United States,USA.46_1,Vermont,USA.46.4_1,Chittenden
1302601775,GBIF,USDA_NPGS_GRIN,66c1426b-fde5-402b-a51d-fee259b11916,. Coordinates do not match to country in source data. Not found a country in reverser geocoding. V. macrocarpon intermixed with V. oxycoccos. Collection site to be renamed by the MD Nat''l Heritage Program Staff. U.S. Department of Agriculture,1991-10-29T00:00:00,,US,,,,"Potomac-Garret State Forest, Jim Metchum''s Bog near WV/MD border",39.49166,-79.44583,Vaccinium macrocarpum Aiton,USA,United States,USA.21_1,Maryland,USA.21.11_1,Garrett
1302601773,GBIF,USDA_NPGS_GRIN,21943265-3089-464c-8db1-aceb55cdffa9,. Coordinates do not match to country in source data. Not found a country in reverser geocoding. D. W. Ogle collection<br><br>. U.S. Department of Agriculture,1991-10-19T00:00:00,,US,,,,"Side of Holston mountains above Shady Valley, Johnson county , Tennessee.",36.51667,-81.96667,Vaccinium macrocarpum Aiton,USA,United States,USA.43_1,Tennessee,USA.43.46_1,Johnson
1302601771,GBIF,USDA_NPGS_GRIN,f3980461-dccb-4486-ae05-755d7b94cae2,. Coordinates do not match to country in source data. Not found a country in reverser geocoding. original: Coordinates not found to compare the country. Collected during tour of North American Cranberry Research and Extension Workers Conference in Cape Cod.. U.S. Department of Agriculture,1991-09-17T00:00:00,,US,,,,"Sandy Neck, Cape Cod, sandy soil",41.75,-70.33333,Vaccinium macrocarpum Aiton,,,,,,
1302601770,GBIF,USDA_NPGS_GRIN,05fcff5c-bb39-46c9-91f8-151f4b5def52,"Point in the water. Point in the water. original: Point in the water. May contain yellow bell genes. (This accession was part of the PL,SD ''breakout'' - 1992). U.S. Department of Agriculture",1990-01-01T00:00:00,,US,,,,"Vinalhaven Island, Knox County, Maine",44.03333,-68.91667,Vaccinium macrocarpum Aiton,,,,,,
1302601768,GBIF,USDA_NPGS_GRIN,6a020740-4838-499a-b775-acc52d7d7fe6,". Coordinates do not match to country in source data. Not found a country in reverser geocoding. Wild, abundant, forming nearly pure stands in portions of bog. Very rare in this region, found only in isolated kettle bogs. Fruits bright red, slightly sweeter tasting than commercially cultivated cranberries.(This accession was part of the PL,SD ''breakout'' - 1992). U.S. Department of Agriculture",1988-09-19T00:00:00,,US,,,,"Douglas County, 3.5 miles east of Hoffman on highway 27, north side of highway just north of radio tower.",45.83236,-95.72125,Vaccinium macrocarpum Aiton,USA,United States,USA.24_1,Minnesota,USA.24.21_1,Douglas
1302601765,GBIF,USDA_NPGS_GRIN,9a6d59f7-8a0f-498a-9c33-410faab45b13,Point in the water. original: Point in the water. Chad Finn collection<br><br>. U.S. Department of Agriculture,1995-08-01T00:00:00,,CA,,,,"Peggy''s Cove, along coastal road route 333 about 2 km north of town.",44.50536,-63.9303,Vaccinium macrocarpum Aiton,CAN,Canada,CAN.7_1,Nova Scotia,CAN.7.8_1,Halifax
1302601763,GBIF,USDA_NPGS_GRIN,18c33745-e315-4859-b243-a490b2642c2c,". Coordinates do not match to country in source data. Not found a country in reverser geocoding. Found scattered throughout bog. (This accession was part of the PL,SD ''breakout'' - 1992). U.S. Department of Agriculture",1990-09-01T00:00:00,,US,,,,"About 0.5mi E of East Barrington, open sphagnum bog",43.41667,-71.08333,Vaccinium macrocarpum Aiton,USA,United States,USA.30_1,New Hampshire,USA.30.9_1,Strafford
1302601762,GBIF,USDA_NPGS_GRIN,f0ab5064-0ff9-4854-bdc6-0b7fdb0f76d2,". Coordinates do not match to country in source data. Not found a country in reverser geocoding. original: Coordinates not found to compare the country. Native or introduced(?), found abundant with pitcher plant, yellow-eyed grass, Rhynchospora, Hypericum urginum, Panicum. U.S. Department of Agriculture",1991-09-17T00:00:00,,US,,,,"Anne Arundel Co. near Annapolis, small sphagnum bog",39,-76.5,Vaccinium macrocarpum Aiton,,,,,,
1302601760,GBIF,USDA_NPGS_GRIN,31e98b51-29d1-4179-bc9e-1b034a768a9d,. Coordinates do not match to country in source data. Not found a country in reverser geocoding. Found growing around the edge of a sphagnum bog behind a quarry. U.S. Department of Agriculture,1990-09-01T00:00:00,,US,,,,Bog off Rt. 152 2.5mi W of Newmarket,43.25,-71,Vaccinium macrocarpum Aiton,USA,United States,USA.30_1,New Hampshire,USA.30.9_1,Strafford
1302601758,GBIF,USDA_NPGS_GRIN,b9f33b09-988f-46a7-978c-31ac7423c83f,". Coordinates do not match to country in source data. Not found a country in reverser geocoding. Site holding moisture well in a regional drought, designated as a National Natural Landmark Additional plants are Hypericum densiflorum, Carex folliculata, Juncus effusus, J. canadensis, Bartonia virginica, Gaultheria procumbens. U.S. Department of Agriculture",1991-10-29T00:00:00,,US,,,,"Oligotrophic fen near WV/MD border in Preston county, WV, owned by the nature conservancy, WV, known as Cranesville Swamp",39.5195,-79.48233,Vaccinium macrocarpum Aiton,USA,United States,USA.49_1,West Virginia,USA.49.39_1,Preston
1302601756,GBIF,USDA_NPGS_GRIN,49da6e2d-2624-48dc-ae29-3329cbd5b6de,". Coordinates do not match to country in source data. Not found a country in reverser geocoding. Abundant in this bog, otherwise rare in the region. Fruits red to dark red above, round to olive shaped. U.S. Department of Agriculture",1990-10-05T00:00:00,,US,,,,"Brueske''s Bog'', 2.5m South of Garfield, Douglas County",45.9,-95.51667,Vaccinium macrocarpum Aiton,USA,United States,USA.24_1,Minnesota,USA.24.21_1,Douglas
1302601750,GBIF,USDA_NPGS_GRIN,1441edcf-d915-446e-acf7-bd8cb88f45c6,". Coordinates do not match to country in source data. Not found a country in reverser geocoding. Site around a fence surrounding the bog. (This accession was part of the PL,SD ''breakout'' - 1992). U.S. Department of Agriculture",1991-10-17T00:00:00,,US,,,,"Shady Valley, Johnson County, adjacent to road",36.50833,-81.94861,Vaccinium macrocarpum Aiton,USA,United States,USA.43_1,Tennessee,USA.43.46_1,Johnson
1302601747,GBIF,USDA_NPGS_GRIN,bd9d9691-4962-48ed-8bf5-7c4790d522e0,". Coordinates do not match to country in source data. Not found a country in reverser geocoding. Latitude 36.48861 Longitude -81.96416. Private residence, Lester and Pearl Osborne, Route 1, Box  214, Shady valley TN, On norh facing side of cross mountain about 200 yards north and downslope from Osborne''s barn at top of ridge,nearly level half acre seepage area at junction of 2  headwater creeks on north facing slope.. U.S. Department of Agriculture",1999-10-22T00:00:00,,US,,,,"Ruritan Cranberry Nursery, Shady Valley, Johnson county.",36.48861,-81.96416,Vaccinium macrocarpum Aiton,USA,United States,USA.43_1,Tennessee,USA.43.46_1,Johnson
1302601741,GBIF,USDA_NPGS_GRIN,96b3ccdc-377b-4327-aa42-03bd74476162,". Coordinates do not match to country in source data. Not found a country in reverser geocoding. This selection collected from Floyd Brown''s field in Bandon, Oregon, on 12 August 2005<br><br>. U.S. Department of Agriculture",2005-08-12T00:00:00,,US,,,,Bandon Floyd Brown''s cranberry bog,43.03773,-124.42863,Vaccinium macrocarpum Aiton,USA,United States,USA.38_1,Oregon,USA.38.6_1,Coos
1302601731,GBIF,USDA_NPGS_GRIN,dcc3029b-a3e2-433c-8f61-d00b8d08f89f,". Coordinates do not match to country in source data. Not found a country in reverser geocoding. Half acre bog surrounded by cow pasture. Plants extremely small, no fruits evident.. U.S. Department of Agriculture",1991-10-17T00:00:00,,US,,,,"Private Fram, Acroos road and North several hundred feet from Jess Jenkins Bog",36.51111,-81.94722,Vaccinium macrocarpum Aiton,USA,United States,USA.43_1,Tennessee,USA.43.46_1,Johnson
1302601730,GBIF,USDA_NPGS_GRIN,75547a9e-d2f8-41e7-9fc5-c374c9218b84,". Coordinates do not match to country in source data. Not found a country in reverser geocoding. This selection collected from Scott Vierck''s cranberry field in Bandon, Oregon, on 12 August 2005<br><br>. U.S. Department of Agriculture",2005-08-12T00:00:00,,US,,,,"Bandon Scott Vierck''s cranberry field, 6.5 km south of Bandon on US 101 and east about 2 km on Two Mile Road.",43.05656,-124.3924,Vaccinium macrocarpum Aiton,USA,United States,USA.38_1,Oregon,USA.38.6_1,Coos
1302601726,GBIF,USDA_NPGS_GRIN,3290b003-863c-4806-9483-5396c4267d00,. Coordinates do not match to country in source data. Not found a country in reverser geocoding. original: Coordinates not found to compare the country. This accession was entered twice - also as 896.001. This number is no longer valid.. U.S. Department of Agriculture,1991-09-17T00:00:00,,US,,,,"Anne Arundel Co. near Annapolis, small sphagnum bog",39,-76.5,Vaccinium macrocarpum Aiton,,,,,,
1302601722,GBIF,USDA_NPGS_GRIN,9df8246d-cfcb-4daa-a443-a8a06c4ef1c6,. Coordinates do not match to country in source data. Not found a country in reverser geocoding. Paul Robbins collection<br><br>. U.S. Department of Agriculture,1992-08-22T00:00:00,,US,,,,"Hamilton county, near the town of Inlet. Where water enters Limekiln Lake near Fawn Mountain.",43.70438,-74.78971,Vaccinium macrocarpum Aiton,USA,United States,USA.33_1,New York,USA.33.21_1,Hamilton
1302601719,GBIF,USDA_NPGS_GRIN,9cea19dd-acfd-4d95-beed-1da7f9851858,". Coordinates do not match to country in source data. Not found a country in reverser geocoding. Fruit olive-shaped, large, red ribbed on green This selection was made by A. C. Bennett from a small patch of cranberries found near Grand Rapids, Wisconsin, about 1890. The fruit consists of medium (76 cup count) deep red berries that are oblong in shape with their stem end furrowed. The berries color and keep well in cold storage. The vines are vigorous and coarse, producing large, dark green leaves and tall uprights that bloom rather late in the season (which means that most of the spring frosts are escaped). The berries ripen late in the season, however, and are very susceptible to end rot fungi, which probably contributes to the poor to fair crops that are attained.  - Paul Eck, 1990, The American Cranberry.<br><br>This selection collected from Floyd Brown''s field in Bandon, Oregon, on 12 August 2005 original Bennett selected by A. C. Bennett about 1890<br><br>. U.S. Department of Agriculture",2005-08-12T00:00:00,,US,,,,Bandon Floyd Brown''s cranberry bog,43.04218,-124.42757,Vaccinium macrocarpum Aiton,USA,United States,USA.38_1,Oregon,USA.38.6_1,Coos
1302601717,GBIF,USDA_NPGS_GRIN,d019d4a5-fe3d-4be8-9ff6-7f5c38c748b3,". Coordinates do not match to country in source data. Not found a country in reverser geocoding. This selection collected from Russ Frasier''s cranberry field in Bandon, Oregon, on 12 August 2005<br><br>. U.S. Department of Agriculture",2005-08-12T00:00:00,,US,,,,"Bandon Russ Frasier''s cranberry field, about 15 km south of Bandon on the west side of US 101.",42.98048,-124.42574,Vaccinium macrocarpum Aiton,USA,United States,USA.38_1,Oregon,USA.38.6_1,Coos
1302601709,GBIF,USDA_NPGS_GRIN,7292b390-c0d9-4518-90a0-0fe83879bef0,". Coordinates do not match to country in source data. Not found a country in reverser geocoding. This selection collected from Ray Gardner Jr. field in Bandon, Oregon, on 12 August 2005<br><br>. U.S. Department of Agriculture",2005-08-12T00:00:00,,US,,,,Bandon Ray Garder Jr''s cranberry field,43.12342,-124.38654,Vaccinium macrocarpum Aiton,USA,United States,USA.38_1,Oregon,USA.38.6_1,Coos
1302601706,GBIF,USDA_NPGS_GRIN,c35b6ad3-a5e7-4160-98e6-e384f8674ddf,". Coordinates do not match to country in source data. Not found a country in reverser geocoding. This selection of Stevens collected from George Bushman''s field in Floras Lake, Oregon, on 12 August 2005<br><br>. U.S. Department of Agriculture",2005-08-12T00:00:00,,US,,,,Floras Lake region south of Bandon George Bushman''s cranberry field,42.83771,-124.49185,Vaccinium macrocarpum Aiton,USA,United States,USA.38_1,Oregon,USA.38.8_1,Curry
1302601703,GBIF,USDA_NPGS_GRIN,d979a258-ee1a-4b1a-b62f-e2c63ac49188,". Coordinates do not match to country in source data. Not found a country in reverser geocoding. This selection collected from Scott Vierck''s cranberry field in Bandon, Oregon, on 12 August 2005 originally from Yellow River Northland Farm, Wisconsin collection from there in 1999<br><br>NAMED FOR= Yellow River Marsh, Wisconsin. U.S. Department of Agriculture",2005-08-12T00:00:00,,US,,,,"Bandon Scott Vierck''s cranberry field, 6.5 km south of Bandon on US 101 and east about 2 km on Two Mile Road.",43.05732,-124.39382,Vaccinium macrocarpum Aiton,USA,United States,USA.38_1,Oregon,USA.38.6_1,Coos
1302601698,GBIF,USDA_NPGS_GRIN,7c6abf58-dcb4-45ec-9c61-b258a732460d,". Coordinates do not match to country in source data. Not found a country in reverser geocoding. This selection collected from Scott Vierck''s cranberry field in Bandon, Oregon, on 12 August 2005<br><br>. U.S. Department of Agriculture",2005-08-12T00:00:00,,US,,,,"Bandon Scott Vierck''s cranberry field, 6.5 km south of Bandon on US 101 and east about 2 km on Two Mile Road.",43.05743,-124.39281,Vaccinium macrocarpum Aiton,USA,United States,USA.38_1,Oregon,USA.38.6_1,Coos
1302601697,GBIF,USDA_NPGS_GRIN,a0c97c1c-041c-4368-86e3-e79ebdaca583,. Coordinates do not match to country in source data. Not found a country in reverser geocoding. U.S. Department of Agriculture,1994-09-01T00:00:00,,US,,,,"Portage County, Triangle Lake Bog State Nature Preserve.",41.11895,-81.26226,Vaccinium macrocarpum Aiton,USA,United States,USA.36_1,Ohio,USA.36.68_1,Portage
1302601679,GBIF,USDA_NPGS_GRIN,49c1e336-fd45-4067-929f-6a518c244cf8,". Coordinates do not match to country in source data. Not found a country in reverser geocoding. This selection of Stevens collected from Bob Donaldson''s field in Bandon, Oregon, on 12 August 2005<br><br>. U.S. Department of Agriculture",2005-08-12T00:00:00,,US,,,,Floras Lake region south of Bandon Bob Donaldson''s cranberry field,42.89721,-124.4582,Vaccinium macrocarpum Aiton,USA,United States,USA.38_1,Oregon,USA.38.8_1,Curry
1302601678,GBIF,USDA_NPGS_GRIN,e5b151bb-9af3-4656-a162-ee6434c8772b,". Coordinates do not match to country in source data. Not found a country in reverser geocoding. This selection collected from Ray Gardner Jr. field in Bandon, Oregon, on 12 August 2005<br><br>. U.S. Department of Agriculture",2005-08-12T00:00:00,,US,,,,Bandon Ray Garder Jr''s cranberry field,43.12378,-124.33526,Vaccinium macrocarpum Aiton,USA,United States,USA.38_1,Oregon,USA.38.6_1,Coos
1302601677,GBIF,USDA_NPGS_GRIN,aa7adf2a-e2bd-4064-a9d1-9c53e9501240,. Coordinates do not match to country in source data. Not found a country in reverser geocoding. U.S. Department of Agriculture,,,US,,,,"Blue Ridge Mountains, Haywood County, North Carolina",35.65,-83,Vaccinium macrocarpum Aiton,USA,United States,USA.34_1,North Carolina,USA.34.44_1,Haywood
1302601665,GBIF,USDA_NPGS_GRIN,ffb5a53e-4e70-4466-8838-8ae29a783a2e,". Coordinates do not match to country in source data. Not found a country in reverser geocoding. This selection collected from Floyd Brown''s field in Bandon, Oregon, on 12 August 2005<br><br>. U.S. Department of Agriculture",2005-08-12T00:00:00,,US,,,,Bandon Floyd Brown''s cranberry bog,43.03775,-124.42749,Vaccinium macrocarpum Aiton,USA,United States,USA.38_1,Oregon,USA.38.6_1,Coos
1302601636,GBIF,USDA_NPGS_GRIN,350532cd-6242-4f2c-8d3b-0d4cda8fce55,". Coordinates do not match to country in source data. Not found a country in reverser geocoding. This selection collected from Scott Vierck''s cranberry field in Bandon, Oregon, on 12 August 2005<br><br>. U.S. Department of Agriculture",2005-08-12T00:00:00,,US,,,,"Bandon Scott Vierck''s cranberry field, 6.5 km south of Bandon on US 101 and east about 2 km on Two Mile Road.",43.05589,-124.39243,Vaccinium macrocarpum Aiton,USA,United States,USA.38_1,Oregon,USA.38.6_1,Coos
1302588342,GBIF,CPNWH,d8bde11d-58c8-4dc2-b2bb-a4310b4350ab,. Coordinates do not match to country in source data. Consortium of Pacific Northwest Herbaria,1979-08-04T00:00:00,,US,Oregon,Coos,,"&quot;Hauser Bog&quot;, E of Highway 101 at milepost 228, 1.6 km N of Hauser, near weigh station.",43.5023,-124.2113,Vaccinium macrocarpum Aiton,USA,United States,USA.38_1,Oregon,USA.38.6_1,Coos
1302588327,GBIF,CPNWH,ed0163b6-1550-42d0-a95c-fc66153e22f2,. Coordinates do not match to country in source data. Consortium of Pacific Northwest Herbaria,1953-02-16T00:00:00,,US,Oregon,Coos,,Bullards.,43.15,-124.3944,Vaccinium macrocarpum Aiton,USA,United States,USA.38_1,Oregon,USA.38.6_1,Coos
1302588319,GBIF,CPNWH,a549823a-14d7-4126-bfec-bc2791cd393d,. Coordinates do not match to country in source data. Consortium of Pacific Northwest Herbaria,1918-05-18T00:00:00,,US,Oregon,Lincoln,,Beaver Creek; 10 miles S. of Newport.,44.5206,-124.0703,Vaccinium macrocarpum Aiton,USA,United States,USA.38_1,Oregon,USA.38.21_1,Lincoln
1302588309,GBIF,CPNWH,0601a670-58fd-4ad4-b66f-dae51ef12395,. Coordinates do not match to country in source data. Consortium of Pacific Northwest Herbaria,1924-07-11T00:00:00,,US,Oregon,Tillamook,,Sand L.,45.2761,-123.9442,Vaccinium macrocarpum Aiton,USA,United States,USA.38_1,Oregon,USA.38.29_1,Tillamook
1302588304,GBIF,CPNWH,336a7273-6051-4b4b-b63c-b97ba3cad811,. Coordinates do not match to country in source data. Consortium of Pacific Northwest Herbaria,1997-07-23T00:00:00,,US,Oregon,Coos,,"N end of Lost Lake, New River ACEC, Coos Bay District BLM.",43.022,-124.4296,Vaccinium macrocarpum Aiton,USA,United States,USA.38_1,Oregon,USA.38.6_1,Coos
1302588299,GBIF,CPNWH,9b988716-f1f8-4aef-a77e-8da806419e7d,. Coordinates do not match to country in source data. Consortium of Pacific Northwest Herbaria,1997-06-20T00:00:00,,US,Oregon,Coos,,bog on private property at Croft Lake; adjacent to the Bureau of Land Management''s New River Area of Critical Environmental Concern; ca. 8 miles south of Bandon.,42.9886,-124.4592,Vaccinium macrocarpum Aiton,USA,United States,USA.38_1,Oregon,USA.38.6_1,Coos
1302588283,GBIF,CPNWH,42bd6ff3-bc17-4b60-9df7-5e5c5f5167e8,. Coordinates do not match to country in source data. Consortium of Pacific Northwest Herbaria,1918-05-18T00:00:00,,US,Oregon,Lincoln,,Beaver Creek Sphagnum bog; 10 miles S. of Newport.,44.4774,-124.0799,Vaccinium macrocarpum Aiton,USA,United States,USA.38_1,Oregon,USA.38.21_1,Lincoln
1302588257,GBIF,CPNWH,d6b3e4a7-4219-46e0-978e-de1a120cd145,. Coordinates do not match to country in source data. Consortium of Pacific Northwest Herbaria,1997-08-20T00:00:00,,US,Oregon,Coos,,"N end of Muddy Lake; New River ACEC, Coos Bay District BLM.",42.9894,-124.4447,Vaccinium macrocarpum Aiton,USA,United States,USA.38_1,Oregon,USA.38.6_1,Coos
1302588226,GBIF,CPNWH,779dd1ae-3326-4d56-9a03-c2929945ba12,. Coordinates do not match to country in source data. Consortium of Pacific Northwest Herbaria,1918-06-20T00:00:00,,US,Oregon,Lincoln,,Beaver Creek; 10 miles south of Newport.,44.5206,-124.0703,Vaccinium macrocarpum Aiton,USA,United States,USA.38_1,Oregon,USA.38.21_1,Lincoln
1302583015,GBIF,CPNWH,0d184936-b77f-4c90-b634-dd199329a751,. Coordinates do not match to country in source data. Not found a country in reverser geocoding. Consortium of Pacific Northwest Herbaria,2007-08-14T00:00:00,,US,Washington,Pacific,,"Long Beach Peninsula, southwest shore of Island Lake.",46.425,-124.036667,Vaccinium macrocarpum Aiton,USA,United States,USA.48_1,Washington,USA.48.25_1,Pacific
1302581783,GBIF,CPNWH,81b58f23-0155-48f4-a56a-6e1d0c8266e5,. Coordinates do not match to country in source data. Consortium of Pacific Northwest Herbaria,2007-08-15T00:00:00,,US,Washington,Grays Harbor,,"Both sides of Marine Drive at and west of Sandy Drive south, Grayland.",46.823333,-124.098333,Vaccinium macrocarpum Aiton,USA,United States,USA.48_1,Washington,USA.48.14_1,Grays Harbor
1302581781,GBIF,CPNWH,1336c74b-07a0-4a46-a96b-22385192c490,. Coordinates do not match to country in source data. Consortium of Pacific Northwest Herbaria,1942-07-27T00:00:00,,US,Washington,,,"Obtained from eastern states, now cultivated at Cranberry-Blueberry Laboratory, Long Beach.",46.3525,-124.05306,Vaccinium macrocarpum Aiton,USA,United States,USA.48_1,Washington,USA.48.25_1,Pacific
1302579276,GBIF,CPNWH,3563f359-27b9-4100-afdc-642b0ccde141,. Coordinates do not match to country in source data. Not found a country in reverser geocoding. Consortium of Pacific Northwest Herbaria,2008-11-02T00:00:00,,US,Oregon,Coos,,Near mouth of New River.,43,-124.456667,Vaccinium macrocarpum Aiton,USA,United States,USA.38_1,Oregon,USA.38.6_1,Coos
1302577385,GBIF,CPNWH,67d9db8f-9168-477b-b89e-603fc70c5362,. Coordinates do not match to country in source data. Not found a country in reverser geocoding. Consortium of Pacific Northwest Herbaria,1889-05-29T00:00:00,,US,Washington,King,,Seattle.,47.60639,-122.33083,Vaccinium macrocarpum Aiton,USA,United States,USA.48_1,Washington,USA.48.17_1,King
1302577365,GBIF,CPNWH,8de8dab7-5070-4f64-8562-d36ef71bd73b,. Coordinates do not match to country in source data. Not found a country in reverser geocoding. Consortium of Pacific Northwest Herbaria,2004-06-03T00:00:00,,US,Washington,Grays Harbor,,"Near Astoria Lane, Route 105, Ocosta.",46.891667,-124.01,Vaccinium macrocarpum Aiton,USA,United States,USA.48_1,Washington,USA.48.14_1,Grays Harbor
